{
"type": "FeatureCollection",
"name": "lrt-lines",
"features": [
{ "type": "Feature", "properties": { "kind": "existing", "line": "Capital", "colour": "#0081BC" }, "geometry": { "type": "MultiLineString", "coordinates": [ [ [ -113.52848, 53.50557 ], [ -113.52814, 53.50625 ], [ -113.52605, 53.50776 ] ], [ [ -113.52848, 53.50557 ], [ -113.52844, 53.49961 ] ], [ [ -113.52844, 53.49961 ], [ -113.52848, 53.50557 ] ], [ [ -113.52844, 53.49958 ], [ -113.52844, 53.49961 ] ], [ [ -113.52844, 53.49961 ], [ -113.52844, 53.49958 ] ], [ [ -113.52844, 53.49958 ], [ -113.52842, 53.49953 ] ], [ [ -113.52842, 53.49953 ], [ -113.52844, 53.49958 ] ], [ [ -113.52826, 53.49907 ], [ -113.52842, 53.49953 ] ], [ [ -113.52842, 53.49953 ], [ -113.52826, 53.49907 ] ], [ [ -113.52826, 53.49907 ], [ -113.52761, 53.49846 ] ], [ [ -113.52761, 53.49846 ], [ -113.52826, 53.49907 ] ], [ [ -113.52745, 53.49839 ], [ -113.52761, 53.49846 ] ], [ [ -113.52761, 53.49846 ], [ -113.52745, 53.49839 ] ], [ [ -113.52745, 53.49839 ], [ -113.52704, 53.4982 ] ], [ [ -113.52704, 53.4982 ], [ -113.52745, 53.49839 ] ], [ [ -113.5267, 53.49812 ], [ -113.52704, 53.4982 ] ], [ [ -113.52704, 53.4982 ], [ -113.5267, 53.49812 ] ], [ [ -113.5267, 53.49812 ], [ -113.52627, 53.49803 ] ], [ [ -113.52627, 53.49803 ], [ -113.5267, 53.49812 ] ], [ [ -113.52614, 53.51612 ], [ -113.52603, 53.51709 ] ], [ [ -113.52603, 53.51709 ], [ -113.52614, 53.51612 ] ], [ [ -113.52616, 53.51343 ], [ -113.52614, 53.51612 ] ], [ [ -113.52614, 53.51612 ], [ -113.52616, 53.51343 ] ], [ [ -113.52616, 53.51343 ], [ -113.52612, 53.51021 ] ], [ [ -113.52612, 53.51021 ], [ -113.52616, 53.51343 ] ], [ [ -113.51931, 53.49774 ], [ -113.52627, 53.49803 ] ], [ [ -113.52627, 53.49803 ], [ -113.51931, 53.49774 ] ], [ [ -113.5261, 53.50999 ], [ -113.52612, 53.51021 ] ], [ [ -113.52612, 53.51021 ], [ -113.5261, 53.50999 ] ], [ [ -113.52587, 53.51805 ], [ -113.52603, 53.51709 ] ], [ [ -113.52603, 53.51709 ], [ -113.52587, 53.51805 ] ], [ [ -113.5261, 53.50999 ], [ -113.52608, 53.50976 ] ], [ [ -113.52608, 53.50976 ], [ -113.5261, 53.50999 ] ], [ [ -113.52605, 53.50968 ], [ -113.52608, 53.50976 ] ], [ [ -113.52608, 53.50976 ], [ -113.52605, 53.50968 ] ], [ [ -113.52605, 53.50968 ], [ -113.52592, 53.50934 ] ], [ [ -113.52592, 53.50934 ], [ -113.52605, 53.50968 ] ], [ [ -113.52605, 53.50776 ], [ -113.52583, 53.50809 ] ], [ [ -113.52583, 53.50809 ], [ -113.52605, 53.50776 ] ], [ [ -113.52568, 53.52304 ], [ -113.52585, 53.52247 ] ], [ [ -113.52585, 53.52247 ], [ -113.52568, 53.52304 ] ], [ [ -113.52585, 53.52247 ], [ -113.52587, 53.51805 ] ], [ [ -113.52587, 53.51805 ], [ -113.52585, 53.52247 ] ], [ [ -113.52581, 53.50907 ], [ -113.52592, 53.50934 ] ], [ [ -113.52592, 53.50934 ], [ -113.52581, 53.50907 ] ], [ [ -113.52568, 53.52304 ], [ -113.52556, 53.52323 ] ], [ [ -113.52556, 53.52323 ], [ -113.52568, 53.52304 ] ], [ [ -113.52577, 53.50825 ], [ -113.52583, 53.50809 ] ], [ [ -113.52583, 53.50809 ], [ -113.52577, 53.50825 ] ], [ [ -113.52581, 53.50907 ], [ -113.52576, 53.50891 ] ], [ [ -113.52576, 53.50891 ], [ -113.52581, 53.50907 ] ], [ [ -113.52577, 53.50825 ], [ -113.52573, 53.50841 ] ], [ [ -113.52573, 53.50841 ], [ -113.52577, 53.50825 ] ], [ [ -113.52572, 53.50872 ], [ -113.52576, 53.50891 ] ], [ [ -113.52576, 53.50891 ], [ -113.52572, 53.50872 ] ], [ [ -113.52542, 53.5234 ], [ -113.52556, 53.52323 ] ], [ [ -113.52556, 53.52323 ], [ -113.52542, 53.5234 ] ], [ [ -113.52571, 53.50853 ], [ -113.52573, 53.50841 ] ], [ [ -113.52573, 53.50841 ], [ -113.52571, 53.50853 ] ], [ [ -113.52572, 53.50872 ], [ -113.52571, 53.50853 ] ], [ [ -113.52571, 53.50853 ], [ -113.52572, 53.50872 ] ], [ [ -113.52542, 53.5234 ], [ -113.5252, 53.52362 ] ], [ [ -113.5252, 53.52362 ], [ -113.52542, 53.5234 ] ], [ [ -113.52509, 53.52372 ], [ -113.5252, 53.52362 ] ], [ [ -113.5252, 53.52362 ], [ -113.52509, 53.52372 ] ], [ [ -113.52509, 53.52372 ], [ -113.52477, 53.52394 ] ], [ [ -113.52477, 53.52394 ], [ -113.52509, 53.52372 ] ], [ [ -113.52447, 53.52411 ], [ -113.52477, 53.52394 ] ], [ [ -113.52477, 53.52394 ], [ -113.52447, 53.52411 ] ], [ [ -113.52447, 53.52411 ], [ -113.52432, 53.52418 ] ], [ [ -113.52432, 53.52418 ], [ -113.52447, 53.52411 ] ], [ [ -113.52158, 53.52514 ], [ -113.52432, 53.52418 ] ], [ [ -113.52432, 53.52418 ], [ -113.52158, 53.52514 ] ], [ [ -113.52158, 53.52514 ], [ -113.52146, 53.52517 ] ], [ [ -113.52146, 53.52517 ], [ -113.52158, 53.52514 ] ], [ [ -113.51837, 53.52613 ], [ -113.52146, 53.52517 ] ], [ [ -113.52146, 53.52517 ], [ -113.51837, 53.52613 ] ], [ [ -113.51931, 53.49774 ], [ -113.51899, 53.49769 ] ], [ [ -113.51899, 53.49769 ], [ -113.51931, 53.49774 ] ], [ [ -113.51839, 53.49754 ], [ -113.51899, 53.49769 ] ], [ [ -113.51899, 53.49769 ], [ -113.51839, 53.49754 ] ], [ [ -113.51837, 53.52613 ], [ -113.51808, 53.52624 ] ], [ [ -113.51808, 53.52624 ], [ -113.51837, 53.52613 ] ], [ [ -113.5151, 53.52755 ], [ -113.51808, 53.52624 ] ], [ [ -113.51808, 53.52624 ], [ -113.5151, 53.52755 ] ], [ [ -113.51839, 53.49754 ], [ -113.51789, 53.49735 ] ], [ [ -113.51789, 53.49735 ], [ -113.51839, 53.49754 ] ], [ [ -113.51766, 53.49723 ], [ -113.51789, 53.49735 ] ], [ [ -113.51789, 53.49735 ], [ -113.51766, 53.49723 ] ], [ [ -113.51766, 53.49723 ], [ -113.51723, 53.49689 ] ], [ [ -113.51723, 53.49689 ], [ -113.51766, 53.49723 ] ], [ [ -113.51702, 53.49669 ], [ -113.51723, 53.49689 ] ], [ [ -113.51723, 53.49689 ], [ -113.51702, 53.49669 ] ], [ [ -113.51702, 53.49669 ], [ -113.51694, 53.49656 ] ], [ [ -113.51694, 53.49656 ], [ -113.51702, 53.49669 ] ], [ [ -113.51679, 53.4962 ], [ -113.51694, 53.49656 ] ], [ [ -113.51694, 53.49656 ], [ -113.51679, 53.4962 ] ], [ [ -113.51679, 53.4962 ], [ -113.51676, 53.49599 ] ], [ [ -113.51676, 53.49599 ], [ -113.51679, 53.4962 ] ], [ [ -113.51675, 53.49167 ], [ -113.51676, 53.49599 ] ], [ [ -113.51676, 53.49599 ], [ -113.51675, 53.49167 ] ], [ [ -113.51675, 53.49167 ], [ -113.51689, 53.48534 ], [ -113.51671, 53.48379 ] ], [ [ -113.51671, 53.48379 ], [ -113.51675, 53.49167 ] ], [ [ -113.51623, 53.48165 ], [ -113.51671, 53.48379 ] ], [ [ -113.51671, 53.48379 ], [ -113.51623, 53.48165 ] ], [ [ -113.5164, 53.47963 ], [ -113.51633, 53.48028 ] ], [ [ -113.51633, 53.48028 ], [ -113.5164, 53.47963 ] ], [ [ -113.5164, 53.47963 ], [ -113.5163, 53.45781 ], [ -113.5164, 53.47963 ] ], [ [ -113.51625, 53.48108 ], [ -113.51633, 53.48028 ] ], [ [ -113.51633, 53.48028 ], [ -113.51625, 53.48108 ] ], [ [ -113.51625, 53.48108 ], [ -113.51623, 53.48165 ] ], [ [ -113.51623, 53.48165 ], [ -113.51625, 53.48108 ] ], [ [ -113.5151, 53.52755 ], [ -113.51484, 53.52769 ] ], [ [ -113.51484, 53.52769 ], [ -113.5151, 53.52755 ] ], [ [ -113.51365, 53.52837 ], [ -113.51484, 53.52769 ] ], [ [ -113.51484, 53.52769 ], [ -113.51365, 53.52837 ] ], [ [ -113.51365, 53.52837 ], [ -113.51347, 53.5285 ] ], [ [ -113.51347, 53.5285 ], [ -113.51365, 53.52837 ] ], [ [ -113.51286, 53.52913 ], [ -113.51347, 53.5285 ] ], [ [ -113.51347, 53.5285 ], [ -113.51286, 53.52913 ] ], [ [ -113.51286, 53.52913 ], [ -113.51105, 53.53211 ] ], [ [ -113.51105, 53.53211 ], [ -113.51286, 53.52913 ] ], [ [ -113.51098, 53.53224 ], [ -113.51105, 53.53211 ] ], [ [ -113.51105, 53.53211 ], [ -113.51098, 53.53224 ] ], [ [ -113.51098, 53.53224 ], [ -113.51049, 53.53323 ] ], [ [ -113.51049, 53.53323 ], [ -113.51098, 53.53224 ] ], [ [ -113.51044, 53.53342 ], [ -113.51049, 53.53323 ] ], [ [ -113.51049, 53.53323 ], [ -113.51044, 53.53342 ] ], [ [ -113.51044, 53.53342 ], [ -113.51023, 53.53865 ] ], [ [ -113.51023, 53.53865 ], [ -113.51044, 53.53342 ] ], [ [ -113.51021, 53.53892 ], [ -113.51023, 53.53865 ] ], [ [ -113.51023, 53.53865 ], [ -113.51021, 53.53892 ] ], [ [ -113.51021, 53.53892 ], [ -113.51014, 53.53906 ] ], [ [ -113.51014, 53.53906 ], [ -113.51021, 53.53892 ] ], [ [ -113.50968, 53.5396 ], [ -113.51014, 53.53906 ] ], [ [ -113.51014, 53.53906 ], [ -113.50968, 53.5396 ] ], [ [ -113.50968, 53.5396 ], [ -113.50849, 53.54041 ] ], [ [ -113.50849, 53.54041 ], [ -113.50968, 53.5396 ] ], [ [ -113.50814, 53.54059 ], [ -113.50849, 53.54041 ] ], [ [ -113.50849, 53.54041 ], [ -113.50814, 53.54059 ] ], [ [ -113.50814, 53.54059 ], [ -113.50796, 53.54067 ] ], [ [ -113.50796, 53.54067 ], [ -113.50814, 53.54059 ] ], [ [ -113.50757, 53.54079 ], [ -113.50796, 53.54067 ] ], [ [ -113.50796, 53.54067 ], [ -113.50757, 53.54079 ] ], [ [ -113.50757, 53.54079 ], [ -113.50698, 53.5409 ], [ -113.49454, 53.54092 ], [ -113.49046, 53.54118 ], [ -113.48929, 53.54168 ], [ -113.48874, 53.54244 ], [ -113.48913, 53.54548 ] ], [ [ -113.48913, 53.54548 ], [ -113.4889, 53.54225 ], [ -113.48953, 53.54156 ], [ -113.49028, 53.54125 ], [ -113.49414, 53.54095 ], [ -113.50453, 53.54097 ], [ -113.50698, 53.5409 ], [ -113.50757, 53.54079 ] ], [ [ -113.48904, 53.54571 ], [ -113.48913, 53.54548 ] ], [ [ -113.48913, 53.54548 ], [ -113.48904, 53.54571 ] ], [ [ -113.48904, 53.54571 ], [ -113.48892, 53.54587 ] ], [ [ -113.48892, 53.54587 ], [ -113.48904, 53.54571 ] ], [ [ -113.48873, 53.54608 ], [ -113.48892, 53.54587 ] ], [ [ -113.48892, 53.54587 ], [ -113.48873, 53.54608 ] ], [ [ -113.48873, 53.54608 ], [ -113.48848, 53.5463 ] ], [ [ -113.48848, 53.5463 ], [ -113.48873, 53.54608 ] ], [ [ -113.48542, 53.54855 ], [ -113.48848, 53.5463 ] ], [ [ -113.48848, 53.5463 ], [ -113.48542, 53.54855 ] ], [ [ -113.48542, 53.54855 ], [ -113.4851, 53.54871 ] ], [ [ -113.4851, 53.54871 ], [ -113.48542, 53.54855 ] ], [ [ -113.48428, 53.54908 ], [ -113.4851, 53.54871 ] ], [ [ -113.4851, 53.54871 ], [ -113.48428, 53.54908 ] ], [ [ -113.48428, 53.54908 ], [ -113.4838, 53.54925 ] ], [ [ -113.4838, 53.54925 ], [ -113.48428, 53.54908 ] ], [ [ -113.48305, 53.54955 ], [ -113.4838, 53.54925 ] ], [ [ -113.4838, 53.54925 ], [ -113.48305, 53.54955 ] ], [ [ -113.48305, 53.54955 ], [ -113.48241, 53.54985 ] ], [ [ -113.48241, 53.54985 ], [ -113.48305, 53.54955 ] ], [ [ -113.48217, 53.55001 ], [ -113.48241, 53.54985 ] ], [ [ -113.48241, 53.54985 ], [ -113.48217, 53.55001 ] ], [ [ -113.48217, 53.55001 ], [ -113.46429, 53.56553 ] ], [ [ -113.46429, 53.56553 ], [ -113.47109, 53.55976 ], [ -113.47512, 53.55607 ], [ -113.48217, 53.55001 ] ], [ [ -113.46008, 53.56918 ], [ -113.46429, 53.56553 ] ], [ [ -113.46429, 53.56553 ], [ -113.46008, 53.56918 ] ], [ [ -113.46008, 53.56918 ], [ -113.4569, 53.57196 ] ], [ [ -113.4569, 53.57196 ], [ -113.45866, 53.57062 ], [ -113.46008, 53.56918 ] ], [ [ -113.45333, 53.57512 ], [ -113.4569, 53.57196 ] ], [ [ -113.4569, 53.57196 ], [ -113.45333, 53.57512 ] ], [ [ -113.45333, 53.57512 ], [ -113.44961, 53.57797 ], [ -113.44749, 53.5793 ] ], [ [ -113.44749, 53.5793 ], [ -113.44264, 53.58233 ] ], [ [ -113.44264, 53.58233 ], [ -113.44749, 53.5793 ] ], [ [ -113.44244, 53.58245 ], [ -113.44264, 53.58233 ] ], [ [ -113.44264, 53.58233 ], [ -113.44244, 53.58245 ] ], [ [ -113.44244, 53.58245 ], [ -113.44146, 53.58299 ] ], [ [ -113.44146, 53.58299 ], [ -113.44244, 53.58245 ] ], [ [ -113.43984, 53.58373 ], [ -113.44146, 53.58299 ] ], [ [ -113.44146, 53.58299 ], [ -113.43984, 53.58373 ] ], [ [ -113.43984, 53.58373 ], [ -113.43792, 53.5849 ] ], [ [ -113.43792, 53.5849 ], [ -113.43984, 53.58373 ] ], [ [ -113.43786, 53.58494 ], [ -113.43792, 53.5849 ] ], [ [ -113.43792, 53.5849 ], [ -113.43786, 53.58494 ] ], [ [ -113.43786, 53.58494 ], [ -113.4328, 53.58835 ], [ -113.42592, 53.59273 ] ], [ [ -113.42592, 53.59273 ], [ -113.43324, 53.58819 ], [ -113.43786, 53.58494 ] ], [ [ -113.42592, 53.59273 ], [ -113.41182, 53.60159 ], [ -113.42592, 53.59273 ] ] ] } },
{ "type": "Feature", "properties": { "kind": "existing", "line": "Valley", "colour": "#008000" }, "geometry": { "type": "MultiLineString", "coordinates": [ [ [ -113.4842, 53.54436 ], [ -113.48845, 53.54356 ], [ -113.49544, 53.54309 ] ], [ [ -113.4842, 53.54436 ], [ -113.4829, 53.54458 ] ], [ [ -113.4829, 53.54458 ], [ -113.48351, 53.54455 ], [ -113.4842, 53.54436 ] ], [ [ -113.46232, 53.53173 ], [ -113.47076, 53.53172 ], [ -113.47138, 53.53184 ], [ -113.47334, 53.53257 ], [ -113.4748, 53.53291 ], [ -113.47668, 53.5331 ], [ -113.47981, 53.53312 ], [ -113.48079, 53.53342 ], [ -113.48126, 53.53411 ], [ -113.4809, 53.53559 ], [ -113.48049, 53.53593 ], [ -113.47786, 53.53733 ], [ -113.47722, 53.5381 ], [ -113.47715, 53.54213 ], [ -113.47844, 53.54459 ], [ -113.47888, 53.54496 ], [ -113.47977, 53.54511 ], [ -113.4829, 53.54458 ] ], [ [ -113.46232, 53.53173 ], [ -113.46175, 53.53173 ] ], [ [ -113.46175, 53.53173 ], [ -113.46232, 53.53173 ] ], [ [ -113.42909, 53.45858 ], [ -113.4314, 53.45829 ], [ -113.43316, 53.45823 ], [ -113.43366, 53.45832 ], [ -113.43399, 53.45858 ], [ -113.43406, 53.46066 ], [ -113.43441, 53.46234 ], [ -113.43843, 53.47139 ], [ -113.43882, 53.47297 ], [ -113.43915, 53.47612 ], [ -113.43974, 53.47698 ], [ -113.44171, 53.47869 ], [ -113.44235, 53.47976 ], [ -113.44248, 53.48243 ], [ -113.44218, 53.48596 ], [ -113.44241, 53.48958 ], [ -113.44248, 53.4984 ], [ -113.44596, 53.5013 ], [ -113.44705, 53.50153 ], [ -113.44909, 53.50134 ], [ -113.45017, 53.50157 ], [ -113.45419, 53.50415 ], [ -113.45493, 53.50501 ], [ -113.45513, 53.51727 ], [ -113.45546, 53.51848 ], [ -113.4553, 53.52284 ], [ -113.45556, 53.52347 ], [ -113.45703, 53.52506 ], [ -113.45737, 53.52578 ], [ -113.45738, 53.53148 ], [ -113.45753, 53.53167 ], [ -113.45791, 53.53178 ], [ -113.46175, 53.53173 ] ] ] } },
{ "type": "Feature", "properties": { "kind": "existing", "line": "Metro", "colour": "#E01F27" }, "geometry": { "type": "MultiLineString", "coordinates": [ [ [ -113.48934, 53.54574 ], [ -113.48943, 53.54609 ] ], [ [ -113.48943, 53.54609 ], [ -113.48938, 53.5457 ] ], [ [ -113.50418, 53.56591 ], [ -113.50614, 53.56601 ], [ -113.50418, 53.56591 ] ], [ [ -113.50378, 53.56579 ], [ -113.50418, 53.56591 ] ], [ [ -113.50418, 53.56591 ], [ -113.50378, 53.56579 ] ], [ [ -113.50378, 53.56579 ], [ -113.50353, 53.56566 ] ], [ [ -113.50353, 53.56566 ], [ -113.50378, 53.56579 ] ], [ [ -113.50228, 53.55842 ], [ -113.50272, 53.55901 ], [ -113.50283, 53.5607 ], [ -113.50312, 53.5617 ], [ -113.50316, 53.56523 ], [ -113.50353, 53.56566 ] ], [ [ -113.50228, 53.55842 ], [ -113.5, 53.55717 ] ], [ [ -113.5, 53.55717 ], [ -113.50228, 53.55842 ] ], [ [ -113.49999, 53.54784 ], [ -113.50044, 53.54795 ], [ -113.50106, 53.54842 ], [ -113.50103, 53.55246 ], [ -113.50062, 53.55296 ], [ -113.4995, 53.55363 ], [ -113.49921, 53.55413 ], [ -113.49925, 53.55639 ], [ -113.49957, 53.55687 ], [ -113.5, 53.55717 ] ], [ [ -113.49999, 53.54784 ], [ -113.49696, 53.54765 ] ], [ [ -113.49696, 53.54765 ], [ -113.49999, 53.54784 ] ], [ [ -113.48943, 53.54609 ], [ -113.49014, 53.54702 ], [ -113.49132, 53.54757 ], [ -113.49241, 53.5477 ], [ -113.49696, 53.54765 ] ] ] } },
{ "type": "Feature", "properties": { "kind": "construction", "line": "Capital", "colour": "#0081BC" }, "geometry": { "type": "LineString", "coordinates": [ [ -113.54559, 53.42512 ], [ -113.54556, 53.4284 ], [ -113.54533, 53.42956 ], [ -113.54437, 53.43081 ], [ -113.54315, 53.43161 ], [ -113.54151, 53.43224 ], [ -113.54028, 53.43247 ], [ -113.52937, 53.4334 ], [ -113.52765, 53.43369 ], [ -113.52611, 53.43424 ], [ -113.52374, 53.43537 ], [ -113.52007, 53.43731 ], [ -113.51908, 53.43798 ], [ -113.5186, 53.43904 ], [ -113.51819, 53.44274 ], [ -113.51676, 53.44657 ], [ -113.5167, 53.45292 ], [ -113.51633, 53.45483 ], [ -113.51627, 53.45664 ] ] } },
{ "type": "Feature", "properties": { "kind": "construction", "line": "Metro", "colour": "#E01F27" }, "geometry": { "type": "MultiLineString", "coordinates": [ [ [ -113.51043, 53.57883 ], [ -113.51044, 53.57352 ] ], [ [ -113.51044, 53.57352 ], [ -113.51044, 53.57251 ] ], [ [ -113.51037, 53.57312 ], [ -113.51044, 53.57352 ] ], [ [ -113.51037, 53.57294 ], [ -113.51044, 53.57251 ] ], [ [ -113.51044, 53.57251 ], [ -113.51039, 53.56801 ] ], [ [ -113.51037, 53.57312 ], [ -113.51036, 53.57882 ] ], [ [ -113.51037, 53.57294 ], [ -113.51037, 53.57312 ] ], [ [ -113.51003, 53.56758 ], [ -113.51033, 53.56803 ], [ -113.51037, 53.57294 ] ] ] } },
{ "type": "Feature", "properties": { "kind": "construction", "line": "Valley", "colour": "#008000" }, "geometry": { "type": "MultiLineString", "coordinates": [ [ [ -113.66787, 53.52279 ], [ -113.66563, 53.52271 ], [ -113.66092, 53.52277 ], [ -113.65757, 53.52224 ], [ -113.65458, 53.52139 ], [ -113.65281, 53.52115 ], [ -113.63994, 53.52143 ], [ -113.63629, 53.52147 ], [ -113.63381, 53.52132 ], [ -113.63248, 53.52142 ], [ -113.62912, 53.5211 ], [ -113.62566, 53.52062 ], [ -113.6242, 53.52064 ], [ -113.61996, 53.51995 ], [ -113.61754, 53.51972 ], [ -113.61098, 53.51974 ], [ -113.60887, 53.51954 ], [ -113.59694, 53.51946 ], [ -113.59656, 53.5197 ], [ -113.59645, 53.52062 ], [ -113.59607, 53.52112 ], [ -113.59096, 53.52417 ], [ -113.59037, 53.5249 ], [ -113.59033, 53.54097 ], [ -113.59, 53.54126 ], [ -113.57988, 53.54133 ], [ -113.5759, 53.54212 ], [ -113.57472, 53.54213 ], [ -113.57225, 53.54192 ], [ -113.5712, 53.54199 ], [ -113.56741, 53.54298 ], [ -113.56235, 53.54335 ], [ -113.5555, 53.54488 ], [ -113.54685, 53.54762 ], [ -113.54498, 53.54792 ], [ -113.5303, 53.5462 ], [ -113.50537, 53.54622 ], [ -113.50501, 53.54613 ], [ -113.50486, 53.54592 ], [ -113.50486, 53.54338 ], [ -113.50461, 53.5431 ], [ -113.49764, 53.54305 ], [ -113.49534, 53.54313 ] ], [ [ -113.49535, 53.54316 ], [ -113.49764, 53.54308 ], [ -113.50458, 53.54313 ], [ -113.50481, 53.54338 ], [ -113.50483, 53.54601 ], [ -113.50536, 53.54625 ], [ -113.53021, 53.54623 ], [ -113.54222, 53.54771 ], [ -113.54503, 53.54796 ], [ -113.54688, 53.54766 ], [ -113.55553, 53.54493 ], [ -113.56281, 53.54332 ], [ -113.56775, 53.54296 ], [ -113.57121, 53.54203 ], [ -113.57225, 53.54196 ], [ -113.57551, 53.54218 ], [ -113.57706, 53.542 ], [ -113.57986, 53.54138 ], [ -113.59015, 53.54128 ], [ -113.59044, 53.54095 ], [ -113.59043, 53.52491 ], [ -113.59101, 53.52419 ], [ -113.59612, 53.52115 ], [ -113.59653, 53.52057 ], [ -113.59665, 53.51969 ], [ -113.59707, 53.5195 ], [ -113.60887, 53.51958 ], [ -113.61098, 53.51978 ], [ -113.61754, 53.51976 ], [ -113.62009, 53.52001 ], [ -113.62421, 53.52069 ], [ -113.62561, 53.52066 ], [ -113.62953, 53.52119 ], [ -113.63268, 53.52147 ], [ -113.63379, 53.52137 ], [ -113.63625, 53.52151 ], [ -113.63952, 53.52147 ], [ -113.65261, 53.52117 ], [ -113.65415, 53.52134 ], [ -113.65755, 53.52229 ], [ -113.66087, 53.52281 ], [ -113.66557, 53.52275 ], [ -113.66786, 53.52283 ] ] ] } }
]
}
