{
"type": "FeatureCollection",
"name": "fbus-stops",
"features": [
{ "type": "Feature", "properties": { "name": "Abbottsfield Transit Centre Bay A" }, "geometry": { "type": "Point", "coordinates": [ -113.39036, 53.57196 ] } },
{ "type": "Feature", "properties": { "name": "89 Street & 118 Avenue" }, "geometry": { "type": "Point", "coordinates": [ -113.47866, 53.57046 ] } },
{ "type": "Feature", "properties": { "name": "Wayne Gretzky Drive S & 118 Avenue" }, "geometry": { "type": "Point", "coordinates": [ -113.45449, 53.57046 ] } },
{ "type": "Feature", "properties": { "name": "101 Street & 104 Avenue" }, "geometry": { "type": "Point", "coordinates": [ -113.49355, 53.54713 ] } },
{ "type": "Feature", "properties": { "name": "Rossdale Road & 96 Avenue" }, "geometry": { "type": "Point", "coordinates": [ -113.49766, 53.5319 ] } },
{ "type": "Feature", "properties": { "name": "96 Street & 111 Avenue" }, "geometry": { "type": "Point", "coordinates": [ -113.49046, 53.55922 ] } },
{ "type": "Feature", "properties": { "name": "102 Street & 111 Avenue" }, "geometry": { "type": "Point", "coordinates": [ -113.4979, 53.55879 ] } },
{ "type": "Feature", "properties": { "name": "84 Street & 118 Avenue" }, "geometry": { "type": "Point", "coordinates": [ -113.46987, 53.57033 ] } },
{ "type": "Feature", "properties": { "name": "90 Street & 118 Avenue" }, "geometry": { "type": "Point", "coordinates": [ -113.47917, 53.57032 ] } },
{ "type": "Feature", "properties": { "name": "102 Street & 111 Avenue" }, "geometry": { "type": "Point", "coordinates": [ -113.49837, 53.559 ] } },
{ "type": "Feature", "properties": { "name": "68 Street & 118 Avenue" }, "geometry": { "type": "Point", "coordinates": [ -113.44594, 53.57032 ] } },
{ "type": "Feature", "properties": { "name": "107 Street & Jasper Avenue" }, "geometry": { "type": "Point", "coordinates": [ -113.50401, 53.54083 ] } },
{ "type": "Feature", "properties": { "name": "95 Street & 108 Avenue" }, "geometry": { "type": "Point", "coordinates": [ -113.48405, 53.55447 ] } },
{ "type": "Feature", "properties": { "name": "97 Street & 118 Avenue" }, "geometry": { "type": "Point", "coordinates": [ -113.49201, 53.57086 ] } },
{ "type": "Feature", "properties": { "name": "124 Street & 111 Avenue" }, "geometry": { "type": "Point", "coordinates": [ -113.53655, 53.55898 ] } },
{ "type": "Feature", "properties": { "name": "97 Street & Yellowhead Trail" }, "geometry": { "type": "Point", "coordinates": [ -113.49195, 53.58116 ] } },
{ "type": "Feature", "properties": { "name": "80 Street & 118 Avenue" }, "geometry": { "type": "Point", "coordinates": [ -113.46337, 53.57033 ] } },
{ "type": "Feature", "properties": { "name": "Bellamy Hill & 98 Avenue" }, "geometry": { "type": "Point", "coordinates": [ -113.49709, 53.53553 ] } },
{ "type": "Feature", "properties": { "name": "124 Street & 103 Avenue" }, "geometry": { "type": "Point", "coordinates": [ -113.53601, 53.54428 ] } },
{ "type": "Feature", "properties": { "name": "97 Street & 120 Avenue" }, "geometry": { "type": "Point", "coordinates": [ -113.49247, 53.57311 ] } },
{ "type": "Feature", "properties": { "name": "101 Street & 105 Avenue" }, "geometry": { "type": "Point", "coordinates": [ -113.49383, 53.5474 ] } },
{ "type": "Feature", "properties": { "name": "95 Street & 102A Avenue" }, "geometry": { "type": "Point", "coordinates": [ -113.47944, 53.5466 ] } },
{ "type": "Feature", "properties": { "name": "Kingsway & 111 Avenue" }, "geometry": { "type": "Point", "coordinates": [ -113.50508, 53.55904 ] } },
{ "type": "Feature", "properties": { "name": "103 Street & 118 Avenue" }, "geometry": { "type": "Point", "coordinates": [ -113.49684, 53.57026 ] } },
{ "type": "Feature", "properties": { "name": "101 Street & 103 Avenue" }, "geometry": { "type": "Point", "coordinates": [ -113.49387, 53.54481 ] } },
{ "type": "Feature", "properties": { "name": "Bellamy Hill & 99 Avenue" }, "geometry": { "type": "Point", "coordinates": [ -113.49571, 53.53691 ] } },
{ "type": "Feature", "properties": { "name": "105 Street & 118 Avenue" }, "geometry": { "type": "Point", "coordinates": [ -113.50167, 53.57043 ] } },
{ "type": "Feature", "properties": { "name": "46 Street & 118 Avenue" }, "geometry": { "type": "Point", "coordinates": [ -113.41175, 53.5703 ] } },
{ "type": "Feature", "properties": { "name": "121 Street & Jasper Avenue" }, "geometry": { "type": "Point", "coordinates": [ -113.53016, 53.54084 ] } },
{ "type": "Feature", "properties": { "name": "St Albert Trail & 114 Avenue" }, "geometry": { "type": "Point", "coordinates": [ -113.54448, 53.5636 ] } },
{ "type": "Feature", "properties": { "name": "76 Street & 118 Avenue" }, "geometry": { "type": "Point", "coordinates": [ -113.45898, 53.57049 ] } },
{ "type": "Feature", "properties": { "name": "88 Street & 112 Avenue" }, "geometry": { "type": "Point", "coordinates": [ -113.4763, 53.56096 ] } },
{ "type": "Feature", "properties": { "name": "84 Street & 110 Avenue" }, "geometry": { "type": "Point", "coordinates": [ -113.47092, 53.55785 ] } },
{ "type": "Feature", "properties": { "name": "92 Street & Norwood Boulevard" }, "geometry": { "type": "Point", "coordinates": [ -113.48195, 53.56062 ] } },
{ "type": "Feature", "properties": { "name": "109 Street & Jasper Avenue" }, "geometry": { "type": "Point", "coordinates": [ -113.50716, 53.54083 ] } },
{ "type": "Feature", "properties": { "name": "40 Street & 118 Avenue" }, "geometry": { "type": "Point", "coordinates": [ -113.40243, 53.5703 ] } },
{ "type": "Feature", "properties": { "name": "109 Street & 110 Avenue" }, "geometry": { "type": "Point", "coordinates": [ -113.50827, 53.55712 ] } },
{ "type": "Feature", "properties": { "name": "45 Street & 118 Avenue" }, "geometry": { "type": "Point", "coordinates": [ -113.41115, 53.57043 ] } },
{ "type": "Feature", "properties": { "name": "87 Street & Jasper Avenue" }, "geometry": { "type": "Point", "coordinates": [ -113.47246, 53.55321 ] } },
{ "type": "Feature", "properties": { "name": "103 Street & 118 Avenue" }, "geometry": { "type": "Point", "coordinates": [ -113.49802, 53.57042 ] } },
{ "type": "Feature", "properties": { "name": "64 Street & 118 Avenue" }, "geometry": { "type": "Point", "coordinates": [ -113.4394, 53.57032 ] } },
{ "type": "Feature", "properties": { "name": "122 Street & Jasper Avenue" }, "geometry": { "type": "Point", "coordinates": [ -113.53295, 53.54137 ] } },
{ "type": "Feature", "properties": { "name": "Kingsway RAH Transit Centre Bay I" }, "geometry": { "type": "Point", "coordinates": [ -113.5014, 53.55877 ] } },
{ "type": "Feature", "properties": { "name": "Kingsway RAH Transit Centre Bay G" }, "geometry": { "type": "Point", "coordinates": [ -113.50144, 53.55867 ] } },
{ "type": "Feature", "properties": { "name": "109 Street & 103 Avenue" }, "geometry": { "type": "Point", "coordinates": [ -113.50867, 53.54418 ] } },
{ "type": "Feature", "properties": { "name": "109 Street & 103 Avenue" }, "geometry": { "type": "Point", "coordinates": [ -113.50825, 53.54492 ] } },
{ "type": "Feature", "properties": { "name": "99 Street & Jasper Avenue" }, "geometry": { "type": "Point", "coordinates": [ -113.48722, 53.54169 ] } },
{ "type": "Feature", "properties": { "name": "85 Street & 118 Avenue" }, "geometry": { "type": "Point", "coordinates": [ -113.47132, 53.57045 ] } },
{ "type": "Feature", "properties": { "name": "113 Street & 111 Avenue" }, "geometry": { "type": "Point", "coordinates": [ -113.51621, 53.55899 ] } },
{ "type": "Feature", "properties": { "name": "99 Street & 103A Avenue" }, "geometry": { "type": "Point", "coordinates": [ -113.49002, 53.54615 ] } },
{ "type": "Feature", "properties": { "name": "62 Street & 118 Avenue" }, "geometry": { "type": "Point", "coordinates": [ -113.43602, 53.57031 ] } },
{ "type": "Feature", "properties": { "name": "97 Street & 120 Avenue" }, "geometry": { "type": "Point", "coordinates": [ -113.49207, 53.57392 ] } },
{ "type": "Feature", "properties": { "name": "123 Street & Jasper Avenue" }, "geometry": { "type": "Point", "coordinates": [ -113.53334, 53.54125 ] } },
{ "type": "Feature", "properties": { "name": "97 Street & 111 Avenue" }, "geometry": { "type": "Point", "coordinates": [ -113.49102, 53.55898 ] } },
{ "type": "Feature", "properties": { "name": "95 Street & 111 Avenue" }, "geometry": { "type": "Point", "coordinates": [ -113.48769, 53.55991 ] } },
{ "type": "Feature", "properties": { "name": "97 Street & 103A Avenue" }, "geometry": { "type": "Point", "coordinates": [ -113.48832, 53.54655 ] } },
{ "type": "Feature", "properties": { "name": "76 Street & 118 Avenue" }, "geometry": { "type": "Point", "coordinates": [ -113.45842, 53.57022 ] } },
{ "type": "Feature", "properties": { "name": "97 Street & 103A Avenue" }, "geometry": { "type": "Point", "coordinates": [ -113.48665, 53.54685 ] } },
{ "type": "Feature", "properties": { "name": "95 Street & 103A Avenue" }, "geometry": { "type": "Point", "coordinates": [ -113.48101, 53.54783 ] } },
{ "type": "Feature", "properties": { "name": "95 Street & 107 Avenue" }, "geometry": { "type": "Point", "coordinates": [ -113.48314, 53.55331 ] } },
{ "type": "Feature", "properties": { "name": "107 Street & 111 Avenue" }, "geometry": { "type": "Point", "coordinates": [ -113.5049, 53.55879 ] } },
{ "type": "Feature", "properties": { "name": "59 Street & 118 Avenue" }, "geometry": { "type": "Point", "coordinates": [ -113.43254, 53.57043 ] } },
{ "type": "Feature", "properties": { "name": "102 Street & 104 Avenue" }, "geometry": { "type": "Point", "coordinates": [ -113.49502, 53.54631 ] } },
{ "type": "Feature", "properties": { "name": "124 Street & 107 Avenue" }, "geometry": { "type": "Point", "coordinates": [ -113.53601, 53.55059 ] } },
{ "type": "Feature", "properties": { "name": "104 Street & 104 Avenue" }, "geometry": { "type": "Point", "coordinates": [ -113.49888, 53.54633 ] } },
{ "type": "Feature", "properties": { "name": "97 Street & 103A Avenue" }, "geometry": { "type": "Point", "coordinates": [ -113.4867, 53.54669 ] } },
{ "type": "Feature", "properties": { "name": "95 Street & 103A Avenue" }, "geometry": { "type": "Point", "coordinates": [ -113.48092, 53.54767 ] } },
{ "type": "Feature", "properties": { "name": "95 Street & 117 Avenue" }, "geometry": { "type": "Point", "coordinates": [ -113.48709, 53.56921 ] } },
{ "type": "Feature", "properties": { "name": "96 Street & 103A Avenue" }, "geometry": { "type": "Point", "coordinates": [ -113.48282, 53.54736 ] } },
{ "type": "Feature", "properties": { "name": "117 Street & Jasper Avenue" }, "geometry": { "type": "Point", "coordinates": [ -113.52259, 53.54084 ] } },
{ "type": "Feature", "properties": { "name": "101 Street & MacDonald Drive" }, "geometry": { "type": "Point", "coordinates": [ -113.49388, 53.53972 ] } },
{ "type": "Feature", "properties": { "name": "95 Street & 111 Avenue" }, "geometry": { "type": "Point", "coordinates": [ -113.48598, 53.5602 ] } },
{ "type": "Feature", "properties": { "name": "61 Street & 118 Avenue" }, "geometry": { "type": "Point", "coordinates": [ -113.43565, 53.57043 ] } },
{ "type": "Feature", "properties": { "name": "95 Street & 114 Avenue" }, "geometry": { "type": "Point", "coordinates": [ -113.48728, 53.56385 ] } },
{ "type": "Feature", "properties": { "name": "32 Street & 118 Avenue" }, "geometry": { "type": "Point", "coordinates": [ -113.39078, 53.57024 ] } },
{ "type": "Feature", "properties": { "name": "66 Street & 118 Avenue" }, "geometry": { "type": "Point", "coordinates": [ -113.44407, 53.57044 ] } },
{ "type": "Feature", "properties": { "name": "95 Street & 109 Avenue" }, "geometry": { "type": "Point", "coordinates": [ -113.485, 53.5562 ] } },
{ "type": "Feature", "properties": { "name": "88 Street & 112 Avenue" }, "geometry": { "type": "Point", "coordinates": [ -113.47739, 53.56117 ] } },
{ "type": "Feature", "properties": { "name": "95 Street & 116 Avenue" }, "geometry": { "type": "Point", "coordinates": [ -113.48733, 53.5671 ] } },
{ "type": "Feature", "properties": { "name": "89 Street & 118 Avenue" }, "geometry": { "type": "Point", "coordinates": [ -113.47762, 53.57032 ] } },
{ "type": "Feature", "properties": { "name": "89 Street & Rowland Road" }, "geometry": { "type": "Point", "coordinates": [ -113.47047, 53.54791 ] } },
{ "type": "Feature", "properties": { "name": "43 Street & 118 Avenue" }, "geometry": { "type": "Point", "coordinates": [ -113.40828, 53.57043 ] } },
{ "type": "Feature", "properties": { "name": "38 Street & 118 Avenue" }, "geometry": { "type": "Point", "coordinates": [ -113.39923, 53.5703 ] } },
{ "type": "Feature", "properties": { "name": "90 Street & Jasper Avenue" }, "geometry": { "type": "Point", "coordinates": [ -113.47367, 53.5511 ] } },
{ "type": "Feature", "properties": { "name": "42 Street & 118 Avenue" }, "geometry": { "type": "Point", "coordinates": [ -113.40556, 53.57029 ] } },
{ "type": "Feature", "properties": { "name": "57 Street & 118 Avenue" }, "geometry": { "type": "Point", "coordinates": [ -113.42881, 53.57028 ] } },
{ "type": "Feature", "properties": { "name": "90 Street & Jasper Avenue" }, "geometry": { "type": "Point", "coordinates": [ -113.47319, 53.55133 ] } },
{ "type": "Feature", "properties": { "name": "69 Street & 118 Avenue" }, "geometry": { "type": "Point", "coordinates": [ -113.4485, 53.57045 ] } },
{ "type": "Feature", "properties": { "name": "95 Street & Jasper Avenue" }, "geometry": { "type": "Point", "coordinates": [ -113.4786, 53.54466 ] } },
{ "type": "Feature", "properties": { "name": "McDougall Hill & Grierson Hill" }, "geometry": { "type": "Point", "coordinates": [ -113.49059, 53.53854 ] } },
{ "type": "Feature", "properties": { "name": "111 Street & 111 Avenue" }, "geometry": { "type": "Point", "coordinates": [ -113.5125, 53.559 ] } },
{ "type": "Feature", "properties": { "name": "97 Street & Jasper Avenue" }, "geometry": { "type": "Point", "coordinates": [ -113.48465, 53.54231 ] } },
{ "type": "Feature", "properties": { "name": "97 Street & Yellowhead Trail" }, "geometry": { "type": "Point", "coordinates": [ -113.49233, 53.58146 ] } },
{ "type": "Feature", "properties": { "name": "Coliseum Transit Centre Bay A" }, "geometry": { "type": "Point", "coordinates": [ -113.45898, 53.57079 ] } },
{ "type": "Feature", "properties": { "name": "Coliseum Transit Centre Bay B" }, "geometry": { "type": "Point", "coordinates": [ -113.45934, 53.57075 ] } },
{ "type": "Feature", "properties": { "name": "Coliseum Transit Centre Bay I" }, "geometry": { "type": "Point", "coordinates": [ -113.45989, 53.571 ] } },
{ "type": "Feature", "properties": { "name": "95 Street & Jasper Avenue" }, "geometry": { "type": "Point", "coordinates": [ -113.47956, 53.54494 ] } },
{ "type": "Feature", "properties": { "name": "106 Street & 117 Avenue" }, "geometry": { "type": "Point", "coordinates": [ -113.5031, 53.56745 ] } },
{ "type": "Feature", "properties": { "name": "55 Street & 118 Avenue" }, "geometry": { "type": "Point", "coordinates": [ -113.42579, 53.5703 ] } },
{ "type": "Feature", "properties": { "name": "106 Street & 117 Avenue" }, "geometry": { "type": "Point", "coordinates": [ -113.50275, 53.56807 ] } },
{ "type": "Feature", "properties": { "name": "82 Street & 118 Avenue" }, "geometry": { "type": "Point", "coordinates": [ -113.46805, 53.57044 ] } },
{ "type": "Feature", "properties": { "name": "96 Street & 111 Avenue" }, "geometry": { "type": "Point", "coordinates": [ -113.48903, 53.55925 ] } },
{ "type": "Feature", "properties": { "name": "101 Street & 111 Avenue" }, "geometry": { "type": "Point", "coordinates": [ -113.49359, 53.55924 ] } },
{ "type": "Feature", "properties": { "name": "82 Street & 118 Avenue" }, "geometry": { "type": "Point", "coordinates": [ -113.46659, 53.57033 ] } },
{ "type": "Feature", "properties": { "name": "70 Street & 118 Avenue" }, "geometry": { "type": "Point", "coordinates": [ -113.44929, 53.57032 ] } },
{ "type": "Feature", "properties": { "name": "101 Street & 117 Avenue" }, "geometry": { "type": "Point", "coordinates": [ -113.49355, 53.56922 ] } },
{ "type": "Feature", "properties": { "name": "124 Street & Stony Plain Road" }, "geometry": { "type": "Point", "coordinates": [ -113.53607, 53.54645 ] } },
{ "type": "Feature", "properties": { "name": "34 Street & 119 Avenue" }, "geometry": { "type": "Point", "coordinates": [ -113.39384, 53.57153 ] } },
{ "type": "Feature", "properties": { "name": "124 Street & 102 Avenue" }, "geometry": { "type": "Point", "coordinates": [ -113.53602, 53.54225 ] } },
{ "type": "Feature", "properties": { "name": "101 Street & 102  Avenue" }, "geometry": { "type": "Point", "coordinates": [ -113.49389, 53.54228 ] } },
{ "type": "Feature", "properties": { "name": "82 Street & Jasper Avenue" }, "geometry": { "type": "Point", "coordinates": [ -113.46718, 53.5575 ] } },
{ "type": "Feature", "properties": { "name": "41 Street & 118 Avenue" }, "geometry": { "type": "Point", "coordinates": [ -113.40549, 53.57043 ] } },
{ "type": "Feature", "properties": { "name": "95 Street & 103A Avenue" }, "geometry": { "type": "Point", "coordinates": [ -113.48033, 53.54823 ] } },
{ "type": "Feature", "properties": { "name": "102 Street & MacDonald Drive" }, "geometry": { "type": "Point", "coordinates": [ -113.49531, 53.53963 ] } },
{ "type": "Feature", "properties": { "name": "88 Street & 118 Avenue" }, "geometry": { "type": "Point", "coordinates": [ -113.47584, 53.57046 ] } },
{ "type": "Feature", "properties": { "name": "Thornton Court & Jasper Avenue" }, "geometry": { "type": "Point", "coordinates": [ -113.48732, 53.54142 ] } },
{ "type": "Feature", "properties": { "name": "95 Street & 117 Avenue" }, "geometry": { "type": "Point", "coordinates": [ -113.48734, 53.56868 ] } },
{ "type": "Feature", "properties": { "name": "47 Street & 118 Avenue" }, "geometry": { "type": "Point", "coordinates": [ -113.41437, 53.57042 ] } },
{ "type": "Feature", "properties": { "name": "100 Street & Jasper Avenue" }, "geometry": { "type": "Point", "coordinates": [ -113.49148, 53.54118 ] } },
{ "type": "Feature", "properties": { "name": "86 Street & 112 Avenue" }, "geometry": { "type": "Point", "coordinates": [ -113.47405, 53.56117 ] } },
{ "type": "Feature", "properties": { "name": "124 Street & 114 Avenue" }, "geometry": { "type": "Point", "coordinates": [ -113.53603, 53.56328 ] } },
{ "type": "Feature", "properties": { "name": "105 Street & Jasper Avenue" }, "geometry": { "type": "Point", "coordinates": [ -113.49993, 53.54084 ] } },
{ "type": "Feature", "properties": { "name": "122 Street & 111 Avenue" }, "geometry": { "type": "Point", "coordinates": [ -113.532, 53.55881 ] } },
{ "type": "Feature", "properties": { "name": "110 Street & 111 Avenue" }, "geometry": { "type": "Point", "coordinates": [ -113.50986, 53.55879 ] } },
{ "type": "Feature", "properties": { "name": "53 Street & 118 Avenue" }, "geometry": { "type": "Point", "coordinates": [ -113.42353, 53.57041 ] } },
{ "type": "Feature", "properties": { "name": "124 Street & 111 Avenue" }, "geometry": { "type": "Point", "coordinates": [ -113.53521, 53.55882 ] } },
{ "type": "Feature", "properties": { "name": "66 Street & 118 Avenue" }, "geometry": { "type": "Point", "coordinates": [ -113.44253, 53.5703 ] } },
{ "type": "Feature", "properties": { "name": "97 Street & 118 Avenue" }, "geometry": { "type": "Point", "coordinates": [ -113.49339, 53.5705 ] } },
{ "type": "Feature", "properties": { "name": "95 Street & 118 Avenue" }, "geometry": { "type": "Point", "coordinates": [ -113.48789, 53.57045 ] } },
{ "type": "Feature", "properties": { "name": "101 Street & 116 Avenue" }, "geometry": { "type": "Point", "coordinates": [ -113.49382, 53.5671 ] } },
{ "type": "Feature", "properties": { "name": "Wayne Gretzky Drive S & 118 Avenue" }, "geometry": { "type": "Point", "coordinates": [ -113.45309, 53.57023 ] } },
{ "type": "Feature", "properties": { "name": "34 Street & 118 Avenue" }, "geometry": { "type": "Point", "coordinates": [ -113.39441, 53.57048 ] } },
{ "type": "Feature", "properties": { "name": "95 Street & 118 Avenue" }, "geometry": { "type": "Point", "coordinates": [ -113.4866, 53.57032 ] } },
{ "type": "Feature", "properties": { "name": "103 Street & Jasper Avenue" }, "geometry": { "type": "Point", "coordinates": [ -113.49644, 53.54083 ] } },
{ "type": "Feature", "properties": { "name": "95 Street & 112 Avenue" }, "geometry": { "type": "Point", "coordinates": [ -113.48727, 53.5608 ] } },
{ "type": "Feature", "properties": { "name": "87 Street & 118 Avenue" }, "geometry": { "type": "Point", "coordinates": [ -113.47444, 53.57034 ] } },
{ "type": "Feature", "properties": { "name": "80 Street & 118 Avenue" }, "geometry": { "type": "Point", "coordinates": [ -113.46467, 53.57046 ] } },
{ "type": "Feature", "properties": { "name": "96 Street & Jasper Avenue" }, "geometry": { "type": "Point", "coordinates": [ -113.4827, 53.54336 ] } },
{ "type": "Feature", "properties": { "name": "109 Street & 111 Avenue" }, "geometry": { "type": "Point", "coordinates": [ -113.50906, 53.55902 ] } },
{ "type": "Feature", "properties": { "name": "95 Street & 105 Avenue" }, "geometry": { "type": "Point", "coordinates": [ -113.48124, 53.54991 ] } },
{ "type": "Feature", "properties": { "name": "101 Street & Jasper Avenue" }, "geometry": { "type": "Point", "coordinates": [ -113.49229, 53.54093 ] } },
{ "type": "Feature", "properties": { "name": "36 Street & 118 Avenue" }, "geometry": { "type": "Point", "coordinates": [ -113.39736, 53.57044 ] } },
{ "type": "Feature", "properties": { "name": "92 Street & Jasper Avenue" }, "geometry": { "type": "Point", "coordinates": [ -113.47469, 53.54916 ] } },
{ "type": "Feature", "properties": { "name": "95 Street & 113 Avenue" }, "geometry": { "type": "Point", "coordinates": [ -113.48727, 53.56234 ] } },
{ "type": "Feature", "properties": { "name": "101 Street & 101A Avenue NS" }, "geometry": { "type": "Point", "coordinates": [ -113.4936, 53.54186 ] } },
{ "type": "Feature", "properties": { "name": "101 Street & 113 Avenue" }, "geometry": { "type": "Point", "coordinates": [ -113.49359, 53.56292 ] } },
{ "type": "Feature", "properties": { "name": "100 Street & Rossdale Road" }, "geometry": { "type": "Point", "coordinates": [ -113.4905, 53.53809 ] } },
{ "type": "Feature", "properties": { "name": "95 Street & 105 Avenue" }, "geometry": { "type": "Point", "coordinates": [ -113.48118, 53.54932 ] } },
{ "type": "Feature", "properties": { "name": "90 Street & Rowland Road" }, "geometry": { "type": "Point", "coordinates": [ -113.47234, 53.54763 ] } },
{ "type": "Feature", "properties": { "name": "50 Street & 118 Avenue" }, "geometry": { "type": "Point", "coordinates": [ -113.418, 53.57028 ] } },
{ "type": "Feature", "properties": { "name": "101 Street & 107 Avenue" }, "geometry": { "type": "Point", "coordinates": [ -113.49385, 53.55092 ] } },
{ "type": "Feature", "properties": { "name": "101 Street & 111 Avenue" }, "geometry": { "type": "Point", "coordinates": [ -113.49386, 53.5584 ] } },
{ "type": "Feature", "properties": { "name": "50 Street & 118 Avenue" }, "geometry": { "type": "Point", "coordinates": [ -113.41927, 53.57045 ] } },
{ "type": "Feature", "properties": { "name": "101 Street & 114 Avenue" }, "geometry": { "type": "Point", "coordinates": [ -113.4938, 53.56402 ] } },
{ "type": "Feature", "properties": { "name": "101 Street & 117 Avenue" }, "geometry": { "type": "Point", "coordinates": [ -113.49388, 53.569 ] } },
{ "type": "Feature", "properties": { "name": "97 Street & 118 Avenue" }, "geometry": { "type": "Point", "coordinates": [ -113.49133, 53.57032 ] } },
{ "type": "Feature", "properties": { "name": "86 Street & 118 Avenue" }, "geometry": { "type": "Point", "coordinates": [ -113.473, 53.57045 ] } },
{ "type": "Feature", "properties": { "name": "102 Street & 111 Avenue" }, "geometry": { "type": "Point", "coordinates": [ -113.49475, 53.55877 ] } },
{ "type": "Feature", "properties": { "name": "38 Street & 118 Avenue" }, "geometry": { "type": "Point", "coordinates": [ -113.40044, 53.57043 ] } },
{ "type": "Feature", "properties": { "name": "124 Street & 109A Avenue" }, "geometry": { "type": "Point", "coordinates": [ -113.53604, 53.55535 ] } },
{ "type": "Feature", "properties": { "name": "100 Street & 104 Avenue" }, "geometry": { "type": "Point", "coordinates": [ -113.49096, 53.54673 ] } },
{ "type": "Feature", "properties": { "name": "57 Street & 118 Avenue" }, "geometry": { "type": "Point", "coordinates": [ -113.42951, 53.57043 ] } },
{ "type": "Feature", "properties": { "name": "95 Street & 101A Avenue" }, "geometry": { "type": "Point", "coordinates": [ -113.47841, 53.54476 ] } },
{ "type": "Feature", "properties": { "name": "119 Street & 111 Avenue" }, "geometry": { "type": "Point", "coordinates": [ -113.52634, 53.55876 ] } },
{ "type": "Feature", "properties": { "name": "119 Street & Jasper Avenue" }, "geometry": { "type": "Point", "coordinates": [ -113.52614, 53.54085 ] } },
{ "type": "Feature", "properties": { "name": "96 Street & Jasper Avenue" }, "geometry": { "type": "Point", "coordinates": [ -113.48146, 53.54378 ] } },
{ "type": "Feature", "properties": { "name": "84 Street & Jasper Avenue" }, "geometry": { "type": "Point", "coordinates": [ -113.47016, 53.55551 ] } },
{ "type": "Feature", "properties": { "name": "122 Street & 111 Avenue" }, "geometry": { "type": "Point", "coordinates": [ -113.53302, 53.55899 ] } },
{ "type": "Feature", "properties": { "name": "97 Street & 122 Avenue" }, "geometry": { "type": "Point", "coordinates": [ -113.4925, 53.57626 ] } },
{ "type": "Feature", "properties": { "name": "Stadium Transit Centre Bay A" }, "geometry": { "type": "Point", "coordinates": [ -113.47151, 53.55967 ] } },
{ "type": "Feature", "properties": { "name": "Stadium TC on 111 Avenue Bay F" }, "geometry": { "type": "Point", "coordinates": [ -113.4703, 53.55971 ] } },
{ "type": "Feature", "properties": { "name": "106 Street & 97 Avenue" }, "geometry": { "type": "Point", "coordinates": [ -113.50227, 53.53417 ] } },
{ "type": "Feature", "properties": { "name": "101 Street & Kingsway" }, "geometry": { "type": "Point", "coordinates": [ -113.49386, 53.55399 ] } },
{ "type": "Feature", "properties": { "name": "95 Street & 111 Avenue" }, "geometry": { "type": "Point", "coordinates": [ -113.48684, 53.55953 ] } },
{ "type": "Feature", "properties": { "name": "97 Street & 124 Avenue" }, "geometry": { "type": "Point", "coordinates": [ -113.4925, 53.57922 ] } },
{ "type": "Feature", "properties": { "name": "101 Street & 113 Avenue" }, "geometry": { "type": "Point", "coordinates": [ -113.49383, 53.56246 ] } },
{ "type": "Feature", "properties": { "name": "101 Street & 112 Avenue" }, "geometry": { "type": "Point", "coordinates": [ -113.49388, 53.56076 ] } },
{ "type": "Feature", "properties": { "name": "124 Street & 113 Avenue" }, "geometry": { "type": "Point", "coordinates": [ -113.53606, 53.56176 ] } },
{ "type": "Feature", "properties": { "name": "95 Street & 115 Avenue" }, "geometry": { "type": "Point", "coordinates": [ -113.48729, 53.56541 ] } },
{ "type": "Feature", "properties": { "name": "48 Street & 118 Avenue" }, "geometry": { "type": "Point", "coordinates": [ -113.41484, 53.57028 ] } },
{ "type": "Feature", "properties": { "name": "91 Street & Norwood Boulevard" }, "geometry": { "type": "Point", "coordinates": [ -113.48196, 53.56076 ] } },
{ "type": "Feature", "properties": { "name": "96 Street & 118 Avenue" }, "geometry": { "type": "Point", "coordinates": [ -113.49089, 53.57045 ] } },
{ "type": "Feature", "properties": { "name": "95 Street & 104 Avenue" }, "geometry": { "type": "Point", "coordinates": [ -113.48065, 53.54838 ] } },
{ "type": "Feature", "properties": { "name": "92 Street & Jasper Avenue" }, "geometry": { "type": "Point", "coordinates": [ -113.47564, 53.54831 ] } },
{ "type": "Feature", "properties": { "name": "112 Street & Jasper Avenue" }, "geometry": { "type": "Point", "coordinates": [ -113.51262, 53.54083 ] } },
{ "type": "Feature", "properties": { "name": "93 Street & 118 Avenue" }, "geometry": { "type": "Point", "coordinates": [ -113.48449, 53.57046 ] } },
{ "type": "Feature", "properties": { "name": "87 Street & Jasper Avenue" }, "geometry": { "type": "Point", "coordinates": [ -113.47283, 53.55286 ] } },
{ "type": "Feature", "properties": { "name": "95 Street & 106 Avenue" }, "geometry": { "type": "Point", "coordinates": [ -113.48212, 53.55102 ] } },
{ "type": "Feature", "properties": { "name": "106 Street & 118 Avenue" }, "geometry": { "type": "Point", "coordinates": [ -113.50153, 53.57029 ] } },
{ "type": "Feature", "properties": { "name": "101 Street & 108A Avenue" }, "geometry": { "type": "Point", "coordinates": [ -113.49358, 53.55505 ] } },
{ "type": "Feature", "properties": { "name": "124 Street & 111 Avenue" }, "geometry": { "type": "Point", "coordinates": [ -113.53602, 53.5585 ] } },
{ "type": "Feature", "properties": { "name": "116 Street & 111 Avenue" }, "geometry": { "type": "Point", "coordinates": [ -113.52185, 53.559 ] } },
{ "type": "Feature", "properties": { "name": "101 Street & 112 Avenue" }, "geometry": { "type": "Point", "coordinates": [ -113.49364, 53.56127 ] } },
{ "type": "Feature", "properties": { "name": "113 Street & 111 Avenue" }, "geometry": { "type": "Point", "coordinates": [ -113.51539, 53.55877 ] } },
{ "type": "Feature", "properties": { "name": "101 Street & 103A Avenue" }, "geometry": { "type": "Point", "coordinates": [ -113.49354, 53.54578 ] } },
{ "type": "Feature", "properties": { "name": "90 Street & 118 Avenue" }, "geometry": { "type": "Point", "coordinates": [ -113.48038, 53.57046 ] } },
{ "type": "Feature", "properties": { "name": "Bellamy Hill & 99 Avenue" }, "geometry": { "type": "Point", "coordinates": [ -113.4955, 53.53753 ] } },
{ "type": "Feature", "properties": { "name": "119 Street & 111 Avenue" }, "geometry": { "type": "Point", "coordinates": [ -113.52744, 53.559 ] } },
{ "type": "Feature", "properties": { "name": "97 Street & 122 Avenue" }, "geometry": { "type": "Point", "coordinates": [ -113.49206, 53.57717 ] } },
{ "type": "Feature", "properties": { "name": "95 Street & 107 Avenue" }, "geometry": { "type": "Point", "coordinates": [ -113.48308, 53.55276 ] } },
{ "type": "Feature", "properties": { "name": "60 Street & 118 Avenue" }, "geometry": { "type": "Point", "coordinates": [ -113.43208, 53.57031 ] } },
{ "type": "Feature", "properties": { "name": "101 Street & 110 Avenue" }, "geometry": { "type": "Point", "coordinates": [ -113.49358, 53.55753 ] } },
{ "type": "Feature", "properties": { "name": "109 Street & 111 Avenue" }, "geometry": { "type": "Point", "coordinates": [ -113.50772, 53.55879 ] } },
{ "type": "Feature", "properties": { "name": "82 Street & 111 Avenue" }, "geometry": { "type": "Point", "coordinates": [ -113.46802, 53.55968 ] } },
{ "type": "Feature", "properties": { "name": "95 Street & 110 Avenue" }, "geometry": { "type": "Point", "coordinates": [ -113.48594, 53.55791 ] } },
{ "type": "Feature", "properties": { "name": "93 Street & 118 Avenue" }, "geometry": { "type": "Point", "coordinates": [ -113.48374, 53.57032 ] } },
{ "type": "Feature", "properties": { "name": "95 Street & 116 Avenue" }, "geometry": { "type": "Point", "coordinates": [ -113.48708, 53.56759 ] } },
{ "type": "Feature", "properties": { "name": "116 Street & 111 Avenue" }, "geometry": { "type": "Point", "coordinates": [ -113.52084, 53.55876 ] } },
{ "type": "Feature", "properties": { "name": "100 Street & Jasper Avenue" }, "geometry": { "type": "Point", "coordinates": [ -113.49033, 53.54056 ] } },
{ "type": "Feature", "properties": { "name": "36 Street & 118 Avenue" }, "geometry": { "type": "Point", "coordinates": [ -113.39602, 53.57029 ] } },
{ "type": "Feature", "properties": { "name": "Bellamy Hill & 98 Avenue" }, "geometry": { "type": "Point", "coordinates": [ -113.49662, 53.53558 ] } },
{ "type": "Feature", "properties": { "name": "95 Street & 103 Avenue" }, "geometry": { "type": "Point", "coordinates": [ -113.47978, 53.54674 ] } },
{ "type": "Feature", "properties": { "name": "104 Street & 97 Avenue" }, "geometry": { "type": "Point", "coordinates": [ -113.49971, 53.53414 ] } },
{ "type": "Feature", "properties": { "name": "101 Street & 111 Avenue" }, "geometry": { "type": "Point", "coordinates": [ -113.49457, 53.55902 ] } },
{ "type": "Feature", "properties": { "name": "101 Street & 107A Avenue" }, "geometry": { "type": "Point", "coordinates": [ -113.49358, 53.55194 ] } },
{ "type": "Feature", "properties": { "name": "95 Street & Jasper Avenue" }, "geometry": { "type": "Point", "coordinates": [ -113.47841, 53.54543 ] } },
{ "type": "Feature", "properties": { "name": "109 Street & 105 Avenue" }, "geometry": { "type": "Point", "coordinates": [ -113.50866, 53.54793 ] } },
{ "type": "Feature", "properties": { "name": "97 Street & 124 Avenue" }, "geometry": { "type": "Point", "coordinates": [ -113.49207, 53.57982 ] } },
{ "type": "Feature", "properties": { "name": "95 Street & 106 Avenue" }, "geometry": { "type": "Point", "coordinates": [ -113.48217, 53.55158 ] } },
{ "type": "Feature", "properties": { "name": "64 Street & 118 Avenue" }, "geometry": { "type": "Point", "coordinates": [ -113.43958, 53.57045 ] } },
{ "type": "Feature", "properties": { "name": "109 Street & 97 Avenue" }, "geometry": { "type": "Point", "coordinates": [ -113.50893, 53.53383 ] } },
{ "type": "Feature", "properties": { "name": "101 Street & 110 Avenue" }, "geometry": { "type": "Point", "coordinates": [ -113.49384, 53.55682 ] } },
{ "type": "Feature", "properties": { "name": "124 Street & 106 Avenue" }, "geometry": { "type": "Point", "coordinates": [ -113.53602, 53.54898 ] } },
{ "type": "Feature", "properties": { "name": "101 Street & 103A Avenue" }, "geometry": { "type": "Point", "coordinates": [ -113.49308, 53.54602 ] } },
{ "type": "Feature", "properties": { "name": "84 Street & Jasper Avenue" }, "geometry": { "type": "Point", "coordinates": [ -113.47108, 53.55523 ] } },
{ "type": "Feature", "properties": { "name": "95 Street & 118 Avenue" }, "geometry": { "type": "Point", "coordinates": [ -113.48734, 53.56999 ] } },
{ "type": "Feature", "properties": { "name": "115 Street & Jasper Avenue" }, "geometry": { "type": "Point", "coordinates": [ -113.51828, 53.54083 ] } },
{ "type": "Feature", "properties": { "name": "71 Street & 118 Avenue" }, "geometry": { "type": "Point", "coordinates": [ -113.45134, 53.57047 ] } },
{ "type": "Feature", "properties": { "name": "53 Street & 118 Avenue" }, "geometry": { "type": "Point", "coordinates": [ -113.42248, 53.57029 ] } },
{ "type": "Feature", "properties": { "name": "101 Street & 105A Avenue" }, "geometry": { "type": "Point", "coordinates": [ -113.4936, 53.54918 ] } },
{ "type": "Feature", "properties": { "name": "44 Street & 118 Avenue" }, "geometry": { "type": "Point", "coordinates": [ -113.40834, 53.5703 ] } },
{ "type": "Feature", "properties": { "name": "101 Street & MacDonald Drive" }, "geometry": { "type": "Point", "coordinates": [ -113.4936, 53.54025 ] } },
{ "type": "Feature", "properties": { "name": "101 Street & 115 Avenue" }, "geometry": { "type": "Point", "coordinates": [ -113.4936, 53.56603 ] } },
{ "type": "Feature", "properties": { "name": "55 Street & 118 Avenue" }, "geometry": { "type": "Point", "coordinates": [ -113.42651, 53.57042 ] } },
{ "type": "Feature", "properties": { "name": "109 Street & 105 Avenue" }, "geometry": { "type": "Point", "coordinates": [ -113.50825, 53.54861 ] } },
{ "type": "Feature", "properties": { "name": "St Albert Trail & 114 Avenue" }, "geometry": { "type": "Point", "coordinates": [ -113.54588, 53.56369 ] } },
{ "type": "Feature", "properties": { "name": "106 Street & Jasper Avenue" }, "geometry": { "type": "Point", "coordinates": [ -113.504, 53.54102 ] } },
{ "type": "Feature", "properties": { "name": "101 Street & Jasper Avenue" }, "geometry": { "type": "Point", "coordinates": [ -113.49516, 53.54103 ] } },
{ "type": "Feature", "properties": { "name": "104 Street & Jasper Avenue" }, "geometry": { "type": "Point", "coordinates": [ -113.50025, 53.54103 ] } },
{ "type": "Feature", "properties": { "name": "132 Street & 111 Avenue" }, "geometry": { "type": "Point", "coordinates": [ -113.54918, 53.55902 ] } },
{ "type": "Feature", "properties": { "name": "109 Street & 113 Avenue" }, "geometry": { "type": "Point", "coordinates": [ -113.50859, 53.56229 ] } },
{ "type": "Feature", "properties": { "name": "127 Street & 114 Avenue" }, "geometry": { "type": "Point", "coordinates": [ -113.54231, 53.56371 ] } },
{ "type": "Feature", "properties": { "name": "116 Street & 105 Avenue" }, "geometry": { "type": "Point", "coordinates": [ -113.52143, 53.54782 ] } },
{ "type": "Feature", "properties": { "name": "110 Street & 104 Avenue" }, "geometry": { "type": "Point", "coordinates": [ -113.5095, 53.54613 ] } },
{ "type": "Feature", "properties": { "name": "124 Street & 104 Avenue" }, "geometry": { "type": "Point", "coordinates": [ -113.53576, 53.54658 ] } },
{ "type": "Feature", "properties": { "name": "109 Street & 110 Avenue" }, "geometry": { "type": "Point", "coordinates": [ -113.50859, 53.55638 ] } },
{ "type": "Feature", "properties": { "name": "116 Street & 107 Avenue" }, "geometry": { "type": "Point", "coordinates": [ -113.52198, 53.55148 ] } },
{ "type": "Feature", "properties": { "name": "120 Street & Jasper Avenue" }, "geometry": { "type": "Point", "coordinates": [ -113.52997, 53.54105 ] } },
{ "type": "Feature", "properties": { "name": "116 Street & 104 Avenue" }, "geometry": { "type": "Point", "coordinates": [ -113.52033, 53.54612 ] } },
{ "type": "Feature", "properties": { "name": "127 Street & 107 Avenue" }, "geometry": { "type": "Point", "coordinates": [ -113.54176, 53.55105 ] } },
{ "type": "Feature", "properties": { "name": "130 Street & 111 Avenue" }, "geometry": { "type": "Point", "coordinates": [ -113.5459, 53.55882 ] } },
{ "type": "Feature", "properties": { "name": "109 Street & 107 Avenue" }, "geometry": { "type": "Point", "coordinates": [ -113.50859, 53.55101 ] } },
{ "type": "Feature", "properties": { "name": "103 Street & Jasper Avenue" }, "geometry": { "type": "Point", "coordinates": [ -113.4968, 53.54102 ] } },
{ "type": "Feature", "properties": { "name": "109 Street & 113 Avenue" }, "geometry": { "type": "Point", "coordinates": [ -113.50825, 53.56295 ] } },
{ "type": "Feature", "properties": { "name": "105 Street & 104 Avenue" }, "geometry": { "type": "Point", "coordinates": [ -113.5004, 53.54611 ] } },
{ "type": "Feature", "properties": { "name": "120 Street & 107 Avenue" }, "geometry": { "type": "Point", "coordinates": [ -113.52846, 53.55095 ] } },
{ "type": "Feature", "properties": { "name": "109 Street & 104 Avenue" }, "geometry": { "type": "Point", "coordinates": [ -113.50925, 53.54634 ] } },
{ "type": "Feature", "properties": { "name": "118 Street & Jasper Avenue" }, "geometry": { "type": "Point", "coordinates": [ -113.5255, 53.54103 ] } },
{ "type": "Feature", "properties": { "name": "124 Street & 113 Avenue" }, "geometry": { "type": "Point", "coordinates": [ -113.53572, 53.56184 ] } },
{ "type": "Feature", "properties": { "name": "114 Street & 104 Avenue" }, "geometry": { "type": "Point", "coordinates": [ -113.51711, 53.54612 ] } },
{ "type": "Feature", "properties": { "name": "124 Street & 114 Avenue" }, "geometry": { "type": "Point", "coordinates": [ -113.5365, 53.56371 ] } },
{ "type": "Feature", "properties": { "name": "109 Street & 104 Avenue" }, "geometry": { "type": "Point", "coordinates": [ -113.50821, 53.54726 ] } },
{ "type": "Feature", "properties": { "name": "Abbottsfield Road & 118 Avenue" }, "geometry": { "type": "Point", "coordinates": [ -113.38751, 53.57167 ] } },
{ "type": "Feature", "properties": { "name": "109 Street & 107 Avenue" }, "geometry": { "type": "Point", "coordinates": [ -113.50828, 53.55186 ] } },
{ "type": "Feature", "properties": { "name": "109 Street & 109 Avenue" }, "geometry": { "type": "Point", "coordinates": [ -113.50828, 53.55487 ] } },
{ "type": "Feature", "properties": { "name": "130 Street & 107 Avenue" }, "geometry": { "type": "Point", "coordinates": [ -113.54578, 53.55087 ] } },
{ "type": "Feature", "properties": { "name": "122 Street & 102 Avenue" }, "geometry": { "type": "Point", "coordinates": [ -113.53307, 53.54307 ] } },
{ "type": "Feature", "properties": { "name": "117 Street & 107 Avenue" }, "geometry": { "type": "Point", "coordinates": [ -113.52321, 53.55107 ] } },
{ "type": "Feature", "properties": { "name": "122 Street & 107 Avenue" }, "geometry": { "type": "Point", "coordinates": [ -113.53199, 53.55088 ] } },
{ "type": "Feature", "properties": { "name": "125 Street & 107 Avenue" }, "geometry": { "type": "Point", "coordinates": [ -113.53714, 53.55089 ] } },
{ "type": "Feature", "properties": { "name": "128 Street & 111 Avenue" }, "geometry": { "type": "Point", "coordinates": [ -113.54319, 53.55898 ] } },
{ "type": "Feature", "properties": { "name": "126 Street & 107 Avenue" }, "geometry": { "type": "Point", "coordinates": [ -113.5398, 53.55105 ] } },
{ "type": "Feature", "properties": { "name": "114 Street & 104 Avenue" }, "geometry": { "type": "Point", "coordinates": [ -113.51819, 53.54634 ] } },
{ "type": "Feature", "properties": { "name": "124 Street & 107 Avenue" }, "geometry": { "type": "Point", "coordinates": [ -113.53659, 53.55105 ] } },
{ "type": "Feature", "properties": { "name": "132 Street & 111 Avenue" }, "geometry": { "type": "Point", "coordinates": [ -113.5489, 53.5588 ] } },
{ "type": "Feature", "properties": { "name": "128 Street & 107 Avenue" }, "geometry": { "type": "Point", "coordinates": [ -113.5424, 53.55087 ] } },
{ "type": "Feature", "properties": { "name": "109 Street & Jasper Avenue" }, "geometry": { "type": "Point", "coordinates": [ -113.50967, 53.54104 ] } },
{ "type": "Feature", "properties": { "name": "124 Street & 111 Avenue" }, "geometry": { "type": "Point", "coordinates": [ -113.53581, 53.55926 ] } },
{ "type": "Feature", "properties": { "name": "108 Street & 104 Avenue" }, "geometry": { "type": "Point", "coordinates": [ -113.50591, 53.54612 ] } },
{ "type": "Feature", "properties": { "name": "116 Street & 106 Avenue" }, "geometry": { "type": "Point", "coordinates": [ -113.52123, 53.54943 ] } },
{ "type": "Feature", "properties": { "name": "124 Street & 102 Avenue" }, "geometry": { "type": "Point", "coordinates": [ -113.53579, 53.54357 ] } },
{ "type": "Feature", "properties": { "name": "127 Street & 111 Avenue" }, "geometry": { "type": "Point", "coordinates": [ -113.54145, 53.55882 ] } },
{ "type": "Feature", "properties": { "name": "124 Street & 106 Avenue" }, "geometry": { "type": "Point", "coordinates": [ -113.5358, 53.55002 ] } },
{ "type": "Feature", "properties": { "name": "110 Street & 104 Avenue" }, "geometry": { "type": "Point", "coordinates": [ -113.51079, 53.54634 ] } },
{ "type": "Feature", "properties": { "name": "116 Street & 105 Avenue" }, "geometry": { "type": "Point", "coordinates": [ -113.52115, 53.54765 ] } },
{ "type": "Feature", "properties": { "name": "119 Street & 107 Avenue" }, "geometry": { "type": "Point", "coordinates": [ -113.52658, 53.55147 ] } },
{ "type": "Feature", "properties": { "name": "112 Street & Jasper Avenue" }, "geometry": { "type": "Point", "coordinates": [ -113.51462, 53.54104 ] } },
{ "type": "Feature", "properties": { "name": "124 Street & 107 Avenue" }, "geometry": { "type": "Point", "coordinates": [ -113.53578, 53.55159 ] } },
{ "type": "Feature", "properties": { "name": "105 Street & 104 Avenue" }, "geometry": { "type": "Point", "coordinates": [ -113.5022, 53.54633 ] } },
{ "type": "Feature", "properties": { "name": "109 Street & 102 Avenue" }, "geometry": { "type": "Point", "coordinates": [ -113.50824, 53.5433 ] } },
{ "type": "Feature", "properties": { "name": "129 Street & 107 Avenue" }, "geometry": { "type": "Point", "coordinates": [ -113.54499, 53.55105 ] } },
{ "type": "Feature", "properties": { "name": "109 Street & 111 Avenue" }, "geometry": { "type": "Point", "coordinates": [ -113.5086, 53.55847 ] } },
{ "type": "Feature", "properties": { "name": "109 Street & Princess Elizabeth Avenue" }, "geometry": { "type": "Point", "coordinates": [ -113.50539, 53.56556 ] } },
{ "type": "Feature", "properties": { "name": "126 Street & 111 Avenue" }, "geometry": { "type": "Point", "coordinates": [ -113.53999, 53.55898 ] } },
{ "type": "Feature", "properties": { "name": "122 Street & 107 Avenue" }, "geometry": { "type": "Point", "coordinates": [ -113.53283, 53.55105 ] } },
{ "type": "Feature", "properties": { "name": "130 Street & 111 Avenue" }, "geometry": { "type": "Point", "coordinates": [ -113.54673, 53.55899 ] } },
{ "type": "Feature", "properties": { "name": "124 Street & 109 Avenue" }, "geometry": { "type": "Point", "coordinates": [ -113.53578, 53.55429 ] } },
{ "type": "Feature", "properties": { "name": "124 Street & 107 Avenue" }, "geometry": { "type": "Point", "coordinates": [ -113.53514, 53.55088 ] } },
{ "type": "Feature", "properties": { "name": "124 Street & 110 Avenue" }, "geometry": { "type": "Point", "coordinates": [ -113.53579, 53.55753 ] } },
{ "type": "Feature", "properties": { "name": "112 Street & 104 Avenue" }, "geometry": { "type": "Point", "coordinates": [ -113.51448, 53.54633 ] } },
{ "type": "Feature", "properties": { "name": "124 Street & 109A Avenue" }, "geometry": { "type": "Point", "coordinates": [ -113.53581, 53.55612 ] } },
{ "type": "Feature", "properties": { "name": "127 Street & 114 Avenue" }, "geometry": { "type": "Point", "coordinates": [ -113.54213, 53.5636 ] } },
{ "type": "Feature", "properties": { "name": "109 Street & Princess Elizabeth Avenue" }, "geometry": { "type": "Point", "coordinates": [ -113.506, 53.56502 ] } },
{ "type": "Feature", "properties": { "name": "109 Street & 111 Avenue" }, "geometry": { "type": "Point", "coordinates": [ -113.50827, 53.55934 ] } },
{ "type": "Feature", "properties": { "name": "132 Street & 114 Avenue" }, "geometry": { "type": "Point", "coordinates": [ -113.55062, 53.5633 ] } },
{ "type": "Feature", "properties": { "name": "Groat Road & 114 Avenue" }, "geometry": { "type": "Point", "coordinates": [ -113.55064, 53.56319 ] } },
{ "type": "Feature", "properties": { "name": "103 Street & 104 Avenue" }, "geometry": { "type": "Point", "coordinates": [ -113.49657, 53.54611 ] } },
{ "type": "Feature", "properties": { "name": "Clifton Place & 102 Avenue" }, "geometry": { "type": "Point", "coordinates": [ -113.53879, 53.54295 ] } },
{ "type": "Feature", "properties": { "name": "114 Street & Jasper Avenue" }, "geometry": { "type": "Point", "coordinates": [ -113.51828, 53.54104 ] } },
{ "type": "Feature", "properties": { "name": "124 Street & 108 Avenue" }, "geometry": { "type": "Point", "coordinates": [ -113.53579, 53.55286 ] } },
{ "type": "Feature", "properties": { "name": "120 Street & 107 Avenue" }, "geometry": { "type": "Point", "coordinates": [ -113.52949, 53.55105 ] } },
{ "type": "Feature", "properties": { "name": "90 Street & 112 Avenue" }, "geometry": { "type": "Point", "coordinates": [ -113.47883, 53.56102 ] } },
{ "type": "Feature", "properties": { "name": "108 Street & Jasper Avenue Nearside" }, "geometry": { "type": "Point", "coordinates": [ -113.50637, 53.54103 ] } },
{ "type": "Feature", "properties": { "name": "117 Street & Jasper Avenue" }, "geometry": { "type": "Point", "coordinates": [ -113.5229, 53.54104 ] } },
{ "type": "Feature", "properties": { "name": "109 Street & 108 Avenue" }, "geometry": { "type": "Point", "coordinates": [ -113.50862, 53.55334 ] } },
{ "type": "Feature", "properties": { "name": "129 Street & 111 Avenue" }, "geometry": { "type": "Point", "coordinates": [ -113.54405, 53.55881 ] } },
{ "type": "Feature", "properties": { "name": "124 Street & 102 Avenue" }, "geometry": { "type": "Point", "coordinates": [ -113.53547, 53.54305 ] } },
{ "type": "Feature", "properties": { "name": "112 Street & 104 Avenue" }, "geometry": { "type": "Point", "coordinates": [ -113.51334, 53.54611 ] } },
{ "type": "Feature", "properties": { "name": "109 Street & 102 Avenue" }, "geometry": { "type": "Point", "coordinates": [ -113.5086, 53.54272 ] } },
{ "type": "Feature", "properties": { "name": "109 Street & Kingsway" }, "geometry": { "type": "Point", "coordinates": [ -113.50861, 53.56053 ] } },
{ "type": "Feature", "properties": { "name": "108 Street & 104 Avenue" }, "geometry": { "type": "Point", "coordinates": [ -113.50583, 53.54634 ] } },
{ "type": "Feature", "properties": { "name": "Groat Road & 107 Avenue" }, "geometry": { "type": "Point", "coordinates": [ -113.54847, 53.55083 ] } },
{ "type": "Feature", "properties": { "name": "99 Street & 103A Avenue NS" }, "geometry": { "type": "Point", "coordinates": [ -113.49072, 53.54637 ] } },
{ "type": "Feature", "properties": { "name": "University Transit Centre Bay A" }, "geometry": { "type": "Point", "coordinates": [ -113.52118, 53.52484 ] } },
{ "type": "Feature", "properties": { "name": "University Transit Centre Bay B" }, "geometry": { "type": "Point", "coordinates": [ -113.5212, 53.52475 ] } },
{ "type": "Feature", "properties": { "name": "73 Street & 90 Avenue" }, "geometry": { "type": "Point", "coordinates": [ -113.44047, 53.52531 ] } },
{ "type": "Feature", "properties": { "name": "Dawson Bridge & Rowland Road" }, "geometry": { "type": "Point", "coordinates": [ -113.46409, 53.54921 ] } },
{ "type": "Feature", "properties": { "name": "97 Street & 82 Avenue" }, "geometry": { "type": "Point", "coordinates": [ -113.48018, 53.51815 ] } },
{ "type": "Feature", "properties": { "name": "81 Street & 82 Avenue" }, "geometry": { "type": "Point", "coordinates": [ -113.45324, 53.51816 ] } },
{ "type": "Feature", "properties": { "name": "86 Street & 61 Avenue" }, "geometry": { "type": "Point", "coordinates": [ -113.45512, 53.49669 ] } },
{ "type": "Feature", "properties": { "name": "50 Street & 94B Avenue" }, "geometry": { "type": "Point", "coordinates": [ -113.41841, 53.53427 ] } },
{ "type": "Feature", "properties": { "name": "97 Street & 51 Avenue" }, "geometry": { "type": "Point", "coordinates": [ -113.47858, 53.48807 ] } },
{ "type": "Feature", "properties": { "name": "87 Street & 82 Avenue" }, "geometry": { "type": "Point", "coordinates": [ -113.46089, 53.51797 ] } },
{ "type": "Feature", "properties": { "name": "110 Street & 51 Avenue" }, "geometry": { "type": "Point", "coordinates": [ -113.51325, 53.4881 ] } },
{ "type": "Feature", "properties": { "name": "89 Street & 82 Avenue" }, "geometry": { "type": "Point", "coordinates": [ -113.46541, 53.51809 ] } },
{ "type": "Feature", "properties": { "name": "97 Street & 82 Avenue" }, "geometry": { "type": "Point", "coordinates": [ -113.4793, 53.51794 ] } },
{ "type": "Feature", "properties": { "name": "71 Street & 90 Avenue" }, "geometry": { "type": "Point", "coordinates": [ -113.43626, 53.52516 ] } },
{ "type": "Feature", "properties": { "name": "96 Street & 82 Avenue" }, "geometry": { "type": "Point", "coordinates": [ -113.47599, 53.51791 ] } },
{ "type": "Feature", "properties": { "name": "91 Street & 82 Avenue" }, "geometry": { "type": "Point", "coordinates": [ -113.46797, 53.51815 ] } },
{ "type": "Feature", "properties": { "name": "Low Level Bridge & 98 Avenue" }, "geometry": { "type": "Point", "coordinates": [ -113.48453, 53.5374 ] } },
{ "type": "Feature", "properties": { "name": "83 Street & 106 Avenue" }, "geometry": { "type": "Point", "coordinates": [ -113.45498, 53.54925 ] } },
{ "type": "Feature", "properties": { "name": "Calgary Trail SB & 51 Avenue" }, "geometry": { "type": "Point", "coordinates": [ -113.49559, 53.48829 ] } },
{ "type": "Feature", "properties": { "name": "83 Street & 82 Avenue" }, "geometry": { "type": "Point", "coordinates": [ -113.45668, 53.51816 ] } },
{ "type": "Feature", "properties": { "name": "75 Street & 82 Avenue" }, "geometry": { "type": "Point", "coordinates": [ -113.44483, 53.51811 ] } },
{ "type": "Feature", "properties": { "name": "106 Street & 51 Avenue" }, "geometry": { "type": "Point", "coordinates": [ -113.50345, 53.48816 ] } },
{ "type": "Feature", "properties": { "name": "108 Street & Whitemud Drive" }, "geometry": { "type": "Point", "coordinates": [ -113.50791, 53.48268 ] } },
{ "type": "Feature", "properties": { "name": "80 Street & Wagner Road" }, "geometry": { "type": "Point", "coordinates": [ -113.44959, 53.49934 ] } },
{ "type": "Feature", "properties": { "name": "79 Street & 82 Avenue" }, "geometry": { "type": "Point", "coordinates": [ -113.44984, 53.51809 ] } },
{ "type": "Feature", "properties": { "name": "88 Street & 51 Avenue" }, "geometry": { "type": "Point", "coordinates": [ -113.46093, 53.488 ] } },
{ "type": "Feature", "properties": { "name": "83 Street & Wagner Road" }, "geometry": { "type": "Point", "coordinates": [ -113.45228, 53.49729 ] } },
{ "type": "Feature", "properties": { "name": "68 Street & 90 Avenue" }, "geometry": { "type": "Point", "coordinates": [ -113.43093, 53.52514 ] } },
{ "type": "Feature", "properties": { "name": "Southgate Transit Centre Bay M" }, "geometry": { "type": "Point", "coordinates": [ -113.51624, 53.48542 ] } },
{ "type": "Feature", "properties": { "name": "113 Street & 65 Avenue" }, "geometry": { "type": "Point", "coordinates": [ -113.52425, 53.50184 ] } },
{ "type": "Feature", "properties": { "name": "113 Street & 67 Avenue" }, "geometry": { "type": "Point", "coordinates": [ -113.52267, 53.50414 ] } },
{ "type": "Feature", "properties": { "name": "113 Street & 67 Avenue" }, "geometry": { "type": "Point", "coordinates": [ -113.52301, 53.50363 ] } },
{ "type": "Feature", "properties": { "name": "116 Street & 68 Avenue" }, "geometry": { "type": "Point", "coordinates": [ -113.53138, 53.50526 ] } },
{ "type": "Feature", "properties": { "name": "116 Street & 68 Avenue" }, "geometry": { "type": "Point", "coordinates": [ -113.53168, 53.50503 ] } },
{ "type": "Feature", "properties": { "name": "Belgravia Road & Fox Drive" }, "geometry": { "type": "Point", "coordinates": [ -113.53798, 53.50407 ] } },
{ "type": "Feature", "properties": { "name": "Southgate Transit Centre Bay R" }, "geometry": { "type": "Point", "coordinates": [ -113.51637, 53.48625 ] } },
{ "type": "Feature", "properties": { "name": "94 Street & 51 Avenue" }, "geometry": { "type": "Point", "coordinates": [ -113.47292, 53.48804 ] } },
{ "type": "Feature", "properties": { "name": "81 Street & 82 Avenue" }, "geometry": { "type": "Point", "coordinates": [ -113.45168, 53.51798 ] } },
{ "type": "Feature", "properties": { "name": "58 Street & 90 Avenue" }, "geometry": { "type": "Point", "coordinates": [ -113.4246, 53.52353 ] } },
{ "type": "Feature", "properties": { "name": "50 Street & 93 Avenue" }, "geometry": { "type": "Point", "coordinates": [ -113.41845, 53.5308 ] } },
{ "type": "Feature", "properties": { "name": "71 Street & 90 Avenue" }, "geometry": { "type": "Point", "coordinates": [ -113.43718, 53.52531 ] } },
{ "type": "Feature", "properties": { "name": "96 Street & 82 Avenue" }, "geometry": { "type": "Point", "coordinates": [ -113.47621, 53.51813 ] } },
{ "type": "Feature", "properties": { "name": "83 Street & 82 Avenue" }, "geometry": { "type": "Point", "coordinates": [ -113.45357, 53.51796 ] } },
{ "type": "Feature", "properties": { "name": "75 Street & 83 Avenue" }, "geometry": { "type": "Point", "coordinates": [ -113.44276, 53.51883 ] } },
{ "type": "Feature", "properties": { "name": "75 Street & 90 Avenue" }, "geometry": { "type": "Point", "coordinates": [ -113.44273, 53.52442 ] } },
{ "type": "Feature", "properties": { "name": "75 Street & 86 Avenue" }, "geometry": { "type": "Point", "coordinates": [ -113.44305, 53.52076 ] } },
{ "type": "Feature", "properties": { "name": "99 Street & 51 Avenue" }, "geometry": { "type": "Point", "coordinates": [ -113.48765, 53.48825 ] } },
{ "type": "Feature", "properties": { "name": "75 Street & 86 Avenue" }, "geometry": { "type": "Point", "coordinates": [ -113.44273, 53.52149 ] } },
{ "type": "Feature", "properties": { "name": "75 Street & 90 Avenue" }, "geometry": { "type": "Point", "coordinates": [ -113.44313, 53.52428 ] } },
{ "type": "Feature", "properties": { "name": "79 Street & 106 Avenue" }, "geometry": { "type": "Point", "coordinates": [ -113.44988, 53.54945 ] } },
{ "type": "Feature", "properties": { "name": "99 Street & 51 Avenue" }, "geometry": { "type": "Point", "coordinates": [ -113.48437, 53.48806 ] } },
{ "type": "Feature", "properties": { "name": "112 Street & 86 Avenue" }, "geometry": { "type": "Point", "coordinates": [ -113.52098, 53.5224 ] } },
{ "type": "Feature", "properties": { "name": "106 Street & 47 Avenue" }, "geometry": { "type": "Point", "coordinates": [ -113.50454, 53.48451 ] } },
{ "type": "Feature", "properties": { "name": "86 Street & 51 Avenue" }, "geometry": { "type": "Point", "coordinates": [ -113.45578, 53.48818 ] } },
{ "type": "Feature", "properties": { "name": "99 Street & 87 Avenue" }, "geometry": { "type": "Point", "coordinates": [ -113.48624, 53.52247 ] } },
{ "type": "Feature", "properties": { "name": "109 Street & 78 Avenue" }, "geometry": { "type": "Point", "coordinates": [ -113.51186, 53.51453 ] } },
{ "type": "Feature", "properties": { "name": "109 Street & 60 Avenue" }, "geometry": { "type": "Point", "coordinates": [ -113.5118, 53.49712 ] } },
{ "type": "Feature", "properties": { "name": "Dawson Bridge & Rowland Road" }, "geometry": { "type": "Point", "coordinates": [ -113.46467, 53.54938 ] } },
{ "type": "Feature", "properties": { "name": "50 Street & 90 Avenue" }, "geometry": { "type": "Point", "coordinates": [ -113.41944, 53.52212 ] } },
{ "type": "Feature", "properties": { "name": "89 Street & 51 Avenue" }, "geometry": { "type": "Point", "coordinates": [ -113.46368, 53.48802 ] } },
{ "type": "Feature", "properties": { "name": "99 Street & 82 Avenue" }, "geometry": { "type": "Point", "coordinates": [ -113.4851, 53.51794 ] } },
{ "type": "Feature", "properties": { "name": "Walterdale Hill & Queen Elizabeth Park Road" }, "geometry": { "type": "Point", "coordinates": [ -113.5023, 53.52692 ] } },
{ "type": "Feature", "properties": { "name": "58 Street & 90 Avenue" }, "geometry": { "type": "Point", "coordinates": [ -113.427, 53.52447 ] } },
{ "type": "Feature", "properties": { "name": "93 Street & 82 Avenue" }, "geometry": { "type": "Point", "coordinates": [ -113.47064, 53.51814 ] } },
{ "type": "Feature", "properties": { "name": "Gateway Boulevard & 51 Avenue" }, "geometry": { "type": "Point", "coordinates": [ -113.49263, 53.48825 ] } },
{ "type": "Feature", "properties": { "name": "87 Street & 51 Avenue" }, "geometry": { "type": "Point", "coordinates": [ -113.45763, 53.48818 ] } },
{ "type": "Feature", "properties": { "name": "Capilano Transit Centre Bay A" }, "geometry": { "type": "Point", "coordinates": [ -113.42325, 53.5387 ] } },
{ "type": "Feature", "properties": { "name": "Capilano Transit Centre Bay F" }, "geometry": { "type": "Point", "coordinates": [ -113.4232, 53.53859 ] } },
{ "type": "Feature", "properties": { "name": "79 Street & 82 Avenue" }, "geometry": { "type": "Point", "coordinates": [ -113.44847, 53.51798 ] } },
{ "type": "Feature", "properties": { "name": "Calgary Trail SB & 51 Avenue" }, "geometry": { "type": "Point", "coordinates": [ -113.4943, 53.48802 ] } },
{ "type": "Feature", "properties": { "name": "87 Street & 82 Avenue" }, "geometry": { "type": "Point", "coordinates": [ -113.46185, 53.51809 ] } },
{ "type": "Feature", "properties": { "name": "93 Street & 51 Avenue" }, "geometry": { "type": "Point", "coordinates": [ -113.4697, 53.48803 ] } },
{ "type": "Feature", "properties": { "name": "75 Street & 84 Avenue" }, "geometry": { "type": "Point", "coordinates": [ -113.44277, 53.52034 ] } },
{ "type": "Feature", "properties": { "name": "81 Street & 106 Avenue" }, "geometry": { "type": "Point", "coordinates": [ -113.45188, 53.54926 ] } },
{ "type": "Feature", "properties": { "name": "81 Street & 106 Avenue" }, "geometry": { "type": "Point", "coordinates": [ -113.45309, 53.54946 ] } },
{ "type": "Feature", "properties": { "name": "Ottewell Road & 90 Avenue" }, "geometry": { "type": "Point", "coordinates": [ -113.43305, 53.5253 ] } },
{ "type": "Feature", "properties": { "name": "88 Street & 51 Avenue" }, "geometry": { "type": "Point", "coordinates": [ -113.46104, 53.4882 ] } },
{ "type": "Feature", "properties": { "name": "Gateway Boulevard & 51 Avenue" }, "geometry": { "type": "Point", "coordinates": [ -113.49117, 53.48802 ] } },
{ "type": "Feature", "properties": { "name": "50 Street & 98 Avenue" }, "geometry": { "type": "Point", "coordinates": [ -113.4193, 53.5377 ] } },
{ "type": "Feature", "properties": { "name": "73 Street & 90 Avenue" }, "geometry": { "type": "Point", "coordinates": [ -113.43936, 53.52516 ] } },
{ "type": "Feature", "properties": { "name": "91 Street & 51 Avenue" }, "geometry": { "type": "Point", "coordinates": [ -113.46831, 53.48822 ] } },
{ "type": "Feature", "properties": { "name": "86 Street & 58 Avenue" }, "geometry": { "type": "Point", "coordinates": [ -113.45518, 53.49324 ] } },
{ "type": "Feature", "properties": { "name": "112 Street & 84 Avenue" }, "geometry": { "type": "Point", "coordinates": [ -113.521, 53.52033 ] } },
{ "type": "Feature", "properties": { "name": "58 Street & 90 Avenue" }, "geometry": { "type": "Point", "coordinates": [ -113.42519, 53.52392 ] } },
{ "type": "Feature", "properties": { "name": "89 Street & 51 Avenue" }, "geometry": { "type": "Point", "coordinates": [ -113.46452, 53.48821 ] } },
{ "type": "Feature", "properties": { "name": "89 Street & 82 Avenue" }, "geometry": { "type": "Point", "coordinates": [ -113.46397, 53.51797 ] } },
{ "type": "Feature", "properties": { "name": "93 Street & 51 Avenue" }, "geometry": { "type": "Point", "coordinates": [ -113.47318, 53.48819 ] } },
{ "type": "Feature", "properties": { "name": "97 Street & 51 Avenue" }, "geometry": { "type": "Point", "coordinates": [ -113.48036, 53.48821 ] } },
{ "type": "Feature", "properties": { "name": "114 Street & 76 Avenue" }, "geometry": { "type": "Point", "coordinates": [ -113.52603, 53.51161 ] } },
{ "type": "Feature", "properties": { "name": "Keillor Road & Fox Drive" }, "geometry": { "type": "Point", "coordinates": [ -113.55714, 53.50325 ] } },
{ "type": "Feature", "properties": { "name": "114 Street & 76 Avenue" }, "geometry": { "type": "Point", "coordinates": [ -113.52563, 53.51291 ] } },
{ "type": "Feature", "properties": { "name": "114 Street & 78 Avenue" }, "geometry": { "type": "Point", "coordinates": [ -113.52565, 53.51455 ] } },
{ "type": "Feature", "properties": { "name": "93 Street & 82 Avenue" }, "geometry": { "type": "Point", "coordinates": [ -113.46961, 53.51792 ] } },
{ "type": "Feature", "properties": { "name": "50 Street & 98 Avenue" }, "geometry": { "type": "Point", "coordinates": [ -113.41875, 53.53703 ] } },
{ "type": "Feature", "properties": { "name": "80 Street & Wagner Road" }, "geometry": { "type": "Point", "coordinates": [ -113.44934, 53.49928 ] } },
{ "type": "Feature", "properties": { "name": "104A Street & 51 Avenue" }, "geometry": { "type": "Point", "coordinates": [ -113.49716, 53.48806 ] } },
{ "type": "Feature", "properties": { "name": "83 Street & 106 Avenue" }, "geometry": { "type": "Point", "coordinates": [ -113.45622, 53.54948 ] } },
{ "type": "Feature", "properties": { "name": "86 Street & 53 Avenue" }, "geometry": { "type": "Point", "coordinates": [ -113.45499, 53.48976 ] } },
{ "type": "Feature", "properties": { "name": "105 Street & 51 Avenue" }, "geometry": { "type": "Point", "coordinates": [ -113.49998, 53.4881 ] } },
{ "type": "Feature", "properties": { "name": "106 Street & Whitemud Drive" }, "geometry": { "type": "Point", "coordinates": [ -113.50566, 53.48212 ] } },
{ "type": "Feature", "properties": { "name": "85 Street & 82 Avenue" }, "geometry": { "type": "Point", "coordinates": [ -113.45888, 53.51809 ] } },
{ "type": "Feature", "properties": { "name": "85 Street & 82 Avenue" }, "geometry": { "type": "Point", "coordinates": [ -113.45777, 53.51796 ] } },
{ "type": "Feature", "properties": { "name": "Davies Transit Centre Bay I" }, "geometry": { "type": "Point", "coordinates": [ -113.44447, 53.49996 ] } },
{ "type": "Feature", "properties": { "name": "111 Street & 54 Avenue" }, "geometry": { "type": "Point", "coordinates": [ -113.51645, 53.49092 ] } },
{ "type": "Feature", "properties": { "name": "114 Street & 87 Avenue" }, "geometry": { "type": "Point", "coordinates": [ -113.52544, 53.52236 ] } },
{ "type": "Feature", "properties": { "name": "109 Street & 72 Avenue" }, "geometry": { "type": "Point", "coordinates": [ -113.51219, 53.50811 ] } },
{ "type": "Feature", "properties": { "name": "109 Street & 62 Avenue" }, "geometry": { "type": "Point", "coordinates": [ -113.51209, 53.49863 ] } },
{ "type": "Feature", "properties": { "name": "105 Street & 51 Avenue" }, "geometry": { "type": "Point", "coordinates": [ -113.50087, 53.48836 ] } },
{ "type": "Feature", "properties": { "name": "99 Street & 92 Avenue" }, "geometry": { "type": "Point", "coordinates": [ -113.4862, 53.52658 ] } },
{ "type": "Feature", "properties": { "name": "114 Street & 85 Avenue" }, "geometry": { "type": "Point", "coordinates": [ -113.52544, 53.52138 ] } },
{ "type": "Feature", "properties": { "name": "111 Street & 54 Avenue" }, "geometry": { "type": "Point", "coordinates": [ -113.51702, 53.49023 ] } },
{ "type": "Feature", "properties": { "name": "99 Street & 82 Avenue" }, "geometry": { "type": "Point", "coordinates": [ -113.48699, 53.51816 ] } },
{ "type": "Feature", "properties": { "name": "114 Street & 83 Avenue" }, "geometry": { "type": "Point", "coordinates": [ -113.52562, 53.5189 ] } },
{ "type": "Feature", "properties": { "name": "109 Street & 70 Avenue" }, "geometry": { "type": "Point", "coordinates": [ -113.51218, 53.50624 ] } },
{ "type": "Feature", "properties": { "name": "109 Street & 57 Avenue" }, "geometry": { "type": "Point", "coordinates": [ -113.51252, 53.49414 ] } },
{ "type": "Feature", "properties": { "name": "99 Street & 85 Avenue" }, "geometry": { "type": "Point", "coordinates": [ -113.48598, 53.52131 ] } },
{ "type": "Feature", "properties": { "name": "109 Street & 82 Avenue" }, "geometry": { "type": "Point", "coordinates": [ -113.51083, 53.51799 ] } },
{ "type": "Feature", "properties": { "name": "101 Street & 82 Avenue" }, "geometry": { "type": "Point", "coordinates": [ -113.49085, 53.51796 ] } },
{ "type": "Feature", "properties": { "name": "106 Street & 82 Avenue" }, "geometry": { "type": "Point", "coordinates": [ -113.50396, 53.51819 ] } },
{ "type": "Feature", "properties": { "name": "110 Street & 82 Avenue" }, "geometry": { "type": "Point", "coordinates": [ -113.51468, 53.51801 ] } },
{ "type": "Feature", "properties": { "name": "109 Street & 82 Avenue" }, "geometry": { "type": "Point", "coordinates": [ -113.51324, 53.51821 ] } },
{ "type": "Feature", "properties": { "name": "109 Street & 82 Avenue" }, "geometry": { "type": "Point", "coordinates": [ -113.51224, 53.51764 ] } },
{ "type": "Feature", "properties": { "name": "South Campus Fort Edmonton Transit Centre Bay A" }, "geometry": { "type": "Point", "coordinates": [ -113.52896, 53.50368 ] } },
{ "type": "Feature", "properties": { "name": "South Campus Fort Edmonton Transit Centre Bay G" }, "geometry": { "type": "Point", "coordinates": [ -113.52895, 53.50255 ] } },
{ "type": "Feature", "properties": { "name": "South Campus Fort Edmonton Transit Centre Bay L" }, "geometry": { "type": "Point", "coordinates": [ -113.52878, 53.50318 ] } },
{ "type": "Feature", "properties": { "name": "South Campus Fort Edmonton Transit Centre Bay N" }, "geometry": { "type": "Point", "coordinates": [ -113.5288, 53.5036 ] } },
{ "type": "Feature", "properties": { "name": "109 Street & 70 Avenue" }, "geometry": { "type": "Point", "coordinates": [ -113.51187, 53.5069 ] } },
{ "type": "Feature", "properties": { "name": "105 Street & 82 Avenue" }, "geometry": { "type": "Point", "coordinates": [ -113.49973, 53.51799 ] } },
{ "type": "Feature", "properties": { "name": "102 Street & 82 Avenue" }, "geometry": { "type": "Point", "coordinates": [ -113.49424, 53.51816 ] } },
{ "type": "Feature", "properties": { "name": "107 Street & 82 Avenue" }, "geometry": { "type": "Point", "coordinates": [ -113.50576, 53.518 ] } },
{ "type": "Feature", "properties": { "name": "109 Street & 80 Avenue" }, "geometry": { "type": "Point", "coordinates": [ -113.51219, 53.51589 ] } },
{ "type": "Feature", "properties": { "name": "109 Street & 68 Avenue" }, "geometry": { "type": "Point", "coordinates": [ -113.51219, 53.50446 ] } },
{ "type": "Feature", "properties": { "name": "111 Street & 82 Avenue" }, "geometry": { "type": "Point", "coordinates": [ -113.51814, 53.51821 ] } },
{ "type": "Feature", "properties": { "name": "109 Street & 87 Avenue" }, "geometry": { "type": "Point", "coordinates": [ -113.51185, 53.52249 ] } },
{ "type": "Feature", "properties": { "name": "109 Street & 84 Avenue" }, "geometry": { "type": "Point", "coordinates": [ -113.51222, 53.51976 ] } },
{ "type": "Feature", "properties": { "name": "109 Street & 65 Avenue" }, "geometry": { "type": "Point", "coordinates": [ -113.51183, 53.50233 ] } },
{ "type": "Feature", "properties": { "name": "Scona Road & 94 Avenue" }, "geometry": { "type": "Point", "coordinates": [ -113.48573, 53.5308 ] } },
{ "type": "Feature", "properties": { "name": "114 Street & 82 Avenue" }, "geometry": { "type": "Point", "coordinates": [ -113.52532, 53.51836 ] } },
{ "type": "Feature", "properties": { "name": "112 Street & 82 Avenue" }, "geometry": { "type": "Point", "coordinates": [ -113.52059, 53.51857 ] } },
{ "type": "Feature", "properties": { "name": "109 Street & 88 Avenue" }, "geometry": { "type": "Point", "coordinates": [ -113.51223, 53.52342 ] } },
{ "type": "Feature", "properties": { "name": "109 Street & 67 Avenue" }, "geometry": { "type": "Point", "coordinates": [ -113.51184, 53.50422 ] } },
{ "type": "Feature", "properties": { "name": "109 Street & University Avenue" }, "geometry": { "type": "Point", "coordinates": [ -113.51219, 53.51384 ] } },
{ "type": "Feature", "properties": { "name": "109 Street & 80 Avenue" }, "geometry": { "type": "Point", "coordinates": [ -113.51186, 53.51645 ] } },
{ "type": "Feature", "properties": { "name": "114 Street & 82 Avenue" }, "geometry": { "type": "Point", "coordinates": [ -113.52565, 53.51795 ] } },
{ "type": "Feature", "properties": { "name": "109 Street & 69 Avenue" }, "geometry": { "type": "Point", "coordinates": [ -113.51184, 53.50591 ] } },
{ "type": "Feature", "properties": { "name": "111 Street & 57 Avenue" }, "geometry": { "type": "Point", "coordinates": [ -113.51707, 53.49368 ] } },
{ "type": "Feature", "properties": { "name": "50 Street & 92 Avenue" }, "geometry": { "type": "Point", "coordinates": [ -113.41885, 53.52611 ] } },
{ "type": "Feature", "properties": { "name": "112 Street & 84 Avenue" }, "geometry": { "type": "Point", "coordinates": [ -113.52071, 53.52028 ] } },
{ "type": "Feature", "properties": { "name": "50 Street & 90 Avenue" }, "geometry": { "type": "Point", "coordinates": [ -113.41839, 53.52208 ] } },
{ "type": "Feature", "properties": { "name": "109 Street & 65 Avenue" }, "geometry": { "type": "Point", "coordinates": [ -113.51216, 53.50167 ] } },
{ "type": "Feature", "properties": { "name": "109 Street & 86 Avenue" }, "geometry": { "type": "Point", "coordinates": [ -113.51224, 53.52167 ] } },
{ "type": "Feature", "properties": { "name": "108 Street & 82 Avenue" }, "geometry": { "type": "Point", "coordinates": [ -113.50974, 53.51821 ] } },
{ "type": "Feature", "properties": { "name": "109 Street & 84 Avenue" }, "geometry": { "type": "Point", "coordinates": [ -113.51188, 53.52034 ] } },
{ "type": "Feature", "properties": { "name": "109 Street & 57 Avenue" }, "geometry": { "type": "Point", "coordinates": [ -113.51182, 53.49448 ] } },
{ "type": "Feature", "properties": { "name": "Low Level Bridge & James MacDonald Bridge" }, "geometry": { "type": "Point", "coordinates": [ -113.48426, 53.53582 ] } },
{ "type": "Feature", "properties": { "name": "108 Street & 51 Avenue" }, "geometry": { "type": "Point", "coordinates": [ -113.50899, 53.48816 ] } },
{ "type": "Feature", "properties": { "name": "112 Street & 86 Avenue" }, "geometry": { "type": "Point", "coordinates": [ -113.52072, 53.5215 ] } },
{ "type": "Feature", "properties": { "name": "99 Street & 83 Avenue" }, "geometry": { "type": "Point", "coordinates": [ -113.48602, 53.51896 ] } },
{ "type": "Feature", "properties": { "name": "Scona Road & 95 Avenue" }, "geometry": { "type": "Point", "coordinates": [ -113.4857, 53.53282 ] } },
{ "type": "Feature", "properties": { "name": "99 Street & 89 Avenue" }, "geometry": { "type": "Point", "coordinates": [ -113.48598, 53.52477 ] } },
{ "type": "Feature", "properties": { "name": "111 Street & 57 Avenue" }, "geometry": { "type": "Point", "coordinates": [ -113.51588, 53.49404 ] } },
{ "type": "Feature", "properties": { "name": "110 Street & 57 Avenue" }, "geometry": { "type": "Point", "coordinates": [ -113.51554, 53.49413 ] } },
{ "type": "Feature", "properties": { "name": "112 Street & 82 Avenue" }, "geometry": { "type": "Point", "coordinates": [ -113.51985, 53.518 ] } },
{ "type": "Feature", "properties": { "name": "Scona Road & 96 Avenue" }, "geometry": { "type": "Point", "coordinates": [ -113.48403, 53.53467 ] } },
{ "type": "Feature", "properties": { "name": "105 Street & 82 Avenue" }, "geometry": { "type": "Point", "coordinates": [ -113.50092, 53.51818 ] } },
{ "type": "Feature", "properties": { "name": "91 Street & 82 Avenue" }, "geometry": { "type": "Point", "coordinates": [ -113.46686, 53.51794 ] } },
{ "type": "Feature", "properties": { "name": "99 Street & 92 Avenue" }, "geometry": { "type": "Point", "coordinates": [ -113.48595, 53.52692 ] } },
{ "type": "Feature", "properties": { "name": "109 Street & 63 Avenue" }, "geometry": { "type": "Point", "coordinates": [ -113.51183, 53.50036 ] } },
{ "type": "Feature", "properties": { "name": "101 Street & 82 Avenue" }, "geometry": { "type": "Point", "coordinates": [ -113.49178, 53.51817 ] } },
{ "type": "Feature", "properties": { "name": "109 Street & 74 Avenue" }, "geometry": { "type": "Point", "coordinates": [ -113.51189, 53.51064 ] } },
{ "type": "Feature", "properties": { "name": "104 Street & 82 Avenue" }, "geometry": { "type": "Point", "coordinates": [ -113.49713, 53.51798 ] } },
{ "type": "Feature", "properties": { "name": "109 Street & 76 Avenue" }, "geometry": { "type": "Point", "coordinates": [ -113.51186, 53.51272 ] } },
{ "type": "Feature", "properties": { "name": "99 Street & 89 Avenue" }, "geometry": { "type": "Point", "coordinates": [ -113.48625, 53.52414 ] } },
{ "type": "Feature", "properties": { "name": "102 Street & 82 Avenue" }, "geometry": { "type": "Point", "coordinates": [ -113.49341, 53.51794 ] } },
{ "type": "Feature", "properties": { "name": "99 Street & 87 Avenue" }, "geometry": { "type": "Point", "coordinates": [ -113.48601, 53.52301 ] } },
{ "type": "Feature", "properties": { "name": "109 Street & 74 Avenue" }, "geometry": { "type": "Point", "coordinates": [ -113.5122, 53.51006 ] } },
{ "type": "Feature", "properties": { "name": "109 Street & 82 Avenue" }, "geometry": { "type": "Point", "coordinates": [ -113.51188, 53.51889 ] } },
{ "type": "Feature", "properties": { "name": "99 Street & 85 Avenue" }, "geometry": { "type": "Point", "coordinates": [ -113.48622, 53.52064 ] } },
{ "type": "Feature", "properties": { "name": "112 Street & 87 Avenue" }, "geometry": { "type": "Point", "coordinates": [ -113.52171, 53.52295 ] } },
{ "type": "Feature", "properties": { "name": "Scona Road & 94 Avenue" }, "geometry": { "type": "Point", "coordinates": [ -113.48547, 53.53136 ] } },
{ "type": "Feature", "properties": { "name": "113 Street & 65 Avenue" }, "geometry": { "type": "Point", "coordinates": [ -113.52265, 53.50211 ] } },
{ "type": "Feature", "properties": { "name": "109 Street & 72 Avenue" }, "geometry": { "type": "Point", "coordinates": [ -113.51185, 53.50877 ] } },
{ "type": "Feature", "properties": { "name": "106 Street & 51 Avenue" }, "geometry": { "type": "Point", "coordinates": [ -113.50448, 53.48787 ] } },
{ "type": "Feature", "properties": { "name": "109 Street & 76 Avenue" }, "geometry": { "type": "Point", "coordinates": [ -113.51224, 53.51189 ] } },
{ "type": "Feature", "properties": { "name": "114 Street & 89 Avenue" }, "geometry": { "type": "Point", "coordinates": [ -113.52546, 53.52464 ] } },
{ "type": "Feature", "properties": { "name": "104 Street & 82 Avenue" }, "geometry": { "type": "Point", "coordinates": [ -113.49821, 53.51817 ] } },
{ "type": "Feature", "properties": { "name": "107 Street & 82 Avenue" }, "geometry": { "type": "Point", "coordinates": [ -113.50674, 53.51819 ] } },
{ "type": "Feature", "properties": { "name": "109 Street & 60 Avenue" }, "geometry": { "type": "Point", "coordinates": [ -113.51198, 53.49689 ] } },
{ "type": "Feature", "properties": { "name": "Gateway Boulevard & 51 Avenue" }, "geometry": { "type": "Point", "coordinates": [ -113.48827, 53.48806 ] } },
{ "type": "Feature", "properties": { "name": "50 Street & 93 Avenue" }, "geometry": { "type": "Point", "coordinates": [ -113.41879, 53.52994 ] } },
{ "type": "Feature", "properties": { "name": "114 Street & 78 Avenue" }, "geometry": { "type": "Point", "coordinates": [ -113.526, 53.51423 ] } },
{ "type": "Feature", "properties": { "name": "114 Street & 74 Avenue" }, "geometry": { "type": "Point", "coordinates": [ -113.52567, 53.51051 ] } },
{ "type": "Feature", "properties": { "name": "113 Street & 71 Avenue" }, "geometry": { "type": "Point", "coordinates": [ -113.52409, 53.50744 ] } },
{ "type": "Feature", "properties": { "name": "114 Street & 74 Avenue" }, "geometry": { "type": "Point", "coordinates": [ -113.52598, 53.50984 ] } },
{ "type": "Feature", "properties": { "name": "113 Street & 72 Avenue" }, "geometry": { "type": "Point", "coordinates": [ -113.5242, 53.50794 ] } },
{ "type": "Feature", "properties": { "name": "116 Street & Belgravia Road" }, "geometry": { "type": "Point", "coordinates": [ -113.53223, 53.50643 ] } },
{ "type": "Feature", "properties": { "name": "50 Street & 94B Avenue" }, "geometry": { "type": "Point", "coordinates": [ -113.41876, 53.5336 ] } },
{ "type": "Feature", "properties": { "name": "50 Street & 92 Avenue" }, "geometry": { "type": "Point", "coordinates": [ -113.41846, 53.52759 ] } },
{ "type": "Feature", "properties": { "name": "Fort Edmonton Park Road & Fox Drive" }, "geometry": { "type": "Point", "coordinates": [ -113.5619, 53.50305 ] } },
{ "type": "Feature", "properties": { "name": "Fort Edmonton Park Road & Fox Drive" }, "geometry": { "type": "Point", "coordinates": [ -113.56311, 53.50346 ] } },
{ "type": "Feature", "properties": { "name": "160 Street & 95 Avenue" }, "geometry": { "type": "Point", "coordinates": [ -113.59681, 53.5315 ] } },
{ "type": "Feature", "properties": { "name": "130 Street & 102 Avenue" }, "geometry": { "type": "Point", "coordinates": [ -113.54623, 53.54311 ] } },
{ "type": "Feature", "properties": { "name": "149 Street & 87 Avenue" }, "geometry": { "type": "Point", "coordinates": [ -113.57705, 53.51927 ] } },
{ "type": "Feature", "properties": { "name": "142 Street & 95 Avenue" }, "geometry": { "type": "Point", "coordinates": [ -113.56546, 53.53222 ] } },
{ "type": "Feature", "properties": { "name": "144 Street & 107 Avenue" }, "geometry": { "type": "Point", "coordinates": [ -113.56975, 53.55114 ] } },
{ "type": "Feature", "properties": { "name": "135 Street & 114 Avenue" }, "geometry": { "type": "Point", "coordinates": [ -113.55558, 53.56312 ] } },
{ "type": "Feature", "properties": { "name": "142 Street & Buena Vista Road" }, "geometry": { "type": "Point", "coordinates": [ -113.56561, 53.52014 ] } },
{ "type": "Feature", "properties": { "name": "150 Street & 87 Avenue" }, "geometry": { "type": "Point", "coordinates": [ -113.58038, 53.51952 ] } },
{ "type": "Feature", "properties": { "name": "132 Street & 102 Avenue" }, "geometry": { "type": "Point", "coordinates": [ -113.54988, 53.54297 ] } },
{ "type": "Feature", "properties": { "name": "165 Street & 95 Avenue" }, "geometry": { "type": "Point", "coordinates": [ -113.60804, 53.53175 ] } },
{ "type": "Feature", "properties": { "name": "165 Street & 87 Avenue" }, "geometry": { "type": "Point", "coordinates": [ -113.60951, 53.51968 ] } },
{ "type": "Feature", "properties": { "name": "135 Street & 111 Avenue" }, "geometry": { "type": "Point", "coordinates": [ -113.55392, 53.55899 ] } },
{ "type": "Feature", "properties": { "name": "142 Street & 98 Avenue" }, "geometry": { "type": "Point", "coordinates": [ -113.56567, 53.53591 ] } },
{ "type": "Feature", "properties": { "name": "142 Street & 89 Avenue" }, "geometry": { "type": "Point", "coordinates": [ -113.5656, 53.52152 ] } },
{ "type": "Feature", "properties": { "name": "138 Street & 102 Avenue" }, "geometry": { "type": "Point", "coordinates": [ -113.56017, 53.54311 ] } },
{ "type": "Feature", "properties": { "name": "149 Street & 97 Avenue" }, "geometry": { "type": "Point", "coordinates": [ -113.57788, 53.53496 ] } },
{ "type": "Feature", "properties": { "name": "135 Street & 111 Avenue" }, "geometry": { "type": "Point", "coordinates": [ -113.55488, 53.55874 ] } },
{ "type": "Feature", "properties": { "name": "153 Street & 95 Avenue" }, "geometry": { "type": "Point", "coordinates": [ -113.58431, 53.5316 ] } },
{ "type": "Feature", "properties": { "name": "142 Street & 101A Avenue" }, "geometry": { "type": "Point", "coordinates": [ -113.56585, 53.54215 ] } },
{ "type": "Feature", "properties": { "name": "139 Street & 107 Avenue" }, "geometry": { "type": "Point", "coordinates": [ -113.56081, 53.55086 ] } },
{ "type": "Feature", "properties": { "name": "167 Street & 95 Avenue" }, "geometry": { "type": "Point", "coordinates": [ -113.61124, 53.53176 ] } },
{ "type": "Feature", "properties": { "name": "132 Street & 102 Avenue" }, "geometry": { "type": "Point", "coordinates": [ -113.54924, 53.54312 ] } },
{ "type": "Feature", "properties": { "name": "St Georges Crescent & 102 Avenue" }, "geometry": { "type": "Point", "coordinates": [ -113.55484, 53.54296 ] } },
{ "type": "Feature", "properties": { "name": "161 Street & 87 Avenue" }, "geometry": { "type": "Point", "coordinates": [ -113.60054, 53.51958 ] } },
{ "type": "Feature", "properties": { "name": "165 Street & 95 Avenue" }, "geometry": { "type": "Point", "coordinates": [ -113.60655, 53.53153 ] } },
{ "type": "Feature", "properties": { "name": "142 Street & 95 Avenue" }, "geometry": { "type": "Point", "coordinates": [ -113.56568, 53.53111 ] } },
{ "type": "Feature", "properties": { "name": "139 Street & 107 Avenue" }, "geometry": { "type": "Point", "coordinates": [ -113.56175, 53.55102 ] } },
{ "type": "Feature", "properties": { "name": "169 Street & 87 Avenue" }, "geometry": { "type": "Point", "coordinates": [ -113.6118, 53.51941 ] } },
{ "type": "Feature", "properties": { "name": "170 Street & 95 Avenue" }, "geometry": { "type": "Point", "coordinates": [ -113.61387, 53.53158 ] } },
{ "type": "Feature", "properties": { "name": "153 Street & 87 Avenue" }, "geometry": { "type": "Point", "coordinates": [ -113.58452, 53.51938 ] } },
{ "type": "Feature", "properties": { "name": "142 Street & Valleyview Drive" }, "geometry": { "type": "Point", "coordinates": [ -113.56553, 53.5276 ] } },
{ "type": "Feature", "properties": { "name": "Westmount Transit Centre Bay B" }, "geometry": { "type": "Point", "coordinates": [ -113.55565, 53.56119 ] } },
{ "type": "Feature", "properties": { "name": "Westmount Transit Centre Bay H" }, "geometry": { "type": "Point", "coordinates": [ -113.55574, 53.56148 ] } },
{ "type": "Feature", "properties": { "name": "West Edmonton Mall Bay C" }, "geometry": { "type": "Point", "coordinates": [ -113.62067, 53.52514 ] } },
{ "type": "Feature", "properties": { "name": "163 Street & 95 Avenue" }, "geometry": { "type": "Point", "coordinates": [ -113.6006, 53.53152 ] } },
{ "type": "Feature", "properties": { "name": "149 Street & 95 Avenue" }, "geometry": { "type": "Point", "coordinates": [ -113.57788, 53.53192 ] } },
{ "type": "Feature", "properties": { "name": "Meadowlark Road & 87 Avenue" }, "geometry": { "type": "Point", "coordinates": [ -113.59726, 53.51958 ] } },
{ "type": "Feature", "properties": { "name": "156 Street & 95 Avenue" }, "geometry": { "type": "Point", "coordinates": [ -113.58896, 53.53148 ] } },
{ "type": "Feature", "properties": { "name": "Connaught Drive & 102 Avenue" }, "geometry": { "type": "Point", "coordinates": [ -113.54243, 53.54311 ] } },
{ "type": "Feature", "properties": { "name": "151 Street & 95 Avenue" }, "geometry": { "type": "Point", "coordinates": [ -113.58198, 53.5316 ] } },
{ "type": "Feature", "properties": { "name": "151 Street & 95 Avenue" }, "geometry": { "type": "Point", "coordinates": [ -113.58118, 53.53147 ] } },
{ "type": "Feature", "properties": { "name": "156 Street & 87 Avenue" }, "geometry": { "type": "Point", "coordinates": [ -113.58962, 53.51934 ] } },
{ "type": "Feature", "properties": { "name": "156 Street & 87 Avenue" }, "geometry": { "type": "Point", "coordinates": [ -113.5911, 53.51955 ] } },
{ "type": "Feature", "properties": { "name": "158 Street & 95 Avenue" }, "geometry": { "type": "Point", "coordinates": [ -113.59361, 53.53148 ] } },
{ "type": "Feature", "properties": { "name": "167 Street & 95 Avenue" }, "geometry": { "type": "Point", "coordinates": [ -113.60971, 53.53156 ] } },
{ "type": "Feature", "properties": { "name": "149 Street & 84 Avenue" }, "geometry": { "type": "Point", "coordinates": [ -113.57806, 53.51662 ] } },
{ "type": "Feature", "properties": { "name": "156 Street & 95 Avenue" }, "geometry": { "type": "Point", "coordinates": [ -113.59161, 53.53159 ] } },
{ "type": "Feature", "properties": { "name": "152 Street & 87 Avenue" }, "geometry": { "type": "Point", "coordinates": [ -113.58193, 53.51938 ] } },
{ "type": "Feature", "properties": { "name": "136 Street & 102 Avenue" }, "geometry": { "type": "Point", "coordinates": [ -113.55686, 53.54311 ] } },
{ "type": "Feature", "properties": { "name": "147 Street & 87 Avenue" }, "geometry": { "type": "Point", "coordinates": [ -113.57432, 53.51929 ] } },
{ "type": "Feature", "properties": { "name": "159 Street & 87 Avenue" }, "geometry": { "type": "Point", "coordinates": [ -113.59572, 53.5194 ] } },
{ "type": "Feature", "properties": { "name": "146 Street & 107 Avenue" }, "geometry": { "type": "Point", "coordinates": [ -113.57283, 53.55112 ] } },
{ "type": "Feature", "properties": { "name": "178 Street & 89 Avenue" }, "geometry": { "type": "Point", "coordinates": [ -113.63028, 53.52345 ] } },
{ "type": "Feature", "properties": { "name": "135 Street & 107 Avenue" }, "geometry": { "type": "Point", "coordinates": [ -113.55643, 53.55108 ] } },
{ "type": "Feature", "properties": { "name": "142 Street & 107 Avenue" }, "geometry": { "type": "Point", "coordinates": [ -113.56787, 53.55116 ] } },
{ "type": "Feature", "properties": { "name": "135 Street & 114 Avenue" }, "geometry": { "type": "Point", "coordinates": [ -113.55368, 53.56365 ] } },
{ "type": "Feature", "properties": { "name": "152 Street & 87 Avenue" }, "geometry": { "type": "Point", "coordinates": [ -113.58284, 53.51953 ] } },
{ "type": "Feature", "properties": { "name": "149 Street & 84 Avenue" }, "geometry": { "type": "Point", "coordinates": [ -113.57784, 53.51727 ] } },
{ "type": "Feature", "properties": { "name": "153 Street & 95 Avenue" }, "geometry": { "type": "Point", "coordinates": [ -113.58454, 53.53148 ] } },
{ "type": "Feature", "properties": { "name": "149 Street & 100 Avenue" }, "geometry": { "type": "Point", "coordinates": [ -113.57786, 53.54002 ] } },
{ "type": "Feature", "properties": { "name": "149 Street & 99 Avenue" }, "geometry": { "type": "Point", "coordinates": [ -113.57811, 53.53743 ] } },
{ "type": "Feature", "properties": { "name": "138 Street & 102 Avenue" }, "geometry": { "type": "Point", "coordinates": [ -113.56011, 53.54296 ] } },
{ "type": "Feature", "properties": { "name": "144 Street & 107 Avenue" }, "geometry": { "type": "Point", "coordinates": [ -113.56857, 53.55099 ] } },
{ "type": "Feature", "properties": { "name": "Tweedsmuir Crescent & 102 Avenue" }, "geometry": { "type": "Point", "coordinates": [ -113.55234, 53.54297 ] } },
{ "type": "Feature", "properties": { "name": "134 Street & 107 Avenue" }, "geometry": { "type": "Point", "coordinates": [ -113.55374, 53.55082 ] } },
{ "type": "Feature", "properties": { "name": "Meadowlark Road & 87 Avenue" }, "geometry": { "type": "Point", "coordinates": [ -113.59564, 53.5196 ] } },
{ "type": "Feature", "properties": { "name": "Connaught Drive & 102 Avenue" }, "geometry": { "type": "Point", "coordinates": [ -113.54153, 53.54293 ] } },
{ "type": "Feature", "properties": { "name": "154 Street & 87 Avenue" }, "geometry": { "type": "Point", "coordinates": [ -113.58675, 53.51952 ] } },
{ "type": "Feature", "properties": { "name": "150 Street & 87 Avenue" }, "geometry": { "type": "Point", "coordinates": [ -113.57941, 53.51937 ] } },
{ "type": "Feature", "properties": { "name": "142 Street & 100 Avenue" }, "geometry": { "type": "Point", "coordinates": [ -113.56553, 53.54065 ] } },
{ "type": "Feature", "properties": { "name": "135 Street & 114 Avenue" }, "geometry": { "type": "Point", "coordinates": [ -113.55539, 53.56347 ] } },
{ "type": "Feature", "properties": { "name": "142 Street & 98 Avenue" }, "geometry": { "type": "Point", "coordinates": [ -113.56547, 53.53621 ] } },
{ "type": "Feature", "properties": { "name": "Groat Road & 107 Avenue" }, "geometry": { "type": "Point", "coordinates": [ -113.55158, 53.55114 ] } },
{ "type": "Feature", "properties": { "name": "178 Street & 87 Avenue" }, "geometry": { "type": "Point", "coordinates": [ -113.63011, 53.52191 ] } },
{ "type": "Feature", "properties": { "name": "149 Street & 99 Avenue" }, "geometry": { "type": "Point", "coordinates": [ -113.5779, 53.53798 ] } },
{ "type": "Feature", "properties": { "name": "149 Street & Stony Plain Road" }, "geometry": { "type": "Point", "coordinates": [ -113.57819, 53.54034 ] } },
{ "type": "Feature", "properties": { "name": "149 Street & 95 Avenue" }, "geometry": { "type": "Point", "coordinates": [ -113.57882, 53.5316 ] } },
{ "type": "Feature", "properties": { "name": "149 Street & 87 Avenue" }, "geometry": { "type": "Point", "coordinates": [ -113.57809, 53.51894 ] } },
{ "type": "Feature", "properties": { "name": "142 Street & 101A Avenue" }, "geometry": { "type": "Point", "coordinates": [ -113.56554, 53.54228 ] } },
{ "type": "Feature", "properties": { "name": "149 Street & 104 Avenue" }, "geometry": { "type": "Point", "coordinates": [ -113.57794, 53.54667 ] } },
{ "type": "Feature", "properties": { "name": "149 Street & 104 Avenue" }, "geometry": { "type": "Point", "coordinates": [ -113.57819, 53.54602 ] } },
{ "type": "Feature", "properties": { "name": "145 Street & 87 Avenue" }, "geometry": { "type": "Point", "coordinates": [ -113.56966, 53.51929 ] } },
{ "type": "Feature", "properties": { "name": "149 Street & 107 Avenue" }, "geometry": { "type": "Point", "coordinates": [ -113.57821, 53.5501 ] } },
{ "type": "Feature", "properties": { "name": "137 Street & 102 Avenue" }, "geometry": { "type": "Point", "coordinates": [ -113.55753, 53.54297 ] } },
{ "type": "Feature", "properties": { "name": "142 Street & 96 Avenue" }, "geometry": { "type": "Point", "coordinates": [ -113.56569, 53.53334 ] } },
{ "type": "Feature", "properties": { "name": "146 Street & 107 Avenue" }, "geometry": { "type": "Point", "coordinates": [ -113.57302, 53.55099 ] } },
{ "type": "Feature", "properties": { "name": "163 Street & 95 Avenue" }, "geometry": { "type": "Point", "coordinates": [ -113.60402, 53.53171 ] } },
{ "type": "Feature", "properties": { "name": "169 Street & 87 Avenue" }, "geometry": { "type": "Point", "coordinates": [ -113.61347, 53.51971 ] } },
{ "type": "Feature", "properties": { "name": "142 Street & 97 Avenue" }, "geometry": { "type": "Point", "coordinates": [ -113.56544, 53.53405 ] } },
{ "type": "Feature", "properties": { "name": "142 Street & 89 Avenue" }, "geometry": { "type": "Point", "coordinates": [ -113.56582, 53.52094 ] } },
{ "type": "Feature", "properties": { "name": "164 Street & 87 Avenue" }, "geometry": { "type": "Point", "coordinates": [ -113.60485, 53.51946 ] } },
{ "type": "Feature", "properties": { "name": "136 Street & 107 Avenue" }, "geometry": { "type": "Point", "coordinates": [ -113.55581, 53.55082 ] } },
{ "type": "Feature", "properties": { "name": "149 Street & 100 Avenue" }, "geometry": { "type": "Point", "coordinates": [ -113.57817, 53.53831 ] } },
{ "type": "Feature", "properties": { "name": "142 Street & 100 Avenue" }, "geometry": { "type": "Point", "coordinates": [ -113.56587, 53.54061 ] } },
{ "type": "Feature", "properties": { "name": "161 Street & 87 Avenue" }, "geometry": { "type": "Point", "coordinates": [ -113.59883, 53.51942 ] } },
{ "type": "Feature", "properties": { "name": "163 Street & 87 Avenue" }, "geometry": { "type": "Point", "coordinates": [ -113.60412, 53.51958 ] } },
{ "type": "Feature", "properties": { "name": "142 Street & 91 Avenue" }, "geometry": { "type": "Point", "coordinates": [ -113.56584, 53.52459 ] } },
{ "type": "Feature", "properties": { "name": "160 Street & 95 Avenue" }, "geometry": { "type": "Point", "coordinates": [ -113.59778, 53.53162 ] } },
{ "type": "Feature", "properties": { "name": "149 Street & 97 Avenue" }, "geometry": { "type": "Point", "coordinates": [ -113.57809, 53.53423 ] } },
{ "type": "Feature", "properties": { "name": "142 Street & 91 Avenue" }, "geometry": { "type": "Point", "coordinates": [ -113.56562, 53.52517 ] } },
{ "type": "Feature", "properties": { "name": "134 Street & 102 Avenue" }, "geometry": { "type": "Point", "coordinates": [ -113.55328, 53.54311 ] } },
{ "type": "Feature", "properties": { "name": "Wellington Crescent & 102 Avenue" }, "geometry": { "type": "Point", "coordinates": [ -113.5452, 53.54297 ] } },
{ "type": "Feature", "properties": { "name": "155 Street & 87 Avenue" }, "geometry": { "type": "Point", "coordinates": [ -113.58917, 53.51954 ] } },
{ "type": "Feature", "properties": { "name": "145 Street & 87 Avenue" }, "geometry": { "type": "Point", "coordinates": [ -113.57102, 53.51942 ] } },
{ "type": "Feature", "properties": { "name": "182 Street & 87 Avenue" }, "geometry": { "type": "Point", "coordinates": [ -113.63657, 53.52151 ] } },
{ "type": "Feature", "properties": { "name": "142 Street & 92A Avenue" }, "geometry": { "type": "Point", "coordinates": [ -113.56581, 53.52751 ] } },
{ "type": "Feature", "properties": { "name": "178 Street & 89 Avenue" }, "geometry": { "type": "Point", "coordinates": [ -113.62977, 53.52403 ] } },
{ "type": "Feature", "properties": { "name": "182 Street & 87 Avenue" }, "geometry": { "type": "Point", "coordinates": [ -113.63939, 53.52148 ] } },
{ "type": "Feature", "properties": { "name": "187 Street & 87 Avenue" }, "geometry": { "type": "Point", "coordinates": [ -113.64667, 53.52131 ] } },
{ "type": "Feature", "properties": { "name": "185 Street & 87 Avenue" }, "geometry": { "type": "Point", "coordinates": [ -113.64414, 53.52158 ] } },
{ "type": "Feature", "properties": { "name": "182 Street & 87 Avenue" }, "geometry": { "type": "Point", "coordinates": [ -113.63812, 53.52169 ] } },
{ "type": "Feature", "properties": { "name": "189 Street & 87 Avenue" }, "geometry": { "type": "Point", "coordinates": [ -113.65019, 53.52142 ] } },
{ "type": "Feature", "properties": { "name": "186 Street & 87 Avenue" }, "geometry": { "type": "Point", "coordinates": [ -113.64316, 53.52138 ] } },
{ "type": "Feature", "properties": { "name": "West Edmonton Mall Bay B" }, "geometry": { "type": "Point", "coordinates": [ -113.6229, 53.52495 ] } },
{ "type": "Feature", "properties": { "name": "135 Street & 114 Avenue" }, "geometry": { "type": "Point", "coordinates": [ -113.55481, 53.56389 ] } },
{ "type": "Feature", "properties": { "name": "97 Street & 128 Avenue" }, "geometry": { "type": "Point", "coordinates": [ -113.49223, 53.58534 ] } },
{ "type": "Feature", "properties": { "name": "Eaux Claires Transit Centre Bay Q" }, "geometry": { "type": "Point", "coordinates": [ -113.48975, 53.61786 ] } },
{ "type": "Feature", "properties": { "name": "97 Street & 132 Avenue" }, "geometry": { "type": "Point", "coordinates": [ -113.4922, 53.59172 ] } },
{ "type": "Feature", "properties": { "name": "97 Street & 144 Avenue" }, "geometry": { "type": "Point", "coordinates": [ -113.49209, 53.60639 ] } },
{ "type": "Feature", "properties": { "name": "97 Street & 134 Avenue" }, "geometry": { "type": "Point", "coordinates": [ -113.49215, 53.59429 ] } },
{ "type": "Feature", "properties": { "name": "97 Street & 129B Avenue" }, "geometry": { "type": "Point", "coordinates": [ -113.49227, 53.58862 ] } },
{ "type": "Feature", "properties": { "name": "97 Street & 153 Avenue" }, "geometry": { "type": "Point", "coordinates": [ -113.49217, 53.61331 ] } },
{ "type": "Feature", "properties": { "name": "97 Street & 135 Avenue" }, "geometry": { "type": "Point", "coordinates": [ -113.49222, 53.59575 ] } },
{ "type": "Feature", "properties": { "name": "Northgate Transit Centre Bay C" }, "geometry": { "type": "Point", "coordinates": [ -113.48956, 53.5999 ] } },
{ "type": "Feature", "properties": { "name": "Northgate Transit Centre Bay H" }, "geometry": { "type": "Point", "coordinates": [ -113.49054, 53.59979 ] } },
{ "type": "Feature", "properties": { "name": "97 Street & 129B Avenue" }, "geometry": { "type": "Point", "coordinates": [ -113.49178, 53.58989 ] } },
{ "type": "Feature", "properties": { "name": "97 Street & 134 Avenue" }, "geometry": { "type": "Point", "coordinates": [ -113.49178, 53.59504 ] } },
{ "type": "Feature", "properties": { "name": "97 Street & 127 Avenue" }, "geometry": { "type": "Point", "coordinates": [ -113.49173, 53.58541 ] } },
{ "type": "Feature", "properties": { "name": "97 Street & 132 Avenue" }, "geometry": { "type": "Point", "coordinates": [ -113.4918, 53.59281 ] } },
{ "type": "Feature", "properties": { "name": "97 Street & 135 Avenue" }, "geometry": { "type": "Point", "coordinates": [ -113.49168, 53.59715 ] } },
{ "type": "Feature", "properties": { "name": "Lewis Farms Transit Centre Bay B" }, "geometry": { "type": "Point", "coordinates": [ -113.66682, 53.5232 ] } }
]
}
