{
"type": "FeatureCollection",
"name": "fbus-buffers",
"features": [
{ "type": "Feature", "properties": { "r": 400 }, "geometry": { "type": "MultiPolygon", "coordinates": [ [ [ [ -113.57286, 53.51481 ], [ -113.57245, 53.51531 ], [ -113.57216, 53.51589 ], [ -113.57001, 53.5157 ], [ -113.56938, 53.5157 ], [ -113.56844, 53.51577 ], [ -113.56783, 53.51586 ], [ -113.56695, 53.51608 ], [ -113.56575, 53.51655 ], [ -113.56502, 53.51657 ], [ -113.56409, 53.51667 ], [ -113.56349, 53.51678 ], [ -113.56263, 53.51702 ], [ -113.56185, 53.51734 ], [ -113.56095, 53.51786 ], [ -113.56026, 53.51849 ], [ -113.55989, 53.51901 ], [ -113.55966, 53.51956 ], [ -113.55959, 53.51993 ], [ -113.55969, 53.52081 ], [ -113.55957, 53.52169 ], [ -113.55976, 53.52243 ], [ -113.56027, 53.52321 ], [ -113.55995, 53.52382 ], [ -113.55963, 53.52477 ], [ -113.55962, 53.52552 ], [ -113.5599, 53.5263 ], [ -113.55957, 53.52701 ], [ -113.5595, 53.52776 ], [ -113.55956, 53.52814 ], [ -113.55978, 53.52869 ], [ -113.56035, 53.52944 ], [ -113.56006, 53.5298 ], [ -113.55979, 53.53034 ], [ -113.55969, 53.53071 ], [ -113.55965, 53.53124 ], [ -113.55943, 53.53201 ], [ -113.55945, 53.53257 ], [ -113.55962, 53.53312 ], [ -113.55945, 53.53365 ], [ -113.55942, 53.53422 ], [ -113.55953, 53.53478 ], [ -113.5597, 53.53515 ], [ -113.55947, 53.53581 ], [ -113.55944, 53.53638 ], [ -113.55956, 53.53694 ], [ -113.55982, 53.53748 ], [ -113.56022, 53.53799 ], [ -113.56076, 53.53846 ], [ -113.56033, 53.53883 ], [ -113.55989, 53.53937 ], [ -113.55881, 53.53945 ], [ -113.55789, 53.53938 ], [ -113.55725, 53.53938 ], [ -113.55621, 53.53946 ], [ -113.55487, 53.53936 ], [ -113.55352, 53.53945 ], [ -113.55238, 53.53938 ], [ -113.55113, 53.53945 ], [ -113.55023, 53.53938 ], [ -113.5496, 53.53938 ], [ -113.54866, 53.53945 ], [ -113.54767, 53.53962 ], [ -113.54618, 53.53943 ], [ -113.54555, 53.53939 ], [ -113.5446, 53.5394 ], [ -113.54349, 53.53953 ], [ -113.54282, 53.53942 ], [ -113.54189, 53.53934 ], [ -113.54094, 53.53935 ], [ -113.5401, 53.53944 ], [ -113.53966, 53.53939 ], [ -113.53879, 53.53906 ], [ -113.53777, 53.53881 ], [ -113.53666, 53.53825 ], [ -113.53554, 53.53791 ], [ -113.53432, 53.53771 ], [ -113.53299, 53.53767 ], [ -113.53177, 53.53738 ], [ -113.53052, 53.53725 ], [ -113.52926, 53.53729 ], [ -113.52814, 53.53746 ], [ -113.52712, 53.5373 ], [ -113.52618, 53.53725 ], [ -113.52523, 53.53729 ], [ -113.52438, 53.53741 ], [ -113.52327, 53.53727 ], [ -113.52232, 53.53725 ], [ -113.52138, 53.53732 ], [ -113.52045, 53.53748 ], [ -113.51927, 53.53729 ], [ -113.51801, 53.53724 ], [ -113.51707, 53.53731 ], [ -113.51592, 53.53753 ], [ -113.51463, 53.53744 ], [ -113.51361, 53.53729 ], [ -113.51266, 53.53724 ], [ -113.51141, 53.53731 ], [ -113.51044, 53.53748 ], [ -113.50927, 53.53746 ], [ -113.50908, 53.53742 ], [ -113.51046, 53.53731 ], [ -113.51106, 53.53719 ], [ -113.51192, 53.53695 ], [ -113.5127, 53.53664 ], [ -113.51317, 53.53639 ], [ -113.51379, 53.53596 ], [ -113.51414, 53.53565 ], [ -113.51443, 53.53531 ], [ -113.51475, 53.53478 ], [ -113.51496, 53.53404 ], [ -113.51494, 53.53348 ], [ -113.51484, 53.5331 ], [ -113.51469, 53.53274 ], [ -113.51433, 53.53222 ], [ -113.51365, 53.53159 ], [ -113.51276, 53.53105 ], [ -113.51171, 53.53064 ], [ -113.51054, 53.53036 ], [ -113.50992, 53.53028 ], [ -113.50898, 53.53023 ], [ -113.50772, 53.53031 ], [ -113.50652, 53.53053 ], [ -113.50595, 53.5307 ], [ -113.50517, 53.53102 ], [ -113.50417, 53.53076 ], [ -113.5033, 53.53063 ], [ -113.5032, 53.53048 ], [ -113.50442, 53.53029 ], [ -113.50555, 53.52995 ], [ -113.50653, 53.52948 ], [ -113.50733, 53.5289 ], [ -113.50791, 53.52824 ], [ -113.50825, 53.52751 ], [ -113.50832, 53.52676 ], [ -113.50815, 53.52607 ], [ -113.50891, 53.52642 ], [ -113.50974, 53.52669 ], [ -113.51094, 53.52693 ], [ -113.51187, 53.52701 ], [ -113.51282, 53.52699 ], [ -113.51375, 53.5269 ], [ -113.51465, 53.52671 ], [ -113.51571, 53.52635 ], [ -113.5161, 53.52678 ], [ -113.51667, 53.52723 ], [ -113.51735, 53.52762 ], [ -113.51786, 53.52785 ], [ -113.51841, 53.52804 ], [ -113.51928, 53.52825 ], [ -113.5202, 53.52839 ], [ -113.52082, 53.52843 ], [ -113.52146, 53.52843 ], [ -113.5224, 53.52836 ], [ -113.52377, 53.52809 ], [ -113.52447, 53.52819 ], [ -113.52542, 53.52823 ], [ -113.52636, 53.52819 ], [ -113.52698, 53.52812 ], [ -113.52787, 53.52793 ], [ -113.52871, 53.52767 ], [ -113.52946, 53.52733 ], [ -113.53012, 53.52692 ], [ -113.53066, 53.52646 ], [ -113.53107, 53.52595 ], [ -113.53135, 53.52541 ], [ -113.53148, 53.52485 ], [ -113.53142, 53.5241 ], [ -113.53117, 53.52348 ], [ -113.53139, 53.52294 ], [ -113.53147, 53.52238 ], [ -113.53141, 53.52187 ], [ -113.53144, 53.52103 ], [ -113.53118, 53.52029 ], [ -113.53144, 53.51985 ], [ -113.53162, 53.5193 ], [ -113.53168, 53.51779 ], [ -113.53149, 53.51705 ], [ -113.53097, 53.51627 ], [ -113.53162, 53.51554 ], [ -113.53182, 53.51518 ], [ -113.532, 53.51463 ], [ -113.53201, 53.51388 ], [ -113.53191, 53.51351 ], [ -113.53166, 53.51299 ], [ -113.53192, 53.51239 ], [ -113.53205, 53.51183 ], [ -113.53204, 53.51126 ], [ -113.53185, 53.51067 ], [ -113.53201, 53.51002 ], [ -113.53282, 53.51001 ], [ -113.53375, 53.50991 ], [ -113.53435, 53.50979 ], [ -113.53521, 53.50955 ], [ -113.53599, 53.50924 ], [ -113.53689, 53.50871 ], [ -113.53743, 53.50825 ], [ -113.53789, 53.50766 ], [ -113.53919, 53.50759 ], [ -113.54039, 53.50736 ], [ -113.54096, 53.5072 ], [ -113.54174, 53.50688 ], [ -113.54264, 53.50635 ], [ -113.54318, 53.50589 ], [ -113.54359, 53.50538 ], [ -113.54387, 53.50484 ], [ -113.544, 53.50428 ], [ -113.54398, 53.50372 ], [ -113.54381, 53.50316 ], [ -113.5435, 53.50263 ], [ -113.54305, 53.50213 ], [ -113.54227, 53.50155 ], [ -113.54155, 53.50118 ], [ -113.54046, 53.5008 ], [ -113.53927, 53.50056 ], [ -113.53802, 53.50048 ], [ -113.53676, 53.50055 ], [ -113.53556, 53.50078 ], [ -113.53449, 53.50114 ], [ -113.53403, 53.50061 ], [ -113.53346, 53.50016 ], [ -113.53277, 53.49977 ], [ -113.53172, 53.49936 ], [ -113.53085, 53.49914 ], [ -113.52993, 53.499 ], [ -113.52899, 53.49895 ], [ -113.52795, 53.499 ], [ -113.52674, 53.49857 ], [ -113.52616, 53.49843 ], [ -113.52524, 53.49829 ], [ -113.52429, 53.49825 ], [ -113.52335, 53.49829 ], [ -113.52053, 53.49874 ], [ -113.51967, 53.49898 ], [ -113.51914, 53.49918 ], [ -113.51842, 53.49955 ], [ -113.51782, 53.49996 ], [ -113.51778, 53.49981 ], [ -113.51804, 53.49922 ], [ -113.51812, 53.49866 ], [ -113.51805, 53.49809 ], [ -113.51788, 53.49763 ], [ -113.51794, 53.49743 ], [ -113.52032, 53.49671 ], [ -113.52083, 53.49649 ], [ -113.52152, 53.4961 ], [ -113.52192, 53.49581 ], [ -113.52242, 53.49533 ], [ -113.52279, 53.49481 ], [ -113.52301, 53.49427 ], [ -113.52309, 53.49371 ], [ -113.52303, 53.49314 ], [ -113.52281, 53.49259 ], [ -113.52233, 53.49193 ], [ -113.52274, 53.49137 ], [ -113.52297, 53.49082 ], [ -113.52305, 53.49026 ], [ -113.52298, 53.48969 ], [ -113.52286, 53.48933 ], [ -113.52255, 53.48879 ], [ -113.5221, 53.4883 ], [ -113.52168, 53.48795 ], [ -113.52218, 53.48721 ], [ -113.52238, 53.48646 ], [ -113.52224, 53.48506 ], [ -113.52208, 53.48451 ], [ -113.52177, 53.48398 ], [ -113.52114, 53.48332 ], [ -113.52053, 53.48289 ], [ -113.51956, 53.48241 ], [ -113.51902, 53.48222 ], [ -113.51814, 53.482 ], [ -113.51691, 53.48184 ], [ -113.51628, 53.48182 ], [ -113.51534, 53.48186 ], [ -113.51472, 53.48194 ], [ -113.51386, 53.48211 ], [ -113.51355, 53.48141 ], [ -113.51315, 53.4809 ], [ -113.51262, 53.48043 ], [ -113.51197, 53.48002 ], [ -113.51149, 53.47978 ], [ -113.51068, 53.47948 ], [ -113.50981, 53.47926 ], [ -113.50904, 53.47915 ], [ -113.50843, 53.47893 ], [ -113.50756, 53.47871 ], [ -113.50665, 53.47857 ], [ -113.5057, 53.47853 ], [ -113.50476, 53.47857 ], [ -113.50414, 53.47864 ], [ -113.50354, 53.47876 ], [ -113.50269, 53.479 ], [ -113.5019, 53.47931 ], [ -113.50121, 53.4797 ], [ -113.50046, 53.4803 ], [ -113.49994, 53.48099 ], [ -113.49967, 53.48172 ], [ -113.49966, 53.4824 ], [ -113.49919, 53.48285 ], [ -113.49882, 53.48337 ], [ -113.4986, 53.48392 ], [ -113.49852, 53.48456 ], [ -113.4972, 53.48447 ], [ -113.49585, 53.48455 ], [ -113.49497, 53.48445 ], [ -113.49434, 53.48443 ], [ -113.4934, 53.48447 ], [ -113.49274, 53.48455 ], [ -113.49185, 53.48445 ], [ -113.49122, 53.48443 ], [ -113.49027, 53.48447 ], [ -113.48961, 53.48455 ], [ -113.48863, 53.48447 ], [ -113.48769, 53.48448 ], [ -113.48632, 53.48466 ], [ -113.48535, 53.48451 ], [ -113.4841, 53.48446 ], [ -113.48316, 53.48453 ], [ -113.48199, 53.48475 ], [ -113.48103, 53.48464 ], [ -113.48028, 53.48462 ], [ -113.47925, 53.4845 ], [ -113.4783, 53.48448 ], [ -113.47706, 53.48459 ], [ -113.47579, 53.48488 ], [ -113.47452, 53.48458 ], [ -113.47328, 53.48445 ], [ -113.47233, 53.48446 ], [ -113.47134, 53.48457 ], [ -113.47038, 53.48446 ], [ -113.46912, 53.48446 ], [ -113.46646, 53.4848 ], [ -113.46529, 53.48456 ], [ -113.46436, 53.48445 ], [ -113.46341, 53.48443 ], [ -113.46239, 53.48451 ], [ -113.46097, 53.4844 ], [ -113.45972, 53.48448 ], [ -113.45874, 53.48465 ], [ -113.45768, 53.48459 ], [ -113.45674, 53.48463 ], [ -113.45583, 53.48458 ], [ -113.45519, 53.4846 ], [ -113.45396, 53.48475 ], [ -113.45308, 53.48496 ], [ -113.45227, 53.48525 ], [ -113.45155, 53.48562 ], [ -113.45093, 53.48604 ], [ -113.45058, 53.48636 ], [ -113.45006, 53.48704 ], [ -113.44983, 53.48759 ], [ -113.44976, 53.48798 ], [ -113.44938, 53.48845 ], [ -113.44911, 53.48899 ], [ -113.44898, 53.48955 ], [ -113.44903, 53.4903 ], [ -113.44935, 53.49103 ], [ -113.44981, 53.4916 ], [ -113.44937, 53.49229 ], [ -113.44919, 53.49284 ], [ -113.44918, 53.49359 ], [ -113.44934, 53.49415 ], [ -113.44852, 53.49448 ], [ -113.44762, 53.495 ], [ -113.44708, 53.49547 ], [ -113.44661, 53.49608 ], [ -113.44566, 53.49643 ], [ -113.44452, 53.49636 ], [ -113.44357, 53.4964 ], [ -113.44265, 53.49653 ], [ -113.44178, 53.49674 ], [ -113.44097, 53.49703 ], [ -113.44024, 53.49739 ], [ -113.43962, 53.49782 ], [ -113.43898, 53.49847 ], [ -113.43866, 53.499 ], [ -113.43848, 53.49955 ], [ -113.43845, 53.50012 ], [ -113.43856, 53.50068 ], [ -113.43883, 53.50122 ], [ -113.43923, 53.50173 ], [ -113.43976, 53.5022 ], [ -113.4404, 53.50261 ], [ -113.44142, 53.50305 ], [ -113.44227, 53.5033 ], [ -113.44348, 53.5035 ], [ -113.44442, 53.50355 ], [ -113.44537, 53.50351 ], [ -113.44629, 53.50338 ], [ -113.44717, 53.50317 ], [ -113.4481, 53.50282 ], [ -113.44892, 53.50292 ], [ -113.44986, 53.50293 ], [ -113.45049, 53.5029 ], [ -113.45141, 53.50277 ], [ -113.45257, 53.50247 ], [ -113.45335, 53.50215 ], [ -113.45382, 53.50191 ], [ -113.45444, 53.50148 ], [ -113.45479, 53.50117 ], [ -113.45537, 53.50037 ], [ -113.45564, 53.50027 ], [ -113.45664, 53.50017 ], [ -113.45753, 53.49998 ], [ -113.45837, 53.49972 ], [ -113.45912, 53.49938 ], [ -113.45997, 53.49882 ], [ -113.46047, 53.49835 ], [ -113.46093, 53.49765 ], [ -113.46111, 53.49709 ], [ -113.46115, 53.49653 ], [ -113.46103, 53.49597 ], [ -113.46077, 53.49543 ], [ -113.46044, 53.49499 ], [ -113.46099, 53.4942 ], [ -113.46119, 53.49346 ], [ -113.46118, 53.49289 ], [ -113.46108, 53.49252 ], [ -113.46069, 53.49178 ], [ -113.46163, 53.49177 ], [ -113.46275, 53.49164 ], [ -113.46385, 53.49178 ], [ -113.4648, 53.4918 ], [ -113.46573, 53.49173 ], [ -113.46638, 53.49163 ], [ -113.46733, 53.49177 ], [ -113.46858, 53.49181 ], [ -113.46952, 53.49175 ], [ -113.47099, 53.49154 ], [ -113.4722, 53.49174 ], [ -113.47345, 53.49178 ], [ -113.4747, 53.49167 ], [ -113.4753, 53.49156 ], [ -113.47609, 53.49134 ], [ -113.47728, 53.49158 ], [ -113.47865, 53.49166 ], [ -113.48, 53.4918 ], [ -113.48126, 53.49177 ], [ -113.48187, 53.49169 ], [ -113.48274, 53.49152 ], [ -113.48401, 53.49164 ], [ -113.48542, 53.49159 ], [ -113.48635, 53.49176 ], [ -113.48729, 53.49184 ], [ -113.48855, 53.49181 ], [ -113.48916, 53.49173 ], [ -113.49004, 53.49155 ], [ -113.49196, 53.49182 ], [ -113.49291, 53.49184 ], [ -113.49399, 53.49175 ], [ -113.49492, 53.49186 ], [ -113.49586, 53.49188 ], [ -113.4968, 53.49181 ], [ -113.49779, 53.49164 ], [ -113.49825, 53.49159 ], [ -113.49957, 53.49187 ], [ -113.50083, 53.49195 ], [ -113.50177, 53.49191 ], [ -113.50291, 53.49174 ], [ -113.50372, 53.49175 ], [ -113.50466, 53.49168 ], [ -113.50557, 53.49153 ], [ -113.50622, 53.49135 ], [ -113.50709, 53.49157 ], [ -113.50799, 53.49171 ], [ -113.50716, 53.4922 ], [ -113.50647, 53.49283 ], [ -113.50601, 53.49353 ], [ -113.5058, 53.49427 ], [ -113.50586, 53.49502 ], [ -113.5062, 53.49579 ], [ -113.50591, 53.49635 ], [ -113.50577, 53.49709 ], [ -113.50584, 53.49765 ], [ -113.50609, 53.49827 ], [ -113.50607, 53.4988 ], [ -113.50613, 53.49918 ], [ -113.50588, 53.49977 ], [ -113.5058, 53.50033 ], [ -113.50587, 53.50089 ], [ -113.50604, 53.50135 ], [ -113.50589, 53.50175 ], [ -113.50581, 53.50231 ], [ -113.50587, 53.50287 ], [ -113.50602, 53.50328 ], [ -113.50585, 53.50382 ], [ -113.50581, 53.5042 ], [ -113.50598, 53.50507 ], [ -113.50583, 53.50569 ], [ -113.50588, 53.50645 ], [ -113.50584, 53.50706 ], [ -113.50604, 53.50782 ], [ -113.50583, 53.50856 ], [ -113.50585, 53.50913 ], [ -113.50605, 53.50974 ], [ -113.50586, 53.51061 ], [ -113.50592, 53.51117 ], [ -113.5061, 53.51165 ], [ -113.50584, 53.5125 ], [ -113.50585, 53.51307 ], [ -113.50602, 53.51363 ], [ -113.50583, 53.5144 ], [ -113.50486, 53.51444 ], [ -113.50382, 53.51459 ], [ -113.50246, 53.51471 ], [ -113.50103, 53.51448 ], [ -113.50009, 53.5144 ], [ -113.49915, 53.51441 ], [ -113.49846, 53.51448 ], [ -113.49781, 53.51441 ], [ -113.49686, 53.51439 ], [ -113.49623, 53.51443 ], [ -113.49539, 53.51454 ], [ -113.4947, 53.51443 ], [ -113.49377, 53.51435 ], [ -113.49282, 53.51436 ], [ -113.49204, 53.51444 ], [ -113.49058, 53.51437 ], [ -113.48933, 53.51448 ], [ -113.48843, 53.51467 ], [ -113.48716, 53.51457 ], [ -113.48608, 53.5144 ], [ -113.48482, 53.51435 ], [ -113.48358, 53.51446 ], [ -113.48224, 53.51478 ], [ -113.4809, 53.51448 ], [ -113.47998, 53.51437 ], [ -113.47871, 53.51437 ], [ -113.47774, 53.51447 ], [ -113.47667, 53.51434 ], [ -113.47572, 53.51432 ], [ -113.47509, 53.51436 ], [ -113.47417, 53.51448 ], [ -113.47293, 53.51482 ], [ -113.47121, 53.51446 ], [ -113.47059, 53.51438 ], [ -113.46965, 53.51433 ], [ -113.46902, 53.51435 ], [ -113.46818, 53.51443 ], [ -113.46753, 53.51437 ], [ -113.46659, 53.51435 ], [ -113.46532, 53.51447 ], [ -113.46465, 53.5144 ], [ -113.4637, 53.51438 ], [ -113.46243, 53.5145 ], [ -113.46125, 53.51438 ], [ -113.46031, 53.51439 ], [ -113.45936, 53.51449 ], [ -113.45845, 53.51439 ], [ -113.4575, 53.51437 ], [ -113.45656, 53.51444 ], [ -113.45566, 53.51459 ], [ -113.45456, 53.51442 ], [ -113.45362, 53.51437 ], [ -113.45255, 53.51442 ], [ -113.45141, 53.51439 ], [ -113.45013, 53.5145 ], [ -113.44915, 53.51441 ], [ -113.4482, 53.51439 ], [ -113.44726, 53.51446 ], [ -113.4463, 53.51463 ], [ -113.4452, 53.51452 ], [ -113.44394, 53.51456 ], [ -113.44301, 53.51468 ], [ -113.44186, 53.51498 ], [ -113.44081, 53.51543 ], [ -113.44006, 53.51562 ], [ -113.43925, 53.51591 ], [ -113.43852, 53.51627 ], [ -113.4381, 53.51655 ], [ -113.43756, 53.51701 ], [ -113.43726, 53.51735 ], [ -113.43694, 53.51788 ], [ -113.43681, 53.51824 ], [ -113.43673, 53.51899 ], [ -113.43686, 53.5196 ], [ -113.43675, 53.52012 ], [ -113.4368, 53.52084 ], [ -113.4367, 53.52157 ], [ -113.43536, 53.5216 ], [ -113.43421, 53.52178 ], [ -113.43341, 53.52172 ], [ -113.43275, 53.52171 ], [ -113.43161, 53.52157 ], [ -113.43053, 53.52155 ], [ -113.42978, 53.52128 ], [ -113.42901, 53.52108 ], [ -113.42818, 53.52064 ], [ -113.4271, 53.52026 ], [ -113.42651, 53.52012 ], [ -113.42559, 53.51998 ], [ -113.42424, 53.51994 ], [ -113.42351, 53.51947 ], [ -113.42277, 53.51912 ], [ -113.42194, 53.51885 ], [ -113.42105, 53.51865 ], [ -113.42012, 53.51855 ], [ -113.41813, 53.51849 ], [ -113.41719, 53.51856 ], [ -113.41599, 53.51878 ], [ -113.41542, 53.51895 ], [ -113.41464, 53.51927 ], [ -113.41416, 53.51952 ], [ -113.41354, 53.51994 ], [ -113.41304, 53.52042 ], [ -113.41278, 53.52076 ], [ -113.41258, 53.52112 ], [ -113.4124, 53.52167 ], [ -113.41239, 53.52242 ], [ -113.41256, 53.52298 ], [ -113.413, 53.52368 ], [ -113.41365, 53.52429 ], [ -113.41323, 53.5248 ], [ -113.41296, 53.52534 ], [ -113.41283, 53.5259 ], [ -113.41283, 53.52632 ], [ -113.41257, 53.52682 ], [ -113.41244, 53.52738 ], [ -113.41246, 53.52794 ], [ -113.41255, 53.52831 ], [ -113.41295, 53.52905 ], [ -113.41249, 53.53021 ], [ -113.41241, 53.53077 ], [ -113.41248, 53.53133 ], [ -113.41261, 53.5317 ], [ -113.41306, 53.53242 ], [ -113.41252, 53.5335 ], [ -113.41238, 53.53424 ], [ -113.41245, 53.53481 ], [ -113.41257, 53.53517 ], [ -113.41302, 53.53589 ], [ -113.41285, 53.53625 ], [ -113.41272, 53.53681 ], [ -113.41274, 53.53738 ], [ -113.41283, 53.53775 ], [ -113.41321, 53.53846 ], [ -113.4139, 53.5393 ], [ -113.41439, 53.53979 ], [ -113.415, 53.54022 ], [ -113.41546, 53.54047 ], [ -113.41624, 53.5408 ], [ -113.4168, 53.54097 ], [ -113.418, 53.54121 ], [ -113.41906, 53.54129 ], [ -113.41992, 53.5417 ], [ -113.42075, 53.54197 ], [ -113.42164, 53.54217 ], [ -113.42257, 53.54227 ], [ -113.42351, 53.54229 ], [ -113.42476, 53.54218 ], [ -113.42594, 53.54192 ], [ -113.42675, 53.54163 ], [ -113.42748, 53.54126 ], [ -113.4279, 53.54099 ], [ -113.42845, 53.54053 ], [ -113.42874, 53.54019 ], [ -113.42906, 53.53966 ], [ -113.4292, 53.53929 ], [ -113.42927, 53.53892 ], [ -113.42925, 53.53836 ], [ -113.42905, 53.53769 ], [ -113.42874, 53.53715 ], [ -113.42829, 53.53666 ], [ -113.42772, 53.53621 ], [ -113.42704, 53.53581 ], [ -113.42626, 53.53549 ], [ -113.42541, 53.53524 ], [ -113.4243, 53.53506 ], [ -113.42465, 53.53437 ], [ -113.42479, 53.53363 ], [ -113.42472, 53.53306 ], [ -113.4246, 53.53269 ], [ -113.42414, 53.53198 ], [ -113.42468, 53.53072 ], [ -113.42481, 53.53016 ], [ -113.4248, 53.5296 ], [ -113.4247, 53.52922 ], [ -113.4243, 53.52848 ], [ -113.42449, 53.52774 ], [ -113.42509, 53.52788 ], [ -113.42601, 53.52801 ], [ -113.4274, 53.52805 ], [ -113.42843, 53.52841 ], [ -113.42963, 53.52865 ], [ -113.43057, 53.52873 ], [ -113.43123, 53.52873 ], [ -113.43269, 53.52889 ], [ -113.43395, 53.52886 ], [ -113.43509, 53.52868 ], [ -113.43588, 53.52882 ], [ -113.43681, 53.5289 ], [ -113.43776, 53.52889 ], [ -113.43882, 53.52877 ], [ -113.43979, 53.52888 ], [ -113.44074, 53.5289 ], [ -113.44168, 53.52883 ], [ -113.44288, 53.52861 ], [ -113.44398, 53.52824 ], [ -113.44482, 53.5278 ], [ -113.44571, 53.52755 ], [ -113.44689, 53.52709 ], [ -113.44779, 53.52656 ], [ -113.44848, 53.52594 ], [ -113.44894, 53.52524 ], [ -113.44915, 53.5245 ], [ -113.44913, 53.52393 ], [ -113.44904, 53.52356 ], [ -113.44878, 53.52302 ], [ -113.44846, 53.5226 ], [ -113.4489, 53.52164 ], [ -113.45011, 53.52168 ], [ -113.45136, 53.52157 ], [ -113.45225, 53.5217 ], [ -113.45319, 53.52175 ], [ -113.45413, 53.52171 ], [ -113.45496, 53.5216 ], [ -113.4557, 53.5217 ], [ -113.45664, 53.52175 ], [ -113.45806, 53.52165 ], [ -113.45946, 53.52167 ], [ -113.46039, 53.52157 ], [ -113.46117, 53.52166 ], [ -113.46212, 53.52168 ], [ -113.46345, 53.52155 ], [ -113.46505, 53.52167 ], [ -113.46645, 53.52163 ], [ -113.4673, 53.52172 ], [ -113.46793, 53.52174 ], [ -113.46933, 53.52165 ], [ -113.46997, 53.52171 ], [ -113.47091, 53.52173 ], [ -113.47216, 53.52162 ], [ -113.47343, 53.52133 ], [ -113.47461, 53.5216 ], [ -113.47553, 53.52171 ], [ -113.4768, 53.52171 ], [ -113.47815, 53.52154 ], [ -113.47919, 53.5217 ], [ -113.48, 53.52175 ], [ -113.48013, 53.52219 ], [ -113.48001, 53.52261 ], [ -113.47998, 53.52317 ], [ -113.48015, 53.52387 ], [ -113.47999, 53.52437 ], [ -113.47996, 53.52494 ], [ -113.48002, 53.52531 ], [ -113.48021, 53.52581 ], [ -113.47995, 53.52652 ], [ -113.47992, 53.52709 ], [ -113.47998, 53.52746 ], [ -113.4802, 53.52801 ], [ -113.48076, 53.52876 ], [ -113.48011, 53.52949 ], [ -113.47958, 53.53059 ], [ -113.47944, 53.53134 ], [ -113.47947, 53.53171 ], [ -113.47962, 53.53223 ], [ -113.479, 53.53269 ], [ -113.47842, 53.53336 ], [ -113.47808, 53.53409 ], [ -113.478, 53.53465 ], [ -113.47807, 53.53521 ], [ -113.47824, 53.53567 ], [ -113.4783, 53.53636 ], [ -113.47854, 53.53696 ], [ -113.4785, 53.53756 ], [ -113.47869, 53.5383 ], [ -113.479, 53.53884 ], [ -113.47928, 53.53917 ], [ -113.47962, 53.53949 ], [ -113.48018, 53.53989 ], [ -113.47973, 53.54023 ], [ -113.47821, 53.54075 ], [ -113.47738, 53.54114 ], [ -113.47648, 53.54129 ], [ -113.4759, 53.54144 ], [ -113.47509, 53.54173 ], [ -113.47459, 53.54197 ], [ -113.47375, 53.54248 ], [ -113.47321, 53.54294 ], [ -113.47279, 53.54345 ], [ -113.4725, 53.54403 ], [ -113.47113, 53.5441 ], [ -113.46995, 53.54433 ], [ -113.46895, 53.54443 ], [ -113.46806, 53.54461 ], [ -113.46749, 53.54478 ], [ -113.46671, 53.5451 ], [ -113.46624, 53.54535 ], [ -113.46566, 53.54574 ], [ -113.46477, 53.54564 ], [ -113.46414, 53.54561 ], [ -113.46319, 53.54565 ], [ -113.46257, 53.54573 ], [ -113.46197, 53.54584 ], [ -113.46111, 53.54608 ], [ -113.46058, 53.54629 ], [ -113.45989, 53.54663 ], [ -113.459, 53.54629 ], [ -113.45812, 53.54607 ], [ -113.45659, 53.54578 ], [ -113.45534, 53.54566 ], [ -113.4544, 53.54567 ], [ -113.45339, 53.54578 ], [ -113.45224, 53.54567 ], [ -113.4513, 53.54568 ], [ -113.44997, 53.54585 ], [ -113.44867, 53.54592 ], [ -113.44746, 53.54615 ], [ -113.4469, 53.54632 ], [ -113.44611, 53.54664 ], [ -113.44542, 53.54702 ], [ -113.44484, 53.54747 ], [ -113.44438, 53.54796 ], [ -113.44406, 53.54849 ], [ -113.44392, 53.54886 ], [ -113.44384, 53.54942 ], [ -113.44391, 53.54998 ], [ -113.44412, 53.55053 ], [ -113.44448, 53.55105 ], [ -113.44497, 53.55154 ], [ -113.44558, 53.55197 ], [ -113.44629, 53.55234 ], [ -113.44709, 53.55264 ], [ -113.44827, 53.55291 ], [ -113.44889, 53.55299 ], [ -113.44983, 53.55304 ], [ -113.45077, 53.553 ], [ -113.45143, 53.55292 ], [ -113.45272, 53.55305 ], [ -113.45367, 53.55304 ], [ -113.45459, 53.55294 ], [ -113.45554, 53.55305 ], [ -113.4568, 53.55306 ], [ -113.45773, 53.55296 ], [ -113.45863, 53.55278 ], [ -113.45946, 53.55251 ], [ -113.46042, 53.55206 ], [ -113.46103, 53.55231 ], [ -113.46217, 53.55265 ], [ -113.46337, 53.55289 ], [ -113.46462, 53.55298 ], [ -113.46605, 53.55288 ], [ -113.46512, 53.55353 ], [ -113.46449, 53.55428 ], [ -113.46342, 53.55469 ], [ -113.46295, 53.55494 ], [ -113.46233, 53.55537 ], [ -113.46169, 53.55601 ], [ -113.46129, 53.55673 ], [ -113.46115, 53.55747 ], [ -113.46127, 53.55822 ], [ -113.46153, 53.55876 ], [ -113.46201, 53.55935 ], [ -113.46201, 53.56003 ], [ -113.46226, 53.56076 ], [ -113.46262, 53.56129 ], [ -113.46293, 53.56161 ], [ -113.4633, 53.56192 ], [ -113.46395, 53.56233 ], [ -113.46443, 53.56257 ], [ -113.46524, 53.56287 ], [ -113.46611, 53.56309 ], [ -113.46703, 53.56323 ], [ -113.46797, 53.56327 ], [ -113.46911, 53.56323 ], [ -113.46975, 53.56369 ], [ -113.47046, 53.56406 ], [ -113.47127, 53.56436 ], [ -113.47244, 53.56463 ], [ -113.47369, 53.56476 ], [ -113.47463, 53.56475 ], [ -113.47571, 53.56462 ], [ -113.47672, 53.56475 ], [ -113.47767, 53.56476 ], [ -113.48004, 53.56454 ], [ -113.4813, 53.56433 ], [ -113.48139, 53.56463 ], [ -113.48129, 53.56501 ], [ -113.48126, 53.56557 ], [ -113.48144, 53.56631 ], [ -113.48116, 53.56689 ], [ -113.48016, 53.56678 ], [ -113.47922, 53.56673 ], [ -113.47839, 53.56676 ], [ -113.47735, 53.56673 ], [ -113.47598, 53.56686 ], [ -113.47511, 53.56677 ], [ -113.47416, 53.56675 ], [ -113.47219, 53.56689 ], [ -113.46991, 53.56673 ], [ -113.46928, 53.56675 ], [ -113.46836, 53.56685 ], [ -113.46727, 53.56676 ], [ -113.46632, 53.56674 ], [ -113.46499, 53.56687 ], [ -113.46436, 53.56678 ], [ -113.46342, 53.56674 ], [ -113.46216, 53.56681 ], [ -113.46111, 53.567 ], [ -113.45972, 53.56671 ], [ -113.45847, 53.56662 ], [ -113.45721, 53.56669 ], [ -113.45586, 53.56696 ], [ -113.45439, 53.56672 ], [ -113.45314, 53.56663 ], [ -113.45188, 53.5667 ], [ -113.45094, 53.56687 ], [ -113.45028, 53.56678 ], [ -113.44934, 53.56673 ], [ -113.44839, 53.56677 ], [ -113.44761, 53.56687 ], [ -113.44693, 53.56678 ], [ -113.44598, 53.56673 ], [ -113.44504, 53.56677 ], [ -113.44437, 53.56685 ], [ -113.44321, 53.56673 ], [ -113.44257, 53.56671 ], [ -113.44163, 53.56675 ], [ -113.44092, 53.56684 ], [ -113.44008, 53.56674 ], [ -113.43913, 53.56673 ], [ -113.43773, 53.56686 ], [ -113.43701, 53.56677 ], [ -113.43607, 53.56672 ], [ -113.43512, 53.56676 ], [ -113.43405, 53.56691 ], [ -113.43339, 53.5668 ], [ -113.43245, 53.56672 ], [ -113.4315, 53.56673 ], [ -113.43053, 53.56684 ], [ -113.4298, 53.56674 ], [ -113.42886, 53.56669 ], [ -113.42791, 53.56673 ], [ -113.42724, 53.56681 ], [ -113.42647, 53.56673 ], [ -113.42552, 53.56671 ], [ -113.42418, 53.56684 ], [ -113.42316, 53.56671 ], [ -113.42221, 53.5667 ], [ -113.42127, 53.56676 ], [ -113.42037, 53.56692 ], [ -113.41899, 53.56674 ], [ -113.41805, 53.56669 ], [ -113.4171, 53.56673 ], [ -113.41642, 53.56682 ], [ -113.4152, 53.5667 ], [ -113.41426, 53.56671 ], [ -113.41326, 53.56682 ], [ -113.41243, 53.56672 ], [ -113.41149, 53.56671 ], [ -113.41004, 53.56685 ], [ -113.40934, 53.56675 ], [ -113.40839, 53.5667 ], [ -113.40697, 53.5668 ], [ -113.40624, 53.56672 ], [ -113.40529, 53.5667 ], [ -113.40396, 53.56683 ], [ -113.40311, 53.56673 ], [ -113.40216, 53.56671 ], [ -113.40083, 53.56684 ], [ -113.39991, 53.56673 ], [ -113.39928, 53.56671 ], [ -113.39833, 53.56675 ], [ -113.39766, 53.56683 ], [ -113.39702, 53.56675 ], [ -113.39607, 53.5667 ], [ -113.39513, 53.56674 ], [ -113.39409, 53.56689 ], [ -113.39322, 53.56695 ], [ -113.3924, 53.56678 ], [ -113.39178, 53.56669 ], [ -113.39084, 53.56665 ], [ -113.3902, 53.56666 ], [ -113.38897, 53.56681 ], [ -113.38809, 53.56702 ], [ -113.38754, 53.56721 ], [ -113.38655, 53.56768 ], [ -113.38579, 53.56822 ], [ -113.38481, 53.56845 ], [ -113.384, 53.56874 ], [ -113.38327, 53.5691 ], [ -113.38265, 53.56953 ], [ -113.38215, 53.57001 ], [ -113.38189, 53.57035 ], [ -113.38169, 53.57071 ], [ -113.38151, 53.57126 ], [ -113.38147, 53.57183 ], [ -113.38153, 53.5722 ], [ -113.38175, 53.57275 ], [ -113.3821, 53.57327 ], [ -113.38259, 53.57376 ], [ -113.3832, 53.57419 ], [ -113.38392, 53.57456 ], [ -113.385, 53.57494 ], [ -113.3862, 53.57518 ], [ -113.38714, 53.57526 ], [ -113.38792, 53.57525 ], [ -113.38906, 53.57547 ], [ -113.39031, 53.57556 ], [ -113.39126, 53.57552 ], [ -113.39188, 53.57544 ], [ -113.39248, 53.57533 ], [ -113.39328, 53.57511 ], [ -113.39442, 53.57511 ], [ -113.39566, 53.57496 ], [ -113.39654, 53.57475 ], [ -113.39709, 53.57456 ], [ -113.3976, 53.57435 ], [ -113.39823, 53.574 ], [ -113.39893, 53.57391 ], [ -113.39976, 53.574 ], [ -113.40071, 53.57402 ], [ -113.40209, 53.57389 ], [ -113.40354, 53.57383 ], [ -113.4045, 53.57398 ], [ -113.40544, 53.57403 ], [ -113.40689, 53.57393 ], [ -113.4076, 53.57401 ], [ -113.40854, 53.57402 ], [ -113.40974, 53.57392 ], [ -113.41047, 53.574 ], [ -113.41142, 53.57402 ], [ -113.41278, 53.57389 ], [ -113.41369, 53.57399 ], [ -113.41463, 53.57401 ], [ -113.41557, 53.57394 ], [ -113.41654, 53.57377 ], [ -113.41828, 53.574 ], [ -113.41922, 53.57405 ], [ -113.42017, 53.57401 ], [ -113.42138, 53.57382 ], [ -113.42254, 53.57396 ], [ -113.42349, 53.57401 ], [ -113.42412, 53.57399 ], [ -113.42502, 53.5739 ], [ -113.42647, 53.57401 ], [ -113.4271, 53.57399 ], [ -113.42796, 53.5739 ], [ -113.42883, 53.574 ], [ -113.42946, 53.57403 ], [ -113.4304, 53.57399 ], [ -113.43103, 53.57391 ], [ -113.43249, 53.57402 ], [ -113.43344, 53.57398 ], [ -113.43408, 53.5739 ], [ -113.43497, 53.574 ], [ -113.43592, 53.57402 ], [ -113.43686, 53.57395 ], [ -113.43758, 53.57384 ], [ -113.43859, 53.57399 ], [ -113.43953, 53.57404 ], [ -113.44048, 53.574 ], [ -113.44153, 53.57385 ], [ -113.44402, 53.57404 ], [ -113.44497, 53.574 ], [ -113.44564, 53.57391 ], [ -113.44673, 53.57389 ], [ -113.44813, 53.57404 ], [ -113.44908, 53.57403 ], [ -113.44984, 53.57395 ], [ -113.45129, 53.57407 ], [ -113.45223, 53.57403 ], [ -113.45295, 53.57394 ], [ -113.45381, 53.57403 ], [ -113.45445, 53.57406 ], [ -113.45539, 53.57402 ], [ -113.45605, 53.57394 ], [ -113.45677, 53.57414 ], [ -113.45828, 53.57446 ], [ -113.4589, 53.57454 ], [ -113.45984, 53.57459 ], [ -113.46079, 53.57455 ], [ -113.46171, 53.57443 ], [ -113.46259, 53.57421 ], [ -113.4633, 53.57396 ], [ -113.46463, 53.57406 ], [ -113.46557, 53.57402 ], [ -113.4663, 53.57392 ], [ -113.468, 53.57403 ], [ -113.46863, 53.57402 ], [ -113.46956, 53.57392 ], [ -113.47128, 53.57404 ], [ -113.47214, 53.57401 ], [ -113.47328, 53.57404 ], [ -113.47438, 53.57395 ], [ -113.47579, 53.57406 ], [ -113.47643, 53.57404 ], [ -113.47728, 53.57395 ], [ -113.4783, 53.57404 ], [ -113.47953, 53.57401 ], [ -113.48034, 53.57405 ], [ -113.48128, 53.57401 ], [ -113.48244, 53.57383 ], [ -113.4835, 53.574 ], [ -113.48445, 53.57405 ], [ -113.48539, 53.57401 ], [ -113.48603, 53.57393 ], [ -113.48615, 53.57464 ], [ -113.48662, 53.57546 ], [ -113.48616, 53.5764 ], [ -113.48603, 53.57696 ], [ -113.48609, 53.57771 ], [ -113.48645, 53.5785 ], [ -113.48625, 53.57886 ], [ -113.48607, 53.57941 ], [ -113.48603, 53.57979 ], [ -113.48609, 53.5803 ], [ -113.48595, 53.58076 ], [ -113.48592, 53.58132 ], [ -113.48598, 53.5817 ], [ -113.48619, 53.58225 ], [ -113.48655, 53.58277 ], [ -113.48698, 53.58319 ], [ -113.48652, 53.58359 ], [ -113.4861, 53.5841 ], [ -113.48583, 53.58464 ], [ -113.4857, 53.5852 ], [ -113.48572, 53.58576 ], [ -113.48588, 53.58632 ], [ -113.48619, 53.58685 ], [ -113.48663, 53.58734 ], [ -113.48637, 53.58785 ], [ -113.48624, 53.58847 ], [ -113.48589, 53.58912 ], [ -113.48575, 53.58968 ], [ -113.48581, 53.59043 ], [ -113.48621, 53.59127 ], [ -113.48617, 53.5915 ], [ -113.48584, 53.59222 ], [ -113.48576, 53.59278 ], [ -113.48582, 53.59334 ], [ -113.48605, 53.59391 ], [ -113.48582, 53.59445 ], [ -113.48574, 53.59501 ], [ -113.48581, 53.59558 ], [ -113.48596, 53.59599 ], [ -113.48572, 53.59656 ], [ -113.48564, 53.59717 ], [ -113.4851, 53.59748 ], [ -113.48452, 53.59792 ], [ -113.4842, 53.59825 ], [ -113.48383, 53.59876 ], [ -113.48355, 53.5995 ], [ -113.48355, 53.60025 ], [ -113.48371, 53.60081 ], [ -113.48402, 53.60134 ], [ -113.48464, 53.60199 ], [ -113.48526, 53.60242 ], [ -113.48597, 53.60279 ], [ -113.48678, 53.60309 ], [ -113.48765, 53.60331 ], [ -113.48861, 53.60345 ], [ -113.48808, 53.6037 ], [ -113.48742, 53.60411 ], [ -113.48688, 53.60457 ], [ -113.48658, 53.6049 ], [ -113.48626, 53.60543 ], [ -113.48612, 53.6058 ], [ -113.48604, 53.60636 ], [ -113.48611, 53.60692 ], [ -113.48633, 53.60747 ], [ -113.48668, 53.608 ], [ -113.48717, 53.60848 ], [ -113.48757, 53.60877 ], [ -113.48825, 53.60916 ], [ -113.48903, 53.60949 ], [ -113.48988, 53.60973 ], [ -113.49051, 53.60986 ], [ -113.48919, 53.61019 ], [ -113.48816, 53.61062 ], [ -113.48731, 53.61118 ], [ -113.48667, 53.61183 ], [ -113.48627, 53.61254 ], [ -113.48613, 53.61329 ], [ -113.48625, 53.61403 ], [ -113.48665, 53.61478 ], [ -113.48598, 53.61505 ], [ -113.48529, 53.61544 ], [ -113.48489, 53.61573 ], [ -113.48439, 53.61621 ], [ -113.48402, 53.61672 ], [ -113.48379, 53.61727 ], [ -113.48372, 53.61765 ], [ -113.48374, 53.61821 ], [ -113.48399, 53.61895 ], [ -113.48435, 53.61947 ], [ -113.48466, 53.6198 ], [ -113.48545, 53.62038 ], [ -113.48591, 53.62064 ], [ -113.48669, 53.62096 ], [ -113.48755, 53.62121 ], [ -113.48815, 53.62133 ], [ -113.48876, 53.62141 ], [ -113.48971, 53.62145 ], [ -113.49097, 53.62138 ], [ -113.49158, 53.62129 ], [ -113.49246, 53.62107 ], [ -113.49327, 53.62078 ], [ -113.494, 53.62042 ], [ -113.49462, 53.61999 ], [ -113.49526, 53.61935 ], [ -113.49566, 53.61863 ], [ -113.4958, 53.61789 ], [ -113.49567, 53.61714 ], [ -113.49527, 53.6164 ], [ -113.49642, 53.61587 ], [ -113.49704, 53.61545 ], [ -113.49739, 53.61513 ], [ -113.49768, 53.6148 ], [ -113.498, 53.61427 ], [ -113.49821, 53.61353 ], [ -113.49819, 53.61296 ], [ -113.49802, 53.61241 ], [ -113.49771, 53.61187 ], [ -113.49709, 53.61122 ], [ -113.49648, 53.61079 ], [ -113.4955, 53.61031 ], [ -113.49467, 53.61004 ], [ -113.49375, 53.60984 ], [ -113.49479, 53.6096 ], [ -113.49586, 53.6092 ], [ -113.49655, 53.60881 ], [ -113.4973, 53.60821 ], [ -113.49782, 53.60752 ], [ -113.49805, 53.60697 ], [ -113.49812, 53.60622 ], [ -113.49794, 53.60548 ], [ -113.49763, 53.60495 ], [ -113.49734, 53.60461 ], [ -113.497, 53.6043 ], [ -113.49639, 53.60386 ], [ -113.49592, 53.60361 ], [ -113.49515, 53.60329 ], [ -113.49429, 53.60304 ], [ -113.49357, 53.6029 ], [ -113.49455, 53.60248 ], [ -113.49521, 53.60208 ], [ -113.49575, 53.60161 ], [ -113.49616, 53.60111 ], [ -113.49636, 53.60075 ], [ -113.49654, 53.6002 ], [ -113.49658, 53.59982 ], [ -113.49652, 53.5993 ], [ -113.49704, 53.5988 ], [ -113.49741, 53.59828 ], [ -113.49764, 53.59774 ], [ -113.49772, 53.59723 ], [ -113.49804, 53.5967 ], [ -113.49822, 53.59615 ], [ -113.49825, 53.59558 ], [ -113.4981, 53.59493 ], [ -113.49819, 53.5945 ], [ -113.49817, 53.59394 ], [ -113.49807, 53.59357 ], [ -113.49782, 53.59305 ], [ -113.49816, 53.59231 ], [ -113.49823, 53.59156 ], [ -113.49812, 53.591 ], [ -113.49778, 53.59034 ], [ -113.49782, 53.59004 ], [ -113.49823, 53.58921 ], [ -113.49831, 53.58846 ], [ -113.49812, 53.58772 ], [ -113.49762, 53.58696 ], [ -113.49796, 53.58648 ], [ -113.49813, 53.58611 ], [ -113.49823, 53.58574 ], [ -113.49826, 53.58518 ], [ -113.4982, 53.5848 ], [ -113.49799, 53.58426 ], [ -113.49776, 53.5839 ], [ -113.49736, 53.58345 ], [ -113.49796, 53.58277 ], [ -113.49829, 53.58205 ], [ -113.49837, 53.5813 ], [ -113.49815, 53.5805 ], [ -113.4984, 53.57999 ], [ -113.49853, 53.57943 ], [ -113.49852, 53.57887 ], [ -113.49842, 53.5785 ], [ -113.49802, 53.57776 ], [ -113.49846, 53.57685 ], [ -113.49854, 53.5761 ], [ -113.49835, 53.57536 ], [ -113.49796, 53.57472 ], [ -113.49802, 53.57452 ], [ -113.49832, 53.57401 ], [ -113.49923, 53.57394 ], [ -113.49982, 53.57385 ], [ -113.50099, 53.574 ], [ -113.50194, 53.57402 ], [ -113.50288, 53.57395 ], [ -113.50379, 53.57379 ], [ -113.50465, 53.57355 ], [ -113.50518, 53.57335 ], [ -113.50591, 53.57299 ], [ -113.50633, 53.57271 ], [ -113.50703, 53.57208 ], [ -113.5074, 53.57156 ], [ -113.50767, 53.57083 ], [ -113.50768, 53.57014 ], [ -113.50825, 53.56955 ], [ -113.50888, 53.5685 ], [ -113.50963, 53.56812 ], [ -113.51025, 53.5677 ], [ -113.51136, 53.56667 ], [ -113.51162, 53.56633 ], [ -113.51188, 53.56582 ], [ -113.51271, 53.56537 ], [ -113.51346, 53.56477 ], [ -113.51388, 53.56426 ], [ -113.51441, 53.56324 ], [ -113.51462, 53.56246 ], [ -113.51586, 53.56258 ], [ -113.5168, 53.56257 ], [ -113.51804, 53.56241 ], [ -113.51898, 53.56218 ], [ -113.52055, 53.56251 ], [ -113.52149, 53.56258 ], [ -113.52212, 53.56259 ], [ -113.52337, 53.56247 ], [ -113.52458, 53.5622 ], [ -113.52615, 53.56251 ], [ -113.5274, 53.56259 ], [ -113.52866, 53.56252 ], [ -113.52974, 53.56232 ], [ -113.53002, 53.56301 ], [ -113.53002, 53.56364 ], [ -113.53028, 53.56437 ], [ -113.53078, 53.56506 ], [ -113.53159, 53.5658 ], [ -113.53243, 53.56637 ], [ -113.53344, 53.56681 ], [ -113.53459, 53.56712 ], [ -113.53551, 53.56726 ], [ -113.53646, 53.56731 ], [ -113.5374, 53.56726 ], [ -113.53833, 53.56714 ], [ -113.5394, 53.56686 ], [ -113.54041, 53.56712 ], [ -113.54164, 53.56728 ], [ -113.5429, 53.56729 ], [ -113.54388, 53.56718 ], [ -113.54616, 53.56728 ], [ -113.54679, 53.56725 ], [ -113.54771, 53.56712 ], [ -113.54902, 53.56676 ], [ -113.54995, 53.56687 ], [ -113.55105, 53.56688 ], [ -113.55321, 53.56736 ], [ -113.55446, 53.56748 ], [ -113.55509, 53.56748 ], [ -113.55603, 53.56741 ], [ -113.55664, 53.56732 ], [ -113.55752, 53.5671 ], [ -113.55833, 53.56681 ], [ -113.55906, 53.56645 ], [ -113.56043, 53.56545 ], [ -113.56075, 53.56512 ], [ -113.56112, 53.5646 ], [ -113.56141, 53.56407 ], [ -113.56159, 53.56352 ], [ -113.56162, 53.56296 ], [ -113.56153, 53.5625 ], [ -113.56177, 53.56169 ], [ -113.56171, 53.56094 ], [ -113.5614, 53.56011 ], [ -113.56083, 53.55935 ], [ -113.56091, 53.55857 ], [ -113.56072, 53.55783 ], [ -113.56041, 53.55729 ], [ -113.55979, 53.55664 ], [ -113.55895, 53.55608 ], [ -113.55793, 53.55563 ], [ -113.55679, 53.55532 ], [ -113.55587, 53.55519 ], [ -113.55461, 53.55515 ], [ -113.55367, 53.55522 ], [ -113.55276, 53.55537 ], [ -113.55177, 53.55564 ], [ -113.5505, 53.55533 ], [ -113.54926, 53.55521 ], [ -113.54831, 53.55522 ], [ -113.54732, 53.55533 ], [ -113.54594, 53.55523 ], [ -113.54501, 53.55526 ], [ -113.54378, 53.55522 ], [ -113.54274, 53.55531 ], [ -113.54207, 53.55524 ], [ -113.54196, 53.55465 ], [ -113.54338, 53.55451 ], [ -113.54432, 53.55462 ], [ -113.54559, 53.55463 ], [ -113.54652, 53.55453 ], [ -113.54735, 53.55436 ], [ -113.54812, 53.55442 ], [ -113.54904, 53.5544 ], [ -113.54998, 53.55461 ], [ -113.55122, 53.55473 ], [ -113.55185, 53.55473 ], [ -113.55279, 53.55466 ], [ -113.55414, 53.55441 ], [ -113.55545, 53.55463 ], [ -113.55671, 53.55468 ], [ -113.55796, 53.55456 ], [ -113.5591, 53.55431 ], [ -113.56077, 53.55456 ], [ -113.56203, 53.55461 ], [ -113.56328, 53.55449 ], [ -113.5646, 53.55418 ], [ -113.56539, 53.55444 ], [ -113.56597, 53.55457 ], [ -113.56721, 53.55474 ], [ -113.56815, 53.55475 ], [ -113.56895, 53.5547 ], [ -113.57003, 53.55473 ], [ -113.57136, 53.5546 ], [ -113.57217, 53.55469 ], [ -113.57311, 53.55471 ], [ -113.57405, 53.55464 ], [ -113.57526, 53.55441 ], [ -113.57635, 53.55404 ], [ -113.57713, 53.55364 ], [ -113.57817, 53.5537 ], [ -113.57911, 53.55366 ], [ -113.58004, 53.55353 ], [ -113.58091, 53.55332 ], [ -113.58198, 53.55291 ], [ -113.58245, 53.55266 ], [ -113.58307, 53.55223 ], [ -113.58357, 53.55175 ], [ -113.58383, 53.55141 ], [ -113.58403, 53.55105 ], [ -113.5842, 53.5505 ], [ -113.58423, 53.54994 ], [ -113.58412, 53.54938 ], [ -113.58385, 53.54883 ], [ -113.58337, 53.54824 ], [ -113.58376, 53.54762 ], [ -113.58414, 53.5466 ], [ -113.58422, 53.54585 ], [ -113.5841, 53.54529 ], [ -113.58371, 53.54458 ], [ -113.58327, 53.54408 ], [ -113.5827, 53.54363 ], [ -113.58189, 53.54318 ], [ -113.58265, 53.54276 ], [ -113.5834, 53.54216 ], [ -113.58392, 53.54147 ], [ -113.58415, 53.54092 ], [ -113.58422, 53.54017 ], [ -113.58416, 53.5398 ], [ -113.58397, 53.5393 ], [ -113.58419, 53.53852 ], [ -113.58414, 53.53726 ], [ -113.58402, 53.5367 ], [ -113.58365, 53.53601 ], [ -113.58391, 53.53518 ], [ -113.58459, 53.53519 ], [ -113.58553, 53.53512 ], [ -113.58687, 53.53485 ], [ -113.5883, 53.53505 ], [ -113.58924, 53.53507 ], [ -113.58989, 53.53503 ], [ -113.59063, 53.53513 ], [ -113.59157, 53.53518 ], [ -113.5922, 53.53516 ], [ -113.59312, 53.53507 ], [ -113.59421, 53.53506 ], [ -113.59517, 53.53496 ], [ -113.5968, 53.53516 ], [ -113.59774, 53.53521 ], [ -113.59869, 53.53517 ], [ -113.59953, 53.53506 ], [ -113.60056, 53.53511 ], [ -113.60176, 53.53505 ], [ -113.60273, 53.53523 ], [ -113.60399, 53.53531 ], [ -113.60493, 53.53527 ], [ -113.60595, 53.53512 ], [ -113.60707, 53.53529 ], [ -113.60801, 53.53534 ], [ -113.60895, 53.5353 ], [ -113.60961, 53.53522 ], [ -113.61058, 53.53533 ], [ -113.61152, 53.53535 ], [ -113.61246, 53.53528 ], [ -113.61322, 53.53515 ], [ -113.61447, 53.53515 ], [ -113.6151, 53.5351 ], [ -113.61601, 53.53494 ], [ -113.61686, 53.5347 ], [ -113.61765, 53.53438 ], [ -113.61812, 53.53413 ], [ -113.61874, 53.53371 ], [ -113.61924, 53.53323 ], [ -113.6196, 53.53271 ], [ -113.61987, 53.53197 ], [ -113.61988, 53.53122 ], [ -113.61962, 53.53049 ], [ -113.61912, 53.5298 ], [ -113.61838, 53.52919 ], [ -113.61745, 53.52868 ], [ -113.61692, 53.52847 ], [ -113.61607, 53.52823 ], [ -113.61485, 53.52803 ], [ -113.61391, 53.52798 ], [ -113.61328, 53.528 ], [ -113.61189, 53.52818 ], [ -113.611, 53.52804 ], [ -113.61006, 53.52797 ], [ -113.60911, 53.52798 ], [ -113.60822, 53.52807 ], [ -113.60722, 53.52796 ], [ -113.60627, 53.52794 ], [ -113.60533, 53.52801 ], [ -113.60456, 53.52814 ], [ -113.60374, 53.52812 ], [ -113.60286, 53.52819 ], [ -113.60188, 53.52801 ], [ -113.60095, 53.52793 ], [ -113.6, 53.52794 ], [ -113.59884, 53.52808 ], [ -113.59716, 53.52791 ], [ -113.59622, 53.52792 ], [ -113.59526, 53.52803 ], [ -113.59428, 53.52791 ], [ -113.59333, 53.52789 ], [ -113.5921, 53.52801 ], [ -113.59068, 53.52804 ], [ -113.58994, 53.52793 ], [ -113.589, 53.52788 ], [ -113.58774, 53.52796 ], [ -113.58676, 53.52813 ], [ -113.58583, 53.52796 ], [ -113.58489, 53.52789 ], [ -113.58394, 53.5279 ], [ -113.58287, 53.52802 ], [ -113.58216, 53.52793 ], [ -113.58121, 53.52788 ], [ -113.58027, 53.52792 ], [ -113.57949, 53.52802 ], [ -113.57823, 53.52802 ], [ -113.5773, 53.52812 ], [ -113.5767, 53.52823 ], [ -113.57584, 53.52847 ], [ -113.57462, 53.5289 ], [ -113.57387, 53.52924 ], [ -113.57321, 53.52964 ], [ -113.57267, 53.53011 ], [ -113.57238, 53.53044 ], [ -113.57206, 53.53097 ], [ -113.57188, 53.53153 ], [ -113.57185, 53.53209 ], [ -113.57197, 53.53265 ], [ -113.57228, 53.53326 ], [ -113.57189, 53.53457 ], [ -113.57186, 53.53513 ], [ -113.57198, 53.53569 ], [ -113.57234, 53.53638 ], [ -113.572, 53.53721 ], [ -113.57187, 53.53777 ], [ -113.57189, 53.53833 ], [ -113.57209, 53.53896 ], [ -113.57191, 53.53943 ], [ -113.57183, 53.54003 ], [ -113.57162, 53.53952 ], [ -113.5714, 53.53916 ], [ -113.57095, 53.53867 ], [ -113.57043, 53.53825 ], [ -113.57096, 53.53769 ], [ -113.5714, 53.53705 ], [ -113.57162, 53.5365 ], [ -113.57169, 53.53612 ], [ -113.57163, 53.53537 ], [ -113.57136, 53.53473 ], [ -113.57171, 53.53355 ], [ -113.57169, 53.53298 ], [ -113.57148, 53.53234 ], [ -113.57148, 53.53209 ], [ -113.57168, 53.53151 ], [ -113.57171, 53.53094 ], [ -113.57152, 53.5302 ], [ -113.57133, 53.52984 ], [ -113.57096, 53.52938 ], [ -113.57153, 53.52864 ], [ -113.5718, 53.52791 ], [ -113.57184, 53.52753 ], [ -113.57177, 53.52697 ], [ -113.57141, 53.52618 ], [ -113.57179, 53.52517 ], [ -113.57187, 53.52461 ], [ -113.57175, 53.52386 ], [ -113.57159, 53.5235 ], [ -113.57126, 53.52301 ], [ -113.57224, 53.52294 ], [ -113.57304, 53.5228 ], [ -113.57429, 53.52289 ], [ -113.57492, 53.52287 ], [ -113.57576, 53.52278 ], [ -113.5767, 53.52286 ], [ -113.57783, 53.52283 ], [ -113.5794, 53.52306 ], [ -113.58034, 53.52311 ], [ -113.58154, 53.52304 ], [ -113.58217, 53.52311 ], [ -113.58312, 53.52312 ], [ -113.58499, 53.52296 ], [ -113.5864, 53.52311 ], [ -113.58703, 53.52312 ], [ -113.58791, 53.52305 ], [ -113.58882, 53.52313 ], [ -113.59009, 53.52309 ], [ -113.59138, 53.52314 ], [ -113.59232, 53.52307 ], [ -113.59327, 53.5229 ], [ -113.59435, 53.52311 ], [ -113.59529, 53.52318 ], [ -113.59657, 53.52315 ], [ -113.59754, 53.52317 ], [ -113.5989, 53.52304 ], [ -113.59987, 53.52315 ], [ -113.60082, 53.52317 ], [ -113.60145, 53.52313 ], [ -113.60232, 53.52301 ], [ -113.60315, 53.52313 ], [ -113.60409, 53.52318 ], [ -113.60535, 53.5231 ], [ -113.60675, 53.52287 ], [ -113.60792, 53.52314 ], [ -113.60885, 53.52325 ], [ -113.61011, 53.52325 ], [ -113.61141, 53.52309 ], [ -113.61249, 53.52326 ], [ -113.61343, 53.52331 ], [ -113.61469, 53.52323 ], [ -113.61579, 53.52303 ], [ -113.61531, 53.52349 ], [ -113.61494, 53.52401 ], [ -113.61471, 53.52456 ], [ -113.61465, 53.52493 ], [ -113.61466, 53.52549 ], [ -113.61476, 53.52587 ], [ -113.61492, 53.52623 ], [ -113.61528, 53.52675 ], [ -113.61577, 53.52724 ], [ -113.61638, 53.52767 ], [ -113.61685, 53.52792 ], [ -113.61762, 53.52824 ], [ -113.61848, 53.52849 ], [ -113.61907, 53.5286 ], [ -113.61969, 53.52869 ], [ -113.62063, 53.52873 ], [ -113.62158, 53.52869 ], [ -113.62261, 53.52854 ], [ -113.62381, 53.5285 ], [ -113.62473, 53.52838 ], [ -113.62561, 53.52816 ], [ -113.62616, 53.52798 ], [ -113.62691, 53.52763 ], [ -113.62741, 53.52734 ], [ -113.62848, 53.52754 ], [ -113.62974, 53.52763 ], [ -113.63099, 53.52755 ], [ -113.63219, 53.52732 ], [ -113.63329, 53.52695 ], [ -113.63423, 53.52645 ], [ -113.63498, 53.52584 ], [ -113.63567, 53.52506 ], [ -113.63616, 53.52509 ], [ -113.63715, 53.52524 ], [ -113.6384, 53.52528 ], [ -113.63965, 53.52517 ], [ -113.64154, 53.52484 ], [ -113.64285, 53.52509 ], [ -113.64411, 53.52517 ], [ -113.64536, 53.5251 ], [ -113.64642, 53.5249 ], [ -113.64727, 53.52489 ], [ -113.64813, 53.5248 ], [ -113.64922, 53.52497 ], [ -113.65016, 53.52501 ], [ -113.6511, 53.52497 ], [ -113.65203, 53.52484 ], [ -113.6529, 53.52463 ], [ -113.65345, 53.52444 ], [ -113.65396, 53.52422 ], [ -113.65465, 53.52384 ], [ -113.65505, 53.52355 ], [ -113.65555, 53.52307 ], [ -113.65592, 53.52255 ], [ -113.65614, 53.522 ], [ -113.65621, 53.52125 ], [ -113.65602, 53.52051 ], [ -113.65571, 53.51997 ], [ -113.65509, 53.51932 ], [ -113.65425, 53.51876 ], [ -113.65323, 53.51832 ], [ -113.65208, 53.51801 ], [ -113.65116, 53.51787 ], [ -113.6499, 53.51783 ], [ -113.64872, 53.51793 ], [ -113.64764, 53.51776 ], [ -113.6467, 53.51772 ], [ -113.64575, 53.51776 ], [ -113.64473, 53.51791 ], [ -113.64351, 53.51779 ], [ -113.64256, 53.5178 ], [ -113.64163, 53.5179 ], [ -113.64101, 53.51802 ], [ -113.64037, 53.51794 ], [ -113.63943, 53.51789 ], [ -113.63879, 53.51791 ], [ -113.63791, 53.518 ], [ -113.63692, 53.51792 ], [ -113.63598, 53.51793 ], [ -113.63535, 53.51799 ], [ -113.63444, 53.51814 ], [ -113.63359, 53.51838 ], [ -113.63281, 53.5187 ], [ -113.6317, 53.51844 ], [ -113.63077, 53.51834 ], [ -113.62983, 53.51832 ], [ -113.62889, 53.51839 ], [ -113.62798, 53.51855 ], [ -113.62712, 53.51879 ], [ -113.62634, 53.51911 ], [ -113.62565, 53.51949 ], [ -113.62507, 53.51994 ], [ -113.62462, 53.52043 ], [ -113.6243, 53.52096 ], [ -113.62414, 53.52143 ], [ -113.62325, 53.52136 ], [ -113.6223, 53.52137 ], [ -113.62096, 53.52155 ], [ -113.62007, 53.52156 ], [ -113.61944, 53.52162 ], [ -113.61835, 53.52182 ], [ -113.61883, 53.52136 ], [ -113.61919, 53.52084 ], [ -113.61942, 53.52029 ], [ -113.61949, 53.51992 ], [ -113.61947, 53.51935 ], [ -113.61937, 53.51898 ], [ -113.61921, 53.51862 ], [ -113.61885, 53.5181 ], [ -113.61836, 53.51761 ], [ -113.61797, 53.51732 ], [ -113.61729, 53.51693 ], [ -113.61678, 53.51671 ], [ -113.61566, 53.51636 ], [ -113.61436, 53.51616 ], [ -113.61339, 53.51594 ], [ -113.61215, 53.51582 ], [ -113.6112, 53.51583 ], [ -113.61027, 53.51593 ], [ -113.60952, 53.51608 ], [ -113.6086, 53.51612 ], [ -113.60761, 53.51627 ], [ -113.60644, 53.51599 ], [ -113.6052, 53.51587 ], [ -113.60394, 53.51591 ], [ -113.60234, 53.51615 ], [ -113.60152, 53.51603 ], [ -113.6006, 53.51598 ], [ -113.59918, 53.51583 ], [ -113.59823, 53.51584 ], [ -113.59734, 53.51594 ], [ -113.59639, 53.51583 ], [ -113.59544, 53.51581 ], [ -113.59419, 53.51592 ], [ -113.59311, 53.51616 ], [ -113.59091, 53.51583 ], [ -113.58997, 53.51575 ], [ -113.58871, 53.51578 ], [ -113.58755, 53.51596 ], [ -113.58627, 53.51594 ], [ -113.58487, 53.51579 ], [ -113.58393, 53.5158 ], [ -113.58359, 53.51518 ], [ -113.58314, 53.51468 ], [ -113.58257, 53.51423 ], [ -113.58189, 53.51384 ], [ -113.58111, 53.51352 ], [ -113.58026, 53.51327 ], [ -113.57935, 53.51311 ], [ -113.57841, 53.51303 ], [ -113.57778, 53.51303 ], [ -113.57684, 53.5131 ], [ -113.57594, 53.51326 ], [ -113.57508, 53.5135 ], [ -113.5743, 53.51382 ], [ -113.57382, 53.51407 ], [ -113.57321, 53.51449 ], [ -113.57286, 53.51481 ] ], [ [ -113.51431, 53.55523 ], [ -113.51429, 53.55456 ], [ -113.51458, 53.55393 ], [ -113.51466, 53.55336 ], [ -113.51459, 53.5528 ], [ -113.51431, 53.55215 ], [ -113.51454, 53.5516 ], [ -113.51463, 53.55104 ], [ -113.51456, 53.55047 ], [ -113.51434, 53.54992 ], [ -113.51524, 53.5499 ], [ -113.51547, 53.55052 ], [ -113.51597, 53.55119 ], [ -113.51601, 53.55202 ], [ -113.51614, 53.55239 ], [ -113.51645, 53.55292 ], [ -113.5169, 53.55342 ], [ -113.51747, 53.55387 ], [ -113.51815, 53.55426 ], [ -113.51893, 53.55458 ], [ -113.51978, 53.55483 ], [ -113.52038, 53.55495 ], [ -113.521, 53.55503 ], [ -113.52194, 53.55507 ], [ -113.5232, 53.555 ], [ -113.5243, 53.5548 ], [ -113.5256, 53.55502 ], [ -113.52654, 53.55507 ], [ -113.52717, 53.55505 ], [ -113.52841, 53.5549 ], [ -113.52942, 53.55464 ], [ -113.52977, 53.55464 ], [ -113.52996, 53.55523 ], [ -113.52988, 53.55544 ], [ -113.52933, 53.55558 ], [ -113.52794, 53.5553 ], [ -113.52669, 53.55518 ], [ -113.52606, 53.55517 ], [ -113.52512, 53.55524 ], [ -113.52421, 53.5554 ], [ -113.52361, 53.55556 ], [ -113.52244, 53.5553 ], [ -113.5212, 53.55517 ], [ -113.52057, 53.55517 ], [ -113.51963, 53.55524 ], [ -113.51872, 53.5554 ], [ -113.5181, 53.55556 ], [ -113.51729, 53.55536 ], [ -113.51637, 53.55522 ], [ -113.51543, 53.55517 ], [ -113.51431, 53.55523 ] ], [ [ -113.49205, 53.53323 ], [ -113.4916, 53.53359 ], [ -113.49173, 53.53303 ], [ -113.49171, 53.5325 ], [ -113.49205, 53.53323 ] ], [ [ -113.49171, 53.53132 ], [ -113.49165, 53.53222 ], [ -113.4915, 53.53184 ], [ -113.49175, 53.53101 ], [ -113.4917, 53.53026 ], [ -113.49138, 53.52953 ], [ -113.49091, 53.52896 ], [ -113.4913, 53.52858 ], [ -113.49181, 53.52789 ], [ -113.49201, 53.52754 ], [ -113.49219, 53.52698 ], [ -113.4922, 53.52623 ], [ -113.49191, 53.52543 ], [ -113.49214, 53.52492 ], [ -113.49227, 53.52436 ], [ -113.49225, 53.52379 ], [ -113.49211, 53.52329 ], [ -113.49227, 53.52249 ], [ -113.49215, 53.52175 ], [ -113.49304, 53.52168 ], [ -113.49388, 53.52175 ], [ -113.49483, 53.52174 ], [ -113.4962, 53.52156 ], [ -113.49691, 53.52168 ], [ -113.49785, 53.52176 ], [ -113.4988, 53.52175 ], [ -113.49954, 53.52168 ], [ -113.50024, 53.52175 ], [ -113.50119, 53.52177 ], [ -113.50241, 53.52166 ], [ -113.5036, 53.52178 ], [ -113.50455, 53.52176 ], [ -113.50533, 53.52169 ], [ -113.50595, 53.52175 ], [ -113.50583, 53.52228 ], [ -113.50584, 53.52284 ], [ -113.50637, 53.52428 ], [ -113.50562, 53.52392 ], [ -113.5045, 53.52358 ], [ -113.50328, 53.52338 ], [ -113.50202, 53.52333 ], [ -113.50078, 53.52345 ], [ -113.4996, 53.52371 ], [ -113.49853, 53.52412 ], [ -113.49764, 53.52464 ], [ -113.4971, 53.52511 ], [ -113.4968, 53.52544 ], [ -113.49648, 53.52597 ], [ -113.49635, 53.52634 ], [ -113.49628, 53.52671 ], [ -113.49629, 53.52728 ], [ -113.49646, 53.52783 ], [ -113.49676, 53.52835 ], [ -113.49584, 53.52848 ], [ -113.49468, 53.52878 ], [ -113.4939, 53.5291 ], [ -113.493, 53.52962 ], [ -113.4923, 53.53025 ], [ -113.49193, 53.53077 ], [ -113.49171, 53.53132 ] ], [ [ -113.54338, 53.54733 ], [ -113.54194, 53.54729 ], [ -113.54209, 53.5467 ], [ -113.54333, 53.54667 ], [ -113.54431, 53.54653 ], [ -113.54524, 53.54666 ], [ -113.54619, 53.54671 ], [ -113.54682, 53.54669 ], [ -113.5477, 53.5466 ], [ -113.54857, 53.54669 ], [ -113.54951, 53.54671 ], [ -113.55045, 53.54664 ], [ -113.55125, 53.54651 ], [ -113.5523, 53.54666 ], [ -113.55293, 53.5467 ], [ -113.55387, 53.54669 ], [ -113.5551, 53.54655 ], [ -113.55651, 53.5467 ], [ -113.55746, 53.54669 ], [ -113.55853, 53.54657 ], [ -113.55951, 53.54668 ], [ -113.56045, 53.5467 ], [ -113.56139, 53.54663 ], [ -113.56259, 53.5464 ], [ -113.56343, 53.54614 ], [ -113.56421, 53.54578 ], [ -113.56487, 53.54585 ], [ -113.56582, 53.54587 ], [ -113.56676, 53.5458 ], [ -113.56767, 53.54564 ], [ -113.56879, 53.5453 ], [ -113.56986, 53.54484 ], [ -113.57071, 53.54429 ], [ -113.57121, 53.54381 ], [ -113.57167, 53.54311 ], [ -113.57185, 53.54255 ], [ -113.57188, 53.54199 ], [ -113.57175, 53.5414 ], [ -113.5719, 53.54059 ], [ -113.57221, 53.54128 ], [ -113.57262, 53.54179 ], [ -113.57348, 53.54259 ], [ -113.57449, 53.54318 ], [ -113.57395, 53.54346 ], [ -113.57333, 53.54389 ], [ -113.57283, 53.54437 ], [ -113.57246, 53.54489 ], [ -113.57195, 53.54627 ], [ -113.57192, 53.54684 ], [ -113.57205, 53.54745 ], [ -113.57096, 53.54762 ], [ -113.56924, 53.54742 ], [ -113.56798, 53.54741 ], [ -113.56674, 53.54756 ], [ -113.56502, 53.548 ], [ -113.56424, 53.54774 ], [ -113.56365, 53.54761 ], [ -113.5621, 53.54735 ], [ -113.56116, 53.54727 ], [ -113.56053, 53.54727 ], [ -113.55959, 53.54734 ], [ -113.55838, 53.54757 ], [ -113.5571, 53.54731 ], [ -113.55585, 53.54723 ], [ -113.55477, 53.54728 ], [ -113.55409, 53.54724 ], [ -113.55315, 53.54725 ], [ -113.55221, 53.54735 ], [ -113.55123, 53.54756 ], [ -113.55101, 53.54757 ], [ -113.55007, 53.54736 ], [ -113.54883, 53.54724 ], [ -113.54788, 53.54725 ], [ -113.54695, 53.54735 ], [ -113.5455, 53.54728 ], [ -113.54409, 53.54742 ], [ -113.54338, 53.54733 ] ], [ [ -113.5196, 53.51288 ], [ -113.51977, 53.51374 ], [ -113.51962, 53.51441 ], [ -113.51894, 53.51445 ], [ -113.51809, 53.51456 ], [ -113.51821, 53.51405 ], [ -113.51821, 53.51367 ], [ -113.51802, 53.51292 ], [ -113.51819, 53.51247 ], [ -113.51827, 53.51191 ], [ -113.5182, 53.51135 ], [ -113.51805, 53.51093 ], [ -113.51819, 53.51046 ], [ -113.51822, 53.5099 ], [ -113.518, 53.50908 ], [ -113.51821, 53.50834 ], [ -113.51836, 53.50885 ], [ -113.51867, 53.50938 ], [ -113.51912, 53.50988 ], [ -113.51965, 53.5103 ], [ -113.51971, 53.51105 ], [ -113.51997, 53.51168 ], [ -113.51964, 53.51251 ], [ -113.5196, 53.51288 ] ], [ [ -113.51824, 53.50658 ], [ -113.51807, 53.50732 ], [ -113.51801, 53.50717 ], [ -113.51819, 53.50654 ], [ -113.51824, 53.50658 ] ], [ [ -113.52581, 53.54462 ], [ -113.52748, 53.54443 ], [ -113.52783, 53.54485 ], [ -113.52836, 53.54532 ], [ -113.52901, 53.54573 ], [ -113.52979, 53.54609 ], [ -113.52974, 53.54674 ], [ -113.52992, 53.54746 ], [ -113.52882, 53.54736 ], [ -113.52743, 53.54741 ], [ -113.52708, 53.54656 ], [ -113.52668, 53.54604 ], [ -113.52632, 53.54572 ], [ -113.52617, 53.54521 ], [ -113.52581, 53.54462 ] ], [ [ -113.50603, 53.53698 ], [ -113.50701, 53.53723 ], [ -113.50626, 53.53727 ], [ -113.50558, 53.53736 ], [ -113.5052, 53.53731 ], [ -113.50603, 53.53698 ] ], [ [ -113.47916, 53.5571 ], [ -113.47931, 53.55739 ], [ -113.47916, 53.55743 ], [ -113.47782, 53.55748 ], [ -113.4769, 53.55738 ], [ -113.47662, 53.55667 ], [ -113.4769, 53.55619 ], [ -113.4771, 53.55551 ], [ -113.47776, 53.55494 ], [ -113.47821, 53.55538 ], [ -113.47851, 53.55591 ], [ -113.47898, 53.55642 ], [ -113.47916, 53.5571 ] ], [ [ -113.50035, 53.56358 ], [ -113.49984, 53.56415 ], [ -113.49981, 53.56367 ], [ -113.49971, 53.56327 ], [ -113.49986, 53.56248 ], [ -113.50062, 53.56234 ], [ -113.50195, 53.56235 ], [ -113.50114, 53.56289 ], [ -113.50035, 53.56358 ] ], [ [ -113.50053, 53.55512 ], [ -113.4996, 53.55525 ], [ -113.49961, 53.55507 ], [ -113.49981, 53.55457 ], [ -113.49989, 53.55401 ], [ -113.49977, 53.55326 ], [ -113.49949, 53.55269 ], [ -113.49962, 53.55198 ], [ -113.49985, 53.55133 ], [ -113.49988, 53.55095 ], [ -113.49982, 53.55039 ], [ -113.49963, 53.54989 ], [ -113.50052, 53.54979 ], [ -113.50152, 53.5499 ], [ -113.50263, 53.54992 ], [ -113.50276, 53.55009 ], [ -113.50238, 53.55108 ], [ -113.50225, 53.55164 ], [ -113.50231, 53.55239 ], [ -113.5026, 53.55308 ], [ -113.50261, 53.55364 ], [ -113.50233, 53.55428 ], [ -113.50226, 53.55511 ], [ -113.50148, 53.55508 ], [ -113.50053, 53.55512 ] ] ], [ [ [ -113.66161, 53.52138 ], [ -113.66109, 53.52207 ], [ -113.66087, 53.52262 ], [ -113.6608, 53.52337 ], [ -113.66099, 53.52411 ], [ -113.6613, 53.52464 ], [ -113.66192, 53.52529 ], [ -113.66276, 53.52586 ], [ -113.66378, 53.5263 ], [ -113.66493, 53.52661 ], [ -113.66585, 53.52674 ], [ -113.66711, 53.52679 ], [ -113.66835, 53.52667 ], [ -113.66953, 53.52641 ], [ -113.6706, 53.526 ], [ -113.67128, 53.52561 ], [ -113.67203, 53.52501 ], [ -113.67255, 53.52432 ], [ -113.67277, 53.52377 ], [ -113.67285, 53.52302 ], [ -113.67265, 53.52228 ], [ -113.67234, 53.52175 ], [ -113.67172, 53.5211 ], [ -113.67088, 53.52054 ], [ -113.66986, 53.52009 ], [ -113.66871, 53.51978 ], [ -113.66779, 53.51965 ], [ -113.66653, 53.51961 ], [ -113.66529, 53.51972 ], [ -113.66411, 53.51999 ], [ -113.66305, 53.52039 ], [ -113.66236, 53.52078 ], [ -113.66161, 53.52138 ] ] ], [ [ [ -113.56194, 53.49946 ], [ -113.561, 53.4995 ], [ -113.56038, 53.49958 ], [ -113.55914, 53.49986 ], [ -113.55843, 53.49974 ], [ -113.55749, 53.49966 ], [ -113.55655, 53.49967 ], [ -113.55562, 53.49977 ], [ -113.55444, 53.50004 ], [ -113.55363, 53.50033 ], [ -113.5529, 53.50069 ], [ -113.55228, 53.50112 ], [ -113.55165, 53.50177 ], [ -113.55133, 53.5023 ], [ -113.55112, 53.50304 ], [ -113.55118, 53.50379 ], [ -113.55139, 53.50434 ], [ -113.5519, 53.50503 ], [ -113.55263, 53.50564 ], [ -113.55357, 53.50615 ], [ -113.55409, 53.50635 ], [ -113.55494, 53.5066 ], [ -113.55616, 53.5068 ], [ -113.5571, 53.50685 ], [ -113.55805, 53.5068 ], [ -113.55897, 53.50668 ], [ -113.55981, 53.50647 ], [ -113.56062, 53.50674 ], [ -113.56151, 53.50693 ], [ -113.56244, 53.50704 ], [ -113.56339, 53.50705 ], [ -113.56401, 53.50702 ], [ -113.56494, 53.50689 ], [ -113.56609, 53.50659 ], [ -113.56711, 53.50615 ], [ -113.56796, 53.50559 ], [ -113.56846, 53.50512 ], [ -113.56883, 53.5046 ], [ -113.56906, 53.50405 ], [ -113.56913, 53.50367 ], [ -113.56911, 53.50311 ], [ -113.56894, 53.50255 ], [ -113.56863, 53.50202 ], [ -113.56835, 53.50169 ], [ -113.56801, 53.50137 ], [ -113.5674, 53.50094 ], [ -113.56693, 53.50068 ], [ -113.56615, 53.50036 ], [ -113.56467, 53.49986 ], [ -113.5638, 53.49964 ], [ -113.56288, 53.49951 ], [ -113.56194, 53.49946 ] ] ] ] } }
]
}
