{
"type": "FeatureCollection",
"name": "fbus-lines",
"features": [
{ "type": "Feature", "properties": { }, "geometry": { "type": "MultiLineString", "coordinates": [ [ [ -113.63058, 53.5213 ], [ -113.63037, 53.52136 ], [ -113.62987, 53.52467 ] ], [ [ -113.63045, 53.52197 ], [ -113.63058, 53.5213 ] ], [ [ -113.63045, 53.52197 ], [ -113.63074, 53.52159 ], [ -113.63122, 53.52143 ], [ -113.63767, 53.52167 ], [ -113.65158, 53.52136 ], [ -113.65394, 53.52164 ] ], [ [ -113.66306, 53.52337 ], [ -113.66816, 53.52371 ], [ -113.66831, 53.52325 ], [ -113.66788, 53.52311 ], [ -113.66785, 53.52336 ], [ -113.66553, 53.52321 ], [ -113.66524, 53.52336 ], [ -113.66305, 53.52327 ] ], [ [ -113.65396, 53.5215 ], [ -113.65162, 53.52125 ], [ -113.63716, 53.52156 ], [ -113.63058, 53.5213 ] ], [ [ -113.63058, 53.5213 ], [ -113.63059, 53.52122 ], [ -113.62687, 53.52077 ] ], [ [ -113.61722, 53.51954 ], [ -113.61077, 53.51956 ] ], [ [ -113.63019, 53.52335 ], [ -113.63045, 53.52197 ] ], [ [ -113.63016, 53.52355 ], [ -113.63019, 53.52335 ] ], [ [ -113.63016, 53.52355 ], [ -113.63019, 53.52335 ] ], [ [ -113.62987, 53.52467 ], [ -113.63008, 53.52467 ], [ -113.63016, 53.52355 ] ], [ [ -113.62353, 53.52498 ], [ -113.62434, 53.52503 ], [ -113.6275, 53.52471 ], [ -113.62987, 53.52467 ] ], [ [ -113.62353, 53.52498 ], [ -113.62341, 53.52533 ], [ -113.62267, 53.52522 ], [ -113.62033, 53.52521 ], [ -113.62029, 53.52486 ] ], [ [ -113.62298, 53.52489 ], [ -113.62353, 53.52498 ] ], [ [ -113.62253, 53.52486 ], [ -113.62298, 53.52489 ] ], [ [ -113.62253, 53.52486 ], [ -113.62298, 53.52489 ] ], [ [ -113.62029, 53.52486 ], [ -113.62253, 53.52486 ] ], [ [ -113.61693, 53.52485 ], [ -113.62029, 53.52486 ] ], [ [ -113.60725, 53.53162 ], [ -113.61544, 53.53174 ], [ -113.61542, 53.52953 ] ], [ [ -113.61516, 53.52947 ], [ -113.61515, 53.53098 ], [ -113.61468, 53.53157 ], [ -113.60725, 53.53162 ] ], [ [ -113.61077, 53.51956 ], [ -113.61445, 53.51963 ], [ -113.61502, 53.51976 ], [ -113.61524, 53.52014 ], [ -113.61523, 53.5217 ] ], [ [ -113.61077, 53.51956 ], [ -113.60972, 53.51955 ] ], [ [ -113.60948, 53.51955 ], [ -113.60972, 53.51955 ] ], [ [ -113.60972, 53.51955 ], [ -113.60948, 53.51955 ] ], [ [ -113.60948, 53.51955 ], [ -113.60545, 53.51952 ] ], [ [ -113.60725, 53.53162 ], [ -113.60444, 53.53162 ] ], [ [ -113.60444, 53.53162 ], [ -113.60725, 53.53162 ] ], [ [ -113.60545, 53.51952 ], [ -113.60468, 53.51952 ] ], [ [ -113.60468, 53.51952 ], [ -113.60545, 53.51952 ] ], [ [ -113.60333, 53.51952 ], [ -113.60468, 53.51952 ] ], [ [ -113.60468, 53.51952 ], [ -113.60333, 53.51952 ] ], [ [ -113.60444, 53.53162 ], [ -113.60413, 53.53162 ] ], [ [ -113.60366, 53.53162 ], [ -113.60413, 53.53162 ] ], [ [ -113.60413, 53.53162 ], [ -113.60366, 53.53162 ] ], [ [ -113.60366, 53.53162 ], [ -113.60215, 53.5316 ] ], [ [ -113.60333, 53.51952 ], [ -113.60057, 53.51952 ] ], [ [ -113.60215, 53.5316 ], [ -113.59732, 53.53157 ] ], [ [ -113.59732, 53.53157 ], [ -113.60215, 53.5316 ] ], [ [ -113.59992, 53.51952 ], [ -113.60057, 53.51952 ] ], [ [ -113.60057, 53.51952 ], [ -113.59992, 53.51952 ] ], [ [ -113.59992, 53.51952 ], [ -113.59962, 53.51952 ] ], [ [ -113.57787, 53.51942 ], [ -113.57941, 53.5195 ], [ -113.59962, 53.51952 ] ], [ [ -113.59962, 53.51952 ], [ -113.57806, 53.51937 ] ], [ [ -113.59732, 53.53157 ], [ -113.59207, 53.53156 ] ], [ [ -113.59207, 53.53156 ], [ -113.59732, 53.53157 ] ], [ [ -113.5912, 53.53154 ], [ -113.59207, 53.53156 ] ], [ [ -113.59207, 53.53156 ], [ -113.5912, 53.53154 ] ], [ [ -113.5912, 53.53154 ], [ -113.58944, 53.53152 ] ], [ [ -113.58858, 53.53153 ], [ -113.58944, 53.53152 ] ], [ [ -113.58944, 53.53152 ], [ -113.58858, 53.53153 ] ], [ [ -113.58858, 53.53153 ], [ -113.58486, 53.53153 ] ], [ [ -113.58486, 53.53153 ], [ -113.58437, 53.53154 ] ], [ [ -113.58437, 53.53154 ], [ -113.58486, 53.53153 ] ], [ [ -113.58369, 53.53155 ], [ -113.58437, 53.53154 ] ], [ [ -113.58437, 53.53154 ], [ -113.58369, 53.53155 ] ], [ [ -113.58369, 53.53155 ], [ -113.58296, 53.53155 ] ], [ [ -113.58155, 53.53153 ], [ -113.58296, 53.53155 ] ], [ [ -113.58296, 53.53155 ], [ -113.58155, 53.53153 ] ], [ [ -113.5798, 53.53152 ], [ -113.58155, 53.53153 ] ], [ [ -113.58155, 53.53153 ], [ -113.5798, 53.53152 ] ], [ [ -113.578, 53.53152 ], [ -113.5798, 53.53152 ] ], [ [ -113.5798, 53.53152 ], [ -113.578, 53.53152 ] ], [ [ -113.57807, 53.54863 ], [ -113.57798, 53.55045 ], [ -113.57711, 53.55102 ], [ -113.56715, 53.55104 ], [ -113.5659, 53.55063 ], [ -113.56457, 53.55096 ] ], [ [ -113.56457, 53.55096 ], [ -113.56588, 53.5514 ], [ -113.567, 53.55111 ], [ -113.57812, 53.55111 ], [ -113.57807, 53.54863 ] ], [ [ -113.57807, 53.54639 ], [ -113.57807, 53.54863 ] ], [ [ -113.57807, 53.54863 ], [ -113.57807, 53.54639 ] ], [ [ -113.57806, 53.54611 ], [ -113.57807, 53.54639 ] ], [ [ -113.57806, 53.54611 ], [ -113.57807, 53.54401 ] ], [ [ -113.57807, 53.54401 ], [ -113.57806, 53.54611 ] ], [ [ -113.57807, 53.54378 ], [ -113.57807, 53.54401 ] ], [ [ -113.57814, 53.54259 ], [ -113.57805, 53.54167 ] ], [ [ -113.57805, 53.54167 ], [ -113.57798, 53.54258 ] ], [ [ -113.57804, 53.5406 ], [ -113.57805, 53.54167 ] ], [ [ -113.57803, 53.54013 ], [ -113.57804, 53.5406 ] ], [ [ -113.57804, 53.5406 ], [ -113.57803, 53.54013 ] ], [ [ -113.57803, 53.54013 ], [ -113.57803, 53.54001 ] ], [ [ -113.57803, 53.54001 ], [ -113.57803, 53.54013 ] ], [ [ -113.578, 53.53852 ], [ -113.57803, 53.54001 ] ], [ [ -113.578, 53.53852 ], [ -113.57797, 53.5377 ] ], [ [ -113.57797, 53.5377 ], [ -113.578, 53.53852 ] ], [ [ -113.57798, 53.53617 ], [ -113.57797, 53.5377 ] ], [ [ -113.57797, 53.5377 ], [ -113.57798, 53.53617 ] ], [ [ -113.57798, 53.53617 ], [ -113.57798, 53.53462 ] ], [ [ -113.57798, 53.53462 ], [ -113.57798, 53.53617 ] ], [ [ -113.57798, 53.53462 ], [ -113.57798, 53.53306 ] ], [ [ -113.57798, 53.53306 ], [ -113.57798, 53.53462 ] ], [ [ -113.578, 53.53152 ], [ -113.57798, 53.53306 ] ], [ [ -113.57798, 53.53306 ], [ -113.578, 53.53152 ] ], [ [ -113.57806, 53.51937 ], [ -113.57787, 53.51942 ] ], [ [ -113.57806, 53.51937 ], [ -113.57804, 53.51549 ], [ -113.57843, 53.51439 ] ], [ [ -113.53502, 53.50497 ], [ -113.53611, 53.50495 ], [ -113.53782, 53.50456 ], [ -113.53894, 53.50446 ], [ -113.54012, 53.50461 ], [ -113.54141, 53.505 ] ], [ [ -113.55339, 53.50345 ], [ -113.55822, 53.50313 ], [ -113.56093, 53.50318 ], [ -113.56329, 53.50336 ], [ -113.56553, 53.50401 ], [ -113.56624, 53.50471 ] ], [ [ -113.57806, 53.51438 ], [ -113.57787, 53.51942 ] ], [ [ -113.57787, 53.51942 ], [ -113.57724, 53.51939 ] ], [ [ -113.57683, 53.51938 ], [ -113.57724, 53.51939 ] ], [ [ -113.57724, 53.51939 ], [ -113.57683, 53.51938 ] ], [ [ -113.57683, 53.51938 ], [ -113.57488, 53.51936 ] ], [ [ -113.57488, 53.51936 ], [ -113.57251, 53.51936 ] ], [ [ -113.57251, 53.51936 ], [ -113.57488, 53.51936 ] ], [ [ -113.57251, 53.51936 ], [ -113.57025, 53.51937 ] ], [ [ -113.57025, 53.51937 ], [ -113.57251, 53.51936 ] ], [ [ -113.57025, 53.51937 ], [ -113.56814, 53.51937 ] ], [ [ -113.56814, 53.51937 ], [ -113.57025, 53.51937 ] ], [ [ -113.56814, 53.51937 ], [ -113.56677, 53.51937 ] ], [ [ -113.56686, 53.50365 ], [ -113.56202, 53.50316 ], [ -113.55933, 53.50304 ], [ -113.55642, 53.50308 ], [ -113.55338, 53.50336 ] ], [ [ -113.54153, 53.50482 ], [ -113.53893, 53.50376 ], [ -113.53736, 53.5044 ], [ -113.53502, 53.50497 ] ], [ [ -113.56572, 53.51999 ], [ -113.56595, 53.51964 ], [ -113.56677, 53.51937 ] ], [ [ -113.56677, 53.51937 ], [ -113.56585, 53.51906 ], [ -113.56538, 53.51913 ], [ -113.56521, 53.51946 ], [ -113.56572, 53.51999 ] ], [ [ -113.56576, 53.5254 ], [ -113.56571, 53.5273 ] ], [ [ -113.56576, 53.5254 ], [ -113.56576, 53.52486 ] ], [ [ -113.56576, 53.52486 ], [ -113.56576, 53.5254 ] ], [ [ -113.56575, 53.52221 ], [ -113.56576, 53.52486 ] ], [ [ -113.56576, 53.52486 ], [ -113.56575, 53.52221 ] ], [ [ -113.56569, 53.52796 ], [ -113.56571, 53.5273 ] ], [ [ -113.56571, 53.5273 ], [ -113.56569, 53.52796 ] ], [ [ -113.56574, 53.52119 ], [ -113.56575, 53.52221 ] ], [ [ -113.56575, 53.52221 ], [ -113.56574, 53.52119 ] ], [ [ -113.56569, 53.52796 ], [ -113.56562, 53.53054 ] ], [ [ -113.56559, 53.53758 ], [ -113.56562, 53.54253 ], [ -113.56514, 53.54291 ], [ -113.56096, 53.54305 ] ], [ [ -113.56096, 53.54305 ], [ -113.56262, 53.54312 ], [ -113.56582, 53.54299 ], [ -113.56559, 53.53758 ] ], [ [ -113.56559, 53.53677 ], [ -113.56559, 53.53758 ] ], [ [ -113.56559, 53.53677 ], [ -113.56559, 53.53615 ] ], [ [ -113.56559, 53.53615 ], [ -113.56559, 53.53677 ] ], [ [ -113.56559, 53.53615 ], [ -113.5656, 53.53505 ] ], [ [ -113.5656, 53.53505 ], [ -113.56559, 53.53615 ] ], [ [ -113.56561, 53.53433 ], [ -113.5656, 53.53505 ] ], [ [ -113.56561, 53.53433 ], [ -113.56561, 53.53365 ] ], [ [ -113.56561, 53.53365 ], [ -113.56561, 53.53433 ] ], [ [ -113.56573, 53.52073 ], [ -113.56574, 53.52119 ] ], [ [ -113.56574, 53.52119 ], [ -113.56573, 53.52073 ] ], [ [ -113.56561, 53.53197 ], [ -113.56561, 53.53365 ] ], [ [ -113.56561, 53.53365 ], [ -113.56561, 53.53197 ] ], [ [ -113.56572, 53.52042 ], [ -113.56573, 53.52073 ] ], [ [ -113.56561, 53.53151 ], [ -113.56561, 53.53197 ] ], [ [ -113.56561, 53.53151 ], [ -113.56562, 53.53054 ] ], [ [ -113.56562, 53.53054 ], [ -113.56561, 53.53151 ] ], [ [ -113.56572, 53.52042 ], [ -113.56572, 53.52012 ] ], [ [ -113.56572, 53.52012 ], [ -113.56572, 53.52042 ] ], [ [ -113.56572, 53.51999 ], [ -113.56572, 53.52012 ] ], [ [ -113.56457, 53.55096 ], [ -113.56265, 53.55095 ] ], [ [ -113.56139, 53.55095 ], [ -113.56265, 53.55095 ] ], [ [ -113.56265, 53.55095 ], [ -113.56139, 53.55095 ] ], [ [ -113.56139, 53.55095 ], [ -113.55901, 53.55096 ] ], [ [ -113.55901, 53.55096 ], [ -113.56139, 53.55095 ] ], [ [ -113.56096, 53.54305 ], [ -113.56054, 53.54303 ] ], [ [ -113.56015, 53.54303 ], [ -113.56054, 53.54303 ] ], [ [ -113.56054, 53.54303 ], [ -113.56015, 53.54303 ] ], [ [ -113.56015, 53.54303 ], [ -113.55968, 53.54303 ] ], [ [ -113.55968, 53.54303 ], [ -113.56015, 53.54303 ] ], [ [ -113.55968, 53.54303 ], [ -113.55801, 53.54304 ] ], [ [ -113.55901, 53.55096 ], [ -113.5579, 53.55096 ] ], [ [ -113.55801, 53.54304 ], [ -113.55722, 53.54304 ] ], [ [ -113.55722, 53.54304 ], [ -113.55801, 53.54304 ] ], [ [ -113.53592, 53.55097 ], [ -113.5579, 53.55096 ] ], [ [ -113.5579, 53.55096 ], [ -113.55048, 53.55087 ], [ -113.53592, 53.55097 ] ], [ [ -113.55631, 53.54304 ], [ -113.55722, 53.54304 ] ], [ [ -113.55722, 53.54304 ], [ -113.55631, 53.54304 ] ], [ [ -113.55631, 53.54304 ], [ -113.55539, 53.54302 ] ], [ [ -113.55583, 53.56146 ], [ -113.5558, 53.56152 ] ], [ [ -113.55583, 53.56146 ], [ -113.5558, 53.56152 ] ], [ [ -113.55552, 53.56059 ], [ -113.55578, 53.56064 ], [ -113.55583, 53.56146 ] ], [ [ -113.5558, 53.56152 ], [ -113.55551, 53.56162 ] ], [ [ -113.5555, 53.56324 ], [ -113.5555, 53.56384 ] ], [ [ -113.5555, 53.56384 ], [ -113.5555, 53.56324 ] ], [ [ -113.5555, 53.56384 ], [ -113.555, 53.56383 ] ], [ [ -113.5555, 53.56324 ], [ -113.55551, 53.56187 ] ], [ [ -113.55551, 53.56187 ], [ -113.5555, 53.56324 ] ], [ [ -113.55551, 53.56162 ], [ -113.55551, 53.56187 ] ], [ [ -113.55551, 53.56162 ], [ -113.55552, 53.56059 ] ], [ [ -113.55551, 53.56162 ], [ -113.55552, 53.56059 ] ], [ [ -113.55552, 53.56059 ], [ -113.55553, 53.55895 ] ], [ [ -113.55153, 53.55896 ], [ -113.55553, 53.55895 ] ], [ [ -113.55553, 53.55895 ], [ -113.55553, 53.55882 ], [ -113.55152, 53.55884 ] ], [ [ -113.55539, 53.54302 ], [ -113.55465, 53.54304 ] ], [ [ -113.55465, 53.54304 ], [ -113.55539, 53.54302 ] ], [ [ -113.555, 53.56383 ], [ -113.55449, 53.56382 ] ], [ [ -113.55449, 53.56382 ], [ -113.555, 53.56383 ] ], [ [ -113.55449, 53.56382 ], [ -113.55384, 53.56373 ] ], [ [ -113.55465, 53.54304 ], [ -113.55295, 53.54303 ] ], [ [ -113.55295, 53.54303 ], [ -113.55465, 53.54304 ] ], [ [ -113.55342, 53.56365 ], [ -113.55384, 53.56373 ] ], [ [ -113.55384, 53.56373 ], [ -113.55342, 53.56365 ] ], [ [ -113.55342, 53.56365 ], [ -113.55218, 53.56326 ], [ -113.55156, 53.56323 ] ], [ [ -113.55127, 53.54304 ], [ -113.55295, 53.54303 ] ], [ [ -113.55295, 53.54303 ], [ -113.55127, 53.54304 ] ], [ [ -113.55156, 53.56323 ], [ -113.55075, 53.56323 ] ], [ [ -113.55156, 53.56323 ], [ -113.55157, 53.56102 ] ], [ [ -113.55157, 53.56076 ], [ -113.55153, 53.55896 ] ], [ [ -113.54841, 53.55892 ], [ -113.55153, 53.55896 ] ], [ [ -113.55153, 53.55896 ], [ -113.55152, 53.55884 ] ], [ [ -113.55152, 53.55884 ], [ -113.54841, 53.55892 ] ], [ [ -113.55127, 53.54304 ], [ -113.55031, 53.54304 ] ], [ [ -113.55075, 53.56323 ], [ -113.55064, 53.56323 ] ], [ [ -113.55064, 53.56323 ], [ -113.55075, 53.56323 ] ], [ [ -113.55015, 53.56323 ], [ -113.55064, 53.56323 ] ], [ [ -113.55064, 53.56323 ], [ -113.55015, 53.56323 ] ], [ [ -113.55015, 53.56323 ], [ -113.54793, 53.56323 ], [ -113.54694, 53.56356 ], [ -113.54623, 53.56363 ] ], [ [ -113.55031, 53.54304 ], [ -113.54959, 53.54304 ] ], [ [ -113.54959, 53.54304 ], [ -113.55031, 53.54304 ] ], [ [ -113.54871, 53.54305 ], [ -113.54959, 53.54304 ] ], [ [ -113.54959, 53.54304 ], [ -113.54871, 53.54305 ] ], [ [ -113.54871, 53.54305 ], [ -113.54735, 53.54303 ] ], [ [ -113.54841, 53.55892 ], [ -113.5472, 53.55892 ] ], [ [ -113.5472, 53.55892 ], [ -113.54621, 53.5589 ] ], [ [ -113.54621, 53.5589 ], [ -113.5472, 53.55892 ] ], [ [ -113.54574, 53.54303 ], [ -113.54735, 53.54303 ] ], [ [ -113.54735, 53.54303 ], [ -113.54574, 53.54303 ] ], [ [ -113.54512, 53.56364 ], [ -113.54623, 53.56363 ] ], [ [ -113.54623, 53.56363 ], [ -113.54512, 53.56364 ] ], [ [ -113.54453, 53.5589 ], [ -113.54621, 53.5589 ] ], [ [ -113.54621, 53.5589 ], [ -113.54453, 53.5589 ] ], [ [ -113.54574, 53.54303 ], [ -113.54402, 53.54304 ] ], [ [ -113.54402, 53.54304 ], [ -113.54574, 53.54303 ] ], [ [ -113.54283, 53.56367 ], [ -113.54512, 53.56364 ] ], [ [ -113.54512, 53.56364 ], [ -113.54283, 53.56367 ] ], [ [ -113.54453, 53.5589 ], [ -113.54379, 53.55891 ] ], [ [ -113.54379, 53.55891 ], [ -113.54453, 53.5589 ] ], [ [ -113.54199, 53.54303 ], [ -113.54402, 53.54304 ] ], [ [ -113.54402, 53.54304 ], [ -113.54199, 53.54303 ] ], [ [ -113.54286, 53.55891 ], [ -113.54379, 53.55891 ] ], [ [ -113.54379, 53.55891 ], [ -113.54286, 53.55891 ] ], [ [ -113.54283, 53.56367 ], [ -113.54255, 53.56366 ] ], [ [ -113.54286, 53.55891 ], [ -113.54207, 53.55891 ] ], [ [ -113.54117, 53.56365 ], [ -113.54255, 53.56366 ] ], [ [ -113.54255, 53.56366 ], [ -113.54117, 53.56365 ] ], [ [ -113.54118, 53.55892 ], [ -113.54207, 53.55891 ] ], [ [ -113.54207, 53.55891 ], [ -113.54118, 53.55892 ] ], [ [ -113.54199, 53.54303 ], [ -113.54137, 53.54303 ] ], [ [ -113.54137, 53.54303 ], [ -113.54199, 53.54303 ] ], [ [ -113.54117, 53.56365 ], [ -113.53675, 53.56364 ] ], [ [ -113.54137, 53.54303 ], [ -113.53915, 53.54301 ] ], [ [ -113.53946, 53.55892 ], [ -113.54118, 53.55892 ] ], [ [ -113.54118, 53.55892 ], [ -113.53946, 53.55892 ] ], [ [ -113.53946, 53.55892 ], [ -113.53769, 53.55891 ] ], [ [ -113.53915, 53.54301 ], [ -113.53865, 53.54302 ] ], [ [ -113.53865, 53.54302 ], [ -113.53915, 53.54301 ] ], [ [ -113.53865, 53.54302 ], [ -113.53591, 53.54301 ] ], [ [ -113.53769, 53.55891 ], [ -113.53593, 53.55892 ] ], [ [ -113.53593, 53.55892 ], [ -113.53769, 53.55891 ] ], [ [ -113.53597, 53.56364 ], [ -113.53675, 53.56364 ] ], [ [ -113.53675, 53.56364 ], [ -113.53597, 53.56364 ] ], [ [ -113.53597, 53.56364 ], [ -113.53596, 53.56324 ] ], [ [ -113.53596, 53.56324 ], [ -113.53597, 53.56364 ] ], [ [ -113.53596, 53.56324 ], [ -113.53594, 53.56207 ] ], [ [ -113.53594, 53.56207 ], [ -113.53595, 53.56168 ] ], [ [ -113.53595, 53.56168 ], [ -113.53594, 53.56207 ] ], [ [ -113.53595, 53.56168 ], [ -113.53594, 53.55926 ] ], [ [ -113.53593, 53.55892 ], [ -113.53594, 53.55926 ] ], [ [ -113.53594, 53.55926 ], [ -113.53593, 53.55892 ] ], [ [ -113.53593, 53.55892 ], [ -113.53414, 53.55892 ] ], [ [ -113.53414, 53.55892 ], [ -113.53593, 53.55892 ] ], [ [ -113.53593, 53.55892 ], [ -113.53593, 53.55853 ] ], [ [ -113.53593, 53.55853 ], [ -113.53593, 53.55831 ] ], [ [ -113.53593, 53.55831 ], [ -113.53593, 53.55853 ] ], [ [ -113.53593, 53.55831 ], [ -113.53593, 53.55761 ] ], [ [ -113.53593, 53.55761 ], [ -113.53593, 53.5573 ] ], [ [ -113.53593, 53.5573 ], [ -113.53593, 53.55761 ] ], [ [ -113.53593, 53.5573 ], [ -113.53593, 53.55617 ] ], [ [ -113.53593, 53.55591 ], [ -113.53593, 53.55617 ] ], [ [ -113.53593, 53.55617 ], [ -113.53593, 53.55591 ] ], [ [ -113.53593, 53.55591 ], [ -113.53593, 53.55572 ] ], [ [ -113.53593, 53.55572 ], [ -113.53593, 53.55395 ] ], [ [ -113.53593, 53.55395 ], [ -113.53593, 53.55572 ] ], [ [ -113.53593, 53.55395 ], [ -113.53593, 53.55358 ] ], [ [ -113.53593, 53.55358 ], [ -113.53593, 53.55255 ] ], [ [ -113.53593, 53.55255 ], [ -113.53593, 53.55358 ] ], [ [ -113.53593, 53.55255 ], [ -113.53592, 53.55164 ] ], [ [ -113.53592, 53.55149 ], [ -113.53592, 53.55164 ] ], [ [ -113.53592, 53.55164 ], [ -113.53592, 53.55149 ] ], [ [ -113.53592, 53.55149 ], [ -113.53592, 53.55097 ] ], [ [ -113.53593, 53.55057 ], [ -113.53592, 53.55097 ] ], [ [ -113.53592, 53.55097 ], [ -113.53593, 53.55057 ] ], [ [ -113.53593, 53.55057 ], [ -113.53593, 53.55024 ] ], [ [ -113.53593, 53.55 ], [ -113.53594, 53.54936 ] ], [ [ -113.53594, 53.54884 ], [ -113.53594, 53.54936 ] ], [ [ -113.53594, 53.54936 ], [ -113.53594, 53.54884 ] ], [ [ -113.53593, 53.55 ], [ -113.53593, 53.55024 ] ], [ [ -113.53593, 53.55024 ], [ -113.53593, 53.55 ] ], [ [ -113.53592, 53.55097 ], [ -113.53523, 53.55097 ] ], [ [ -113.53594, 53.54884 ], [ -113.53592, 53.54663 ] ], [ [ -113.53591, 53.5462 ], [ -113.53592, 53.54663 ] ], [ [ -113.53592, 53.54663 ], [ -113.53591, 53.5462 ] ], [ [ -113.53591, 53.5462 ], [ -113.53591, 53.54461 ] ], [ [ -113.53591, 53.54461 ], [ -113.53591, 53.54428 ] ], [ [ -113.53591, 53.54428 ], [ -113.53591, 53.54461 ] ], [ [ -113.53591, 53.54428 ], [ -113.53591, 53.54368 ] ], [ [ -113.53592, 53.54228 ], [ -113.53593, 53.54221 ] ], [ [ -113.53593, 53.54221 ], [ -113.53592, 53.54228 ] ], [ [ -113.53593, 53.54221 ], [ -113.53595, 53.54168 ], [ -113.53575, 53.54146 ], [ -113.53362, 53.54137 ] ], [ [ -113.53591, 53.54368 ], [ -113.53591, 53.54301 ] ], [ [ -113.53591, 53.54301 ], [ -113.53591, 53.54368 ] ], [ [ -113.53591, 53.54301 ], [ -113.53592, 53.54228 ] ], [ [ -113.53081, 53.54094 ], [ -113.53075, 53.54302 ], [ -113.53591, 53.54301 ] ], [ [ -113.53503, 53.55097 ], [ -113.53523, 53.55097 ] ], [ [ -113.53523, 53.55097 ], [ -113.53503, 53.55097 ] ], [ [ -113.53503, 53.55097 ], [ -113.53321, 53.55097 ] ], [ [ -113.53133, 53.50493 ], [ -113.53502, 53.50497 ] ], [ [ -113.53502, 53.50497 ], [ -113.53356, 53.50558 ], [ -113.53185, 53.50685 ], [ -113.5313, 53.50637 ], [ -113.53133, 53.50493 ] ], [ [ -113.53242, 53.55892 ], [ -113.53414, 53.55892 ] ], [ [ -113.53414, 53.55892 ], [ -113.53242, 53.55892 ] ], [ [ -113.53329, 53.54132 ], [ -113.53362, 53.54137 ] ], [ [ -113.53362, 53.54137 ], [ -113.53329, 53.54132 ] ], [ [ -113.53244, 53.55097 ], [ -113.53321, 53.55097 ] ], [ [ -113.53321, 53.55097 ], [ -113.53244, 53.55097 ] ], [ [ -113.53329, 53.54132 ], [ -113.53277, 53.54125 ] ], [ [ -113.53277, 53.54125 ], [ -113.53329, 53.54132 ] ], [ [ -113.53277, 53.54125 ], [ -113.53081, 53.54094 ] ], [ [ -113.53242, 53.55892 ], [ -113.53165, 53.55893 ] ], [ [ -113.53165, 53.55893 ], [ -113.53242, 53.55892 ] ], [ [ -113.53244, 53.55097 ], [ -113.53187, 53.55097 ] ], [ [ -113.53187, 53.55097 ], [ -113.53244, 53.55097 ] ], [ [ -113.53187, 53.55097 ], [ -113.52993, 53.55097 ] ], [ [ -113.53165, 53.55893 ], [ -113.52887, 53.5589 ] ], [ [ -113.52911, 53.50387 ], [ -113.52915, 53.50488 ], [ -113.53133, 53.50493 ] ], [ [ -113.53081, 53.54094 ], [ -113.53041, 53.54094 ] ], [ [ -113.53041, 53.54094 ], [ -113.53016, 53.54094 ] ], [ [ -113.53016, 53.54094 ], [ -113.53041, 53.54094 ] ], [ [ -113.52981, 53.54094 ], [ -113.53016, 53.54094 ] ], [ [ -113.53016, 53.54094 ], [ -113.52981, 53.54094 ] ], [ [ -113.52934, 53.55097 ], [ -113.52993, 53.55097 ] ], [ [ -113.52993, 53.55097 ], [ -113.52934, 53.55097 ] ], [ [ -113.52981, 53.54094 ], [ -113.5268, 53.54093 ] ], [ [ -113.52934, 53.55097 ], [ -113.52853, 53.55103 ] ], [ [ -113.50855, 53.55898 ], [ -113.52887, 53.5589 ] ], [ [ -113.52887, 53.5589 ], [ -113.50855, 53.55884 ] ], [ [ -113.52911, 53.50387 ], [ -113.5288, 53.50387 ], [ -113.52867, 53.50366 ], [ -113.52867, 53.50228 ], [ -113.5291, 53.50217 ] ], [ [ -113.5291, 53.50217 ], [ -113.52911, 53.50387 ] ], [ [ -113.52555, 53.50177 ], [ -113.52885, 53.50191 ], [ -113.52907, 53.50199 ], [ -113.5291, 53.50217 ] ], [ [ -113.52853, 53.55103 ], [ -113.52825, 53.55108 ] ], [ [ -113.52825, 53.55108 ], [ -113.52853, 53.55103 ] ], [ [ -113.52825, 53.55108 ], [ -113.52674, 53.55138 ] ], [ [ -113.52646, 53.55141 ], [ -113.52674, 53.55138 ] ], [ [ -113.52674, 53.55138 ], [ -113.52646, 53.55141 ] ], [ [ -113.5268, 53.54093 ], [ -113.52599, 53.54093 ] ], [ [ -113.52599, 53.54093 ], [ -113.5268, 53.54093 ] ], [ [ -113.52646, 53.55141 ], [ -113.52317, 53.55141 ] ], [ [ -113.52599, 53.54093 ], [ -113.52498, 53.54094 ] ], [ [ -113.52498, 53.54094 ], [ -113.52599, 53.54093 ] ], [ [ -113.52084, 53.52289 ], [ -113.52564, 53.52288 ] ], [ [ -113.52564, 53.52288 ], [ -113.52563, 53.52476 ], [ -113.5227, 53.5248 ] ], [ [ -113.52556, 53.51935 ], [ -113.52564, 53.52288 ] ], [ [ -113.52085, 53.52005 ], [ -113.52154, 53.52001 ], [ -113.52248, 53.51947 ], [ -113.52309, 53.51933 ], [ -113.52556, 53.51935 ] ], [ [ -113.52554, 53.51871 ], [ -113.52556, 53.51935 ] ], [ [ -113.52556, 53.51935 ], [ -113.52554, 53.51871 ] ], [ [ -113.52554, 53.51802 ], [ -113.52557, 53.51786 ] ], [ [ -113.52557, 53.51786 ], [ -113.52554, 53.51802 ] ], [ [ -113.52557, 53.51786 ], [ -113.52596, 53.51592 ], [ -113.52589, 53.50996 ], [ -113.52547, 53.50901 ], [ -113.52374, 53.50712 ], [ -113.52308, 53.50616 ], [ -113.52297, 53.50176 ] ], [ [ -113.52297, 53.50176 ], [ -113.52275, 53.50176 ], [ -113.52282, 53.50607 ], [ -113.52321, 53.50676 ], [ -113.5254, 53.50923 ], [ -113.52574, 53.51009 ], [ -113.52557, 53.51786 ] ], [ [ -113.52554, 53.51813 ], [ -113.52554, 53.51871 ] ], [ [ -113.52554, 53.51871 ], [ -113.52554, 53.51813 ] ], [ [ -113.52554, 53.51813 ], [ -113.52554, 53.51802 ] ], [ [ -113.52411, 53.50175 ], [ -113.52555, 53.50177 ] ], [ [ -113.52555, 53.50177 ], [ -113.52411, 53.50175 ] ], [ [ -113.52498, 53.54094 ], [ -113.52315, 53.54094 ] ], [ [ -113.52297, 53.50176 ], [ -113.52411, 53.50175 ] ], [ [ -113.52132, 53.54826 ], [ -113.5213, 53.55141 ], [ -113.52317, 53.55141 ] ], [ [ -113.52317, 53.55141 ], [ -113.52306, 53.55004 ], [ -113.52276, 53.54968 ], [ -113.52164, 53.54899 ], [ -113.52132, 53.54826 ] ], [ [ -113.52264, 53.54094 ], [ -113.52315, 53.54094 ] ], [ [ -113.52315, 53.54094 ], [ -113.52264, 53.54094 ] ], [ [ -113.52264, 53.54094 ], [ -113.52256, 53.54094 ] ], [ [ -113.52256, 53.54094 ], [ -113.52264, 53.54094 ] ], [ [ -113.52256, 53.54094 ], [ -113.51843, 53.54094 ] ], [ [ -113.5227, 53.5248 ], [ -113.52092, 53.5248 ] ], [ [ -113.5227, 53.5248 ], [ -113.52246, 53.52491 ], [ -113.52113, 53.52489 ], [ -113.52092, 53.5248 ] ], [ [ -113.52131, 53.54775 ], [ -113.52132, 53.54826 ] ], [ [ -113.52132, 53.54826 ], [ -113.52131, 53.54775 ] ], [ [ -113.52131, 53.54775 ], [ -113.52131, 53.54735 ] ], [ [ -113.52131, 53.54735 ], [ -113.52131, 53.54775 ] ], [ [ -113.52131, 53.54735 ], [ -113.52131, 53.54667 ] ], [ [ -113.52131, 53.54667 ], [ -113.52131, 53.54616 ], [ -113.51207, 53.54622 ] ], [ [ -113.51207, 53.54622 ], [ -113.52053, 53.54625 ], [ -113.52131, 53.54667 ] ], [ [ -113.52092, 53.5248 ], [ -113.52084, 53.52289 ] ], [ [ -113.52084, 53.52289 ], [ -113.52084, 53.52243 ] ], [ [ -113.52084, 53.52243 ], [ -113.52084, 53.52195 ] ], [ [ -113.52084, 53.52195 ], [ -113.52084, 53.52243 ] ], [ [ -113.52084, 53.52195 ], [ -113.52084, 53.52143 ] ], [ [ -113.52084, 53.52143 ], [ -113.52084, 53.52195 ] ], [ [ -113.52084, 53.52143 ], [ -113.52084, 53.52054 ] ], [ [ -113.52085, 53.52005 ], [ -113.52084, 53.52054 ] ], [ [ -113.52084, 53.52054 ], [ -113.52085, 53.52005 ] ], [ [ -113.52085, 53.52005 ], [ -113.52075, 53.51863 ] ], [ [ -113.52075, 53.51863 ], [ -113.52075, 53.51855 ] ], [ [ -113.52075, 53.51855 ], [ -113.52075, 53.51863 ] ], [ [ -113.52075, 53.51855 ], [ -113.52074, 53.51814 ] ], [ [ -113.51206, 53.51816 ], [ -113.52074, 53.51814 ] ], [ [ -113.52074, 53.51814 ], [ -113.52076, 53.51799 ], [ -113.5203, 53.51807 ], [ -113.51206, 53.51805 ] ], [ [ -113.51828, 53.54094 ], [ -113.51843, 53.54094 ] ], [ [ -113.51843, 53.54094 ], [ -113.51828, 53.54094 ] ], [ [ -113.51828, 53.54094 ], [ -113.51765, 53.54094 ] ], [ [ -113.51765, 53.54094 ], [ -113.51828, 53.54094 ] ], [ [ -113.51765, 53.54094 ], [ -113.51487, 53.54093 ] ], [ [ -113.51642, 53.49408 ], [ -113.51695, 53.49407 ] ], [ [ -113.51347, 53.49828 ], [ -113.51582, 53.4983 ] ], [ [ -113.51698, 53.49621 ], [ -113.51695, 53.49407 ] ], [ [ -113.51695, 53.49407 ], [ -113.51715, 53.48687 ], [ -113.51653, 53.48685 ] ], [ [ -113.51654, 53.48646 ], [ -113.51653, 53.48685 ] ], [ [ -113.51656, 53.48452 ], [ -113.51654, 53.48646 ] ], [ [ -113.51631, 53.48458 ], [ -113.5163, 53.48628 ], [ -113.51654, 53.48646 ] ], [ [ -113.51656, 53.48452 ], [ -113.51631, 53.48458 ] ], [ [ -113.51656, 53.48452 ], [ -113.51754, 53.4842 ], [ -113.51758, 53.48332 ] ], [ [ -113.51625, 53.48327 ], [ -113.51656, 53.48452 ] ], [ [ -113.51653, 53.48685 ], [ -113.5162, 53.48686 ], [ -113.51603, 53.48657 ], [ -113.51603, 53.48584 ] ], [ [ -113.51653, 53.48685 ], [ -113.51649, 53.48778 ] ], [ [ -113.51506, 53.49409 ], [ -113.51642, 53.49408 ] ], [ [ -113.51642, 53.49408 ], [ -113.51506, 53.49409 ] ], [ [ -113.51642, 53.49408 ], [ -113.51647, 53.49631 ] ], [ [ -113.51576, 53.49814 ], [ -113.51382, 53.49815 ], [ -113.51347, 53.49828 ] ], [ [ -113.51649, 53.48778 ], [ -113.51642, 53.49408 ] ], [ [ -113.51649, 53.48778 ], [ -113.51609, 53.48805 ], [ -113.51564, 53.48816 ], [ -113.50437, 53.4882 ] ], [ [ -113.51604, 53.48525 ], [ -113.5161, 53.48467 ], [ -113.51631, 53.48458 ] ], [ [ -113.51622, 53.48317 ], [ -113.51625, 53.48327 ] ], [ [ -113.50437, 53.4882 ], [ -113.50438, 53.4823 ], [ -113.50453, 53.48205 ], [ -113.50517, 53.48192 ], [ -113.50986, 53.483 ], [ -113.51053, 53.48308 ], [ -113.51164, 53.48297 ] ], [ [ -113.51553, 53.48321 ], [ -113.51625, 53.48327 ] ], [ [ -113.51603, 53.48584 ], [ -113.51604, 53.48525 ] ], [ [ -113.51603, 53.48584 ], [ -113.51604, 53.48525 ] ], [ [ -113.51433, 53.54093 ], [ -113.51487, 53.54093 ] ], [ [ -113.51487, 53.54093 ], [ -113.51433, 53.54093 ] ], [ [ -113.51506, 53.49409 ], [ -113.51356, 53.49409 ] ], [ [ -113.51433, 53.54093 ], [ -113.51295, 53.54093 ] ], [ [ -113.51356, 53.49409 ], [ -113.51189, 53.49411 ] ], [ [ -113.51189, 53.49411 ], [ -113.51356, 53.49409 ] ], [ [ -113.51347, 53.49828 ], [ -113.51211, 53.49917 ] ], [ [ -113.51206, 53.49825 ], [ -113.51347, 53.49828 ] ], [ [ -113.51211, 53.54093 ], [ -113.51295, 53.54093 ] ], [ [ -113.51295, 53.54093 ], [ -113.51211, 53.54093 ] ], [ [ -113.51207, 53.54622 ], [ -113.51102, 53.54622 ] ], [ [ -113.51211, 53.54093 ], [ -113.51027, 53.54092 ] ], [ [ -113.51204, 53.52286 ], [ -113.51179, 53.52392 ], [ -113.50869, 53.52419 ] ], [ [ -113.50439, 53.52506 ], [ -113.50354, 53.52568 ], [ -113.50254, 53.52676 ], [ -113.50138, 53.5291 ] ], [ [ -113.50068, 53.53057 ], [ -113.49922, 53.53091 ], [ -113.49832, 53.53141 ], [ -113.49777, 53.53193 ], [ -113.49744, 53.53261 ], [ -113.49731, 53.53489 ], [ -113.49699, 53.53543 ] ], [ [ -113.49699, 53.53543 ], [ -113.49878, 53.53406 ], [ -113.50314, 53.5341 ], [ -113.50583, 53.53446 ], [ -113.50778, 53.53435 ], [ -113.50869, 53.53419 ], [ -113.5093, 53.53276 ], [ -113.51011, 53.53169 ] ], [ [ -113.51303, 53.52561 ], [ -113.5128, 53.52507 ], [ -113.512, 53.52424 ], [ -113.51218, 53.52342 ], [ -113.51204, 53.52286 ] ], [ [ -113.51204, 53.52255 ], [ -113.51204, 53.52286 ] ], [ [ -113.51205, 53.52194 ], [ -113.51204, 53.52237 ] ], [ [ -113.51205, 53.52194 ], [ -113.51205, 53.52148 ] ], [ [ -113.51205, 53.52148 ], [ -113.51205, 53.52194 ] ], [ [ -113.51204, 53.52237 ], [ -113.51204, 53.52255 ] ], [ [ -113.51204, 53.52255 ], [ -113.51204, 53.52237 ] ], [ [ -113.51205, 53.52044 ], [ -113.51205, 53.52148 ] ], [ [ -113.51205, 53.52023 ], [ -113.51205, 53.52044 ] ], [ [ -113.51205, 53.52044 ], [ -113.51205, 53.52023 ] ], [ [ -113.51205, 53.51995 ], [ -113.51206, 53.51952 ] ], [ [ -113.51206, 53.51952 ], [ -113.51205, 53.51995 ] ], [ [ -113.51206, 53.51909 ], [ -113.51206, 53.51952 ] ], [ [ -113.51205, 53.51995 ], [ -113.51205, 53.52023 ] ], [ [ -113.51206, 53.51909 ], [ -113.51206, 53.51886 ] ], [ [ -113.51206, 53.51886 ], [ -113.51206, 53.51909 ] ], [ [ -113.51206, 53.51816 ], [ -113.51206, 53.51886 ] ], [ [ -113.5063, 53.51808 ], [ -113.51206, 53.51816 ] ], [ [ -113.51206, 53.51805 ], [ -113.51206, 53.51816 ] ], [ [ -113.51206, 53.51805 ], [ -113.5063, 53.51808 ] ], [ [ -113.51206, 53.51805 ], [ -113.51206, 53.51753 ] ], [ [ -113.51206, 53.51753 ], [ -113.51206, 53.51805 ] ], [ [ -113.51206, 53.51672 ], [ -113.51206, 53.51753 ] ], [ [ -113.51206, 53.51614 ], [ -113.51206, 53.51672 ] ], [ [ -113.51206, 53.51672 ], [ -113.51206, 53.51614 ] ], [ [ -113.51206, 53.51583 ], [ -113.51206, 53.51614 ] ], [ [ -113.51206, 53.51614 ], [ -113.51206, 53.51583 ] ], [ [ -113.51206, 53.51474 ], [ -113.51206, 53.51583 ] ], [ [ -113.51206, 53.51425 ], [ -113.51206, 53.51474 ] ], [ [ -113.51206, 53.51474 ], [ -113.51206, 53.51425 ] ], [ [ -113.51206, 53.51407 ], [ -113.51206, 53.51425 ] ], [ [ -113.51206, 53.51363 ], [ -113.51206, 53.51407 ] ], [ [ -113.51206, 53.51407 ], [ -113.51206, 53.51363 ] ], [ [ -113.51206, 53.51273 ], [ -113.51206, 53.51363 ] ], [ [ -113.51206, 53.51273 ], [ -113.51206, 53.51229 ] ], [ [ -113.51206, 53.51229 ], [ -113.51206, 53.51273 ] ], [ [ -113.51206, 53.51187 ], [ -113.51206, 53.51229 ] ], [ [ -113.51206, 53.51229 ], [ -113.51206, 53.51187 ] ], [ [ -113.51206, 53.51131 ], [ -113.51206, 53.51187 ] ], [ [ -113.51206, 53.51131 ], [ -113.51206, 53.51036 ] ], [ [ -113.51206, 53.51036 ], [ -113.51206, 53.51131 ] ], [ [ -113.51206, 53.50942 ], [ -113.51206, 53.51036 ] ], [ [ -113.51206, 53.51036 ], [ -113.51206, 53.50942 ] ], [ [ -113.51206, 53.50942 ], [ -113.51205, 53.50847 ] ], [ [ -113.51205, 53.50847 ], [ -113.51206, 53.50942 ] ], [ [ -113.51205, 53.50847 ], [ -113.51204, 53.50755 ] ], [ [ -113.51204, 53.50755 ], [ -113.51205, 53.50847 ] ], [ [ -113.51204, 53.50755 ], [ -113.51203, 53.50657 ] ], [ [ -113.51203, 53.50657 ], [ -113.51204, 53.50755 ] ], [ [ -113.51203, 53.50606 ], [ -113.51203, 53.50657 ] ], [ [ -113.51203, 53.50657 ], [ -113.51203, 53.50606 ] ], [ [ -113.51211, 53.49917 ], [ -113.51191, 53.49966 ] ], [ [ -113.51203, 53.5001 ], [ -113.51222, 53.49967 ], [ -113.51211, 53.49917 ] ], [ [ -113.51211, 53.49917 ], [ -113.51206, 53.49825 ] ], [ [ -113.51203, 53.50606 ], [ -113.51203, 53.50562 ] ], [ [ -113.51203, 53.50562 ], [ -113.51203, 53.50606 ] ], [ [ -113.51203, 53.50483 ], [ -113.51203, 53.50562 ] ], [ [ -113.51203, 53.50483 ], [ -113.51203, 53.5039 ] ], [ [ -113.51203, 53.5039 ], [ -113.51203, 53.50483 ] ], [ [ -113.51203, 53.50295 ], [ -113.51203, 53.5039 ] ], [ [ -113.51203, 53.50295 ], [ -113.51203, 53.50201 ] ], [ [ -113.51203, 53.50201 ], [ -113.51203, 53.50295 ] ], [ [ -113.51203, 53.50108 ], [ -113.51203, 53.50201 ] ], [ [ -113.51203, 53.50201 ], [ -113.51203, 53.50108 ] ], [ [ -113.51203, 53.50057 ], [ -113.51203, 53.50108 ] ], [ [ -113.51206, 53.49825 ], [ -113.51197, 53.49815 ] ], [ [ -113.51203, 53.50057 ], [ -113.51203, 53.50024 ] ], [ [ -113.51203, 53.50024 ], [ -113.51203, 53.50057 ] ], [ [ -113.51203, 53.5001 ], [ -113.51203, 53.50024 ] ], [ [ -113.51191, 53.49966 ], [ -113.51203, 53.5001 ] ], [ [ -113.51197, 53.49815 ], [ -113.51191, 53.49966 ] ], [ [ -113.51189, 53.49716 ], [ -113.51197, 53.49815 ] ], [ [ -113.51189, 53.49699 ], [ -113.51189, 53.49716 ] ], [ [ -113.51189, 53.49716 ], [ -113.51189, 53.49699 ] ], [ [ -113.51189, 53.49699 ], [ -113.51189, 53.49679 ] ], [ [ -113.51189, 53.49679 ], [ -113.51189, 53.49699 ] ], [ [ -113.5119, 53.49532 ], [ -113.51189, 53.49679 ] ], [ [ -113.51189, 53.49411 ], [ -113.5119, 53.49532 ] ], [ [ -113.5119, 53.49532 ], [ -113.51189, 53.49411 ] ], [ [ -113.5106, 53.54622 ], [ -113.51102, 53.54622 ] ], [ [ -113.51102, 53.54622 ], [ -113.5106, 53.54622 ] ], [ [ -113.5106, 53.54622 ], [ -113.51022, 53.54622 ] ], [ [ -113.50845, 53.54622 ], [ -113.51022, 53.54622 ] ], [ [ -113.51022, 53.54622 ], [ -113.50845, 53.54622 ] ], [ [ -113.50844, 53.54092 ], [ -113.51027, 53.54092 ] ], [ [ -113.51027, 53.54092 ], [ -113.50844, 53.54092 ] ], [ [ -113.50838, 53.55898 ], [ -113.50855, 53.55898 ] ], [ [ -113.50284, 53.57035 ], [ -113.50301, 53.57035 ], [ -113.50314, 53.56646 ], [ -113.50824, 53.5643 ], [ -113.50848, 53.56406 ], [ -113.50855, 53.55898 ] ], [ [ -113.50855, 53.55898 ], [ -113.50855, 53.55884 ] ], [ [ -113.50855, 53.55884 ], [ -113.50838, 53.55884 ] ], [ [ -113.50855, 53.55884 ], [ -113.50845, 53.55206 ] ], [ [ -113.50109, 53.55895 ], [ -113.50838, 53.55898 ] ], [ [ -113.50838, 53.55898 ], [ -113.50832, 53.56383 ], [ -113.50798, 53.56427 ], [ -113.50293, 53.56644 ], [ -113.50284, 53.57035 ] ], [ [ -113.50838, 53.55884 ], [ -113.50838, 53.55898 ] ], [ [ -113.50838, 53.55884 ], [ -113.50108, 53.55885 ] ], [ [ -113.50845, 53.55206 ], [ -113.50838, 53.55884 ] ], [ [ -113.50845, 53.55206 ], [ -113.50845, 53.55194 ] ], [ [ -113.50845, 53.55194 ], [ -113.50845, 53.55176 ] ], [ [ -113.50845, 53.55176 ], [ -113.50845, 53.55194 ] ], [ [ -113.50845, 53.55176 ], [ -113.50845, 53.55141 ] ], [ [ -113.50845, 53.55097 ], [ -113.50845, 53.55141 ] ], [ [ -113.50845, 53.55141 ], [ -113.50845, 53.55097 ] ], [ [ -113.50845, 53.55097 ], [ -113.50845, 53.54894 ] ], [ [ -113.50845, 53.54894 ], [ -113.50844, 53.54827 ] ], [ [ -113.50844, 53.54827 ], [ -113.50845, 53.54894 ] ], [ [ -113.50845, 53.54698 ], [ -113.50844, 53.54827 ] ], [ [ -113.50844, 53.54827 ], [ -113.50845, 53.54698 ] ], [ [ -113.50845, 53.54698 ], [ -113.50845, 53.54622 ] ], [ [ -113.50845, 53.54622 ], [ -113.50659, 53.54624 ] ], [ [ -113.50845, 53.54622 ], [ -113.50845, 53.545 ] ], [ [ -113.50845, 53.545 ], [ -113.50845, 53.54458 ] ], [ [ -113.50845, 53.54458 ], [ -113.50845, 53.545 ] ], [ [ -113.50845, 53.54417 ], [ -113.50845, 53.54458 ] ], [ [ -113.50845, 53.54458 ], [ -113.50845, 53.54417 ] ], [ [ -113.50845, 53.54417 ], [ -113.50844, 53.54336 ] ], [ [ -113.50844, 53.54336 ], [ -113.50844, 53.54301 ] ], [ [ -113.50844, 53.54301 ], [ -113.50844, 53.54336 ] ], [ [ -113.50844, 53.54301 ], [ -113.50844, 53.54232 ] ], [ [ -113.50844, 53.54232 ], [ -113.50844, 53.54301 ] ], [ [ -113.50844, 53.54232 ], [ -113.50844, 53.54092 ] ], [ [ -113.50844, 53.54092 ], [ -113.50749, 53.54093 ] ], [ [ -113.50749, 53.54093 ], [ -113.50659, 53.54094 ] ], [ [ -113.50659, 53.54094 ], [ -113.50749, 53.54093 ] ], [ [ -113.50659, 53.54624 ], [ -113.50584, 53.54624 ] ], [ [ -113.50584, 53.54624 ], [ -113.50659, 53.54624 ] ], [ [ -113.50573, 53.54094 ], [ -113.50659, 53.54094 ] ], [ [ -113.50659, 53.54094 ], [ -113.50573, 53.54094 ] ], [ [ -113.5063, 53.51808 ], [ -113.50603, 53.51808 ] ], [ [ -113.50577, 53.54624 ], [ -113.50584, 53.54624 ] ], [ [ -113.50584, 53.54624 ], [ -113.50577, 53.54624 ] ], [ [ -113.50577, 53.54624 ], [ -113.50252, 53.54624 ] ], [ [ -113.50603, 53.51808 ], [ -113.50574, 53.51808 ] ], [ [ -113.50574, 53.51808 ], [ -113.50603, 53.51808 ] ], [ [ -113.50573, 53.54094 ], [ -113.50434, 53.54094 ] ], [ [ -113.50574, 53.51808 ], [ -113.50424, 53.51807 ] ], [ [ -113.50434, 53.54094 ], [ -113.504, 53.54094 ] ], [ [ -113.504, 53.54094 ], [ -113.50434, 53.54094 ] ], [ [ -113.50392, 53.54094 ], [ -113.504, 53.54094 ] ], [ [ -113.504, 53.54094 ], [ -113.50392, 53.54094 ] ], [ [ -113.50348, 53.51807 ], [ -113.50424, 53.51807 ] ], [ [ -113.50424, 53.51807 ], [ -113.50348, 53.51807 ] ], [ [ -113.50392, 53.54094 ], [ -113.50034, 53.54093 ] ], [ [ -113.50437, 53.4882 ], [ -113.4949, 53.48807 ], [ -113.45421, 53.48802 ], [ -113.45498, 53.49071 ] ], [ [ -113.45498, 53.49071 ], [ -113.455, 53.49005 ], [ -113.45456, 53.4886 ], [ -113.45472, 53.48831 ], [ -113.45537, 53.48813 ], [ -113.492, 53.48819 ], [ -113.50361, 53.48831 ], [ -113.50437, 53.48831 ], [ -113.50437, 53.4882 ] ], [ [ -113.50348, 53.51807 ], [ -113.50127, 53.51808 ] ], [ [ -113.50133, 53.57034 ], [ -113.50284, 53.57035 ] ], [ [ -113.50284, 53.57035 ], [ -113.50133, 53.57034 ] ], [ [ -113.50205, 53.54624 ], [ -113.50252, 53.54624 ] ], [ [ -113.50252, 53.54624 ], [ -113.50205, 53.54624 ] ], [ [ -113.50205, 53.54624 ], [ -113.50106, 53.54622 ] ], [ [ -113.49841, 53.57034 ], [ -113.50133, 53.57034 ] ], [ [ -113.49452, 53.55888 ], [ -113.49506, 53.55896 ], [ -113.50109, 53.55895 ] ], [ [ -113.50109, 53.55895 ], [ -113.50108, 53.55885 ] ], [ [ -113.50108, 53.55885 ], [ -113.49452, 53.55888 ] ], [ [ -113.50108, 53.55885 ], [ -113.50104, 53.55864 ] ], [ [ -113.50104, 53.55864 ], [ -113.50142, 53.55853 ], [ -113.50211, 53.55857 ], [ -113.50129, 53.55813 ], [ -113.50106, 53.55824 ], [ -113.50104, 53.55864 ] ], [ [ -113.50106, 53.54622 ], [ -113.5003, 53.54621 ] ], [ [ -113.5003, 53.54621 ], [ -113.50106, 53.54622 ] ], [ [ -113.50049, 53.51808 ], [ -113.50127, 53.51808 ] ], [ [ -113.50127, 53.51808 ], [ -113.50049, 53.51808 ] ], [ [ -113.5003, 53.54621 ], [ -113.4993, 53.5462 ] ], [ [ -113.50007, 53.54093 ], [ -113.50034, 53.54093 ] ], [ [ -113.50034, 53.54093 ], [ -113.50007, 53.54093 ] ], [ [ -113.50049, 53.51808 ], [ -113.49988, 53.51808 ] ], [ [ -113.50007, 53.54093 ], [ -113.49987, 53.54093 ] ], [ [ -113.49987, 53.54093 ], [ -113.50007, 53.54093 ] ], [ [ -113.49987, 53.54093 ], [ -113.49689, 53.54092 ] ], [ [ -113.49988, 53.51808 ], [ -113.49973, 53.51808 ] ], [ [ -113.49973, 53.51808 ], [ -113.49988, 53.51808 ] ], [ [ -113.49973, 53.51808 ], [ -113.49959, 53.51808 ] ], [ [ -113.49829, 53.5462 ], [ -113.4993, 53.5462 ] ], [ [ -113.4993, 53.5462 ], [ -113.49829, 53.5462 ] ], [ [ -113.48617, 53.5181 ], [ -113.49959, 53.51808 ] ], [ [ -113.49959, 53.51808 ], [ -113.48617, 53.51802 ] ], [ [ -113.49841, 53.57034 ], [ -113.49749, 53.57033 ] ], [ [ -113.49749, 53.57033 ], [ -113.49841, 53.57034 ] ], [ [ -113.49829, 53.5462 ], [ -113.49665, 53.54619 ] ], [ [ -113.49739, 53.57033 ], [ -113.49749, 53.57033 ] ], [ [ -113.4966, 53.57032 ], [ -113.49739, 53.57033 ] ], [ [ -113.49739, 53.57033 ], [ -113.4966, 53.57032 ] ], [ [ -113.49606, 53.57032 ], [ -113.4966, 53.57032 ] ], [ [ -113.49699, 53.53543 ], [ -113.4967, 53.53564 ] ], [ [ -113.4967, 53.53564 ], [ -113.49699, 53.53543 ] ], [ [ -113.49646, 53.54092 ], [ -113.49689, 53.54092 ] ], [ [ -113.49689, 53.54092 ], [ -113.49646, 53.54092 ] ], [ [ -113.49628, 53.54618 ], [ -113.49665, 53.54619 ] ], [ [ -113.49665, 53.54619 ], [ -113.49628, 53.54618 ] ], [ [ -113.4967, 53.53564 ], [ -113.49583, 53.53622 ], [ -113.49556, 53.53676 ] ], [ [ -113.49646, 53.54092 ], [ -113.49631, 53.54092 ] ], [ [ -113.49631, 53.54092 ], [ -113.49646, 53.54092 ] ], [ [ -113.49606, 53.57032 ], [ -113.4954, 53.57009 ] ], [ [ -113.49496, 53.57035 ], [ -113.49606, 53.57032 ] ], [ [ -113.49628, 53.54618 ], [ -113.49508, 53.54617 ] ], [ [ -113.49631, 53.54092 ], [ -113.49557, 53.54092 ] ], [ [ -113.49496, 53.57035 ], [ -113.4954, 53.57009 ] ], [ [ -113.4954, 53.57009 ], [ -113.49511, 53.56977 ], [ -113.49422, 53.56975 ] ], [ [ -113.49371, 53.541 ], [ -113.49557, 53.54092 ] ], [ [ -113.49371, 53.5396 ], [ -113.49555, 53.53957 ], [ -113.49557, 53.54092 ] ], [ [ -113.49557, 53.54092 ], [ -113.49371, 53.54092 ] ], [ [ -113.4956, 53.53783 ], [ -113.49561, 53.53834 ], [ -113.49538, 53.53871 ], [ -113.4948, 53.53923 ], [ -113.49387, 53.53942 ], [ -113.49371, 53.5396 ] ], [ [ -113.4956, 53.53783 ], [ -113.49558, 53.53745 ] ], [ [ -113.49558, 53.53745 ], [ -113.4956, 53.53783 ] ], [ [ -113.49556, 53.53702 ], [ -113.49558, 53.53745 ] ], [ [ -113.49556, 53.53676 ], [ -113.49556, 53.53702 ] ], [ [ -113.49556, 53.53702 ], [ -113.49556, 53.53676 ] ], [ [ -113.49297, 53.57038 ], [ -113.49496, 53.57035 ] ], [ [ -113.4943, 53.54616 ], [ -113.49508, 53.54617 ] ], [ [ -113.49508, 53.54617 ], [ -113.4943, 53.54616 ] ], [ [ -113.49452, 53.55888 ], [ -113.49371, 53.55888 ] ], [ [ -113.49422, 53.56975 ], [ -113.49377, 53.56994 ] ], [ [ -113.49422, 53.56975 ], [ -113.49382, 53.56953 ], [ -113.4937, 53.56882 ] ], [ [ -113.4943, 53.54616 ], [ -113.49368, 53.54615 ] ], [ [ -113.49377, 53.56994 ], [ -113.49376, 53.57015 ], [ -113.49341, 53.57035 ], [ -113.49206, 53.57037 ] ], [ [ -113.4937, 53.56882 ], [ -113.49377, 53.56994 ] ], [ [ -113.49371, 53.5673 ], [ -113.4937, 53.56882 ] ], [ [ -113.4937, 53.56657 ], [ -113.49371, 53.5673 ] ], [ [ -113.49371, 53.5673 ], [ -113.4937, 53.56657 ] ], [ [ -113.4937, 53.56657 ], [ -113.4937, 53.56577 ] ], [ [ -113.4937, 53.56577 ], [ -113.4937, 53.56657 ] ], [ [ -113.49371, 53.56423 ], [ -113.4937, 53.56577 ] ], [ [ -113.49371, 53.5627 ], [ -113.49371, 53.56423 ] ], [ [ -113.49371, 53.56423 ], [ -113.49371, 53.5627 ] ], [ [ -113.49371, 53.56109 ], [ -113.49371, 53.5627 ] ], [ [ -113.49371, 53.5627 ], [ -113.49371, 53.56109 ] ], [ [ -113.49376, 53.55785 ], [ -113.49373, 53.55831 ] ], [ [ -113.49371, 53.55708 ], [ -113.49376, 53.55785 ] ], [ [ -113.49376, 53.55785 ], [ -113.49371, 53.55708 ] ], [ [ -113.49372, 53.56104 ], [ -113.49371, 53.56109 ] ], [ [ -113.49371, 53.55983 ], [ -113.49372, 53.56104 ] ], [ [ -113.49372, 53.56104 ], [ -113.49371, 53.55983 ] ], [ [ -113.49371, 53.55888 ], [ -113.49373, 53.55831 ] ], [ [ -113.49373, 53.55831 ], [ -113.49371, 53.55888 ] ], [ [ -113.49371, 53.55949 ], [ -113.49371, 53.55983 ] ], [ [ -113.49371, 53.55949 ], [ -113.49371, 53.55888 ] ], [ [ -113.49371, 53.55888 ], [ -113.49371, 53.55949 ] ], [ [ -113.49371, 53.55888 ], [ -113.49137, 53.55908 ] ], [ [ -113.49371, 53.55708 ], [ -113.4937, 53.55653 ] ], [ [ -113.4937, 53.55653 ], [ -113.49371, 53.55708 ] ], [ [ -113.49371, 53.55516 ], [ -113.4937, 53.55653 ] ], [ [ -113.49371, 53.55516 ], [ -113.49371, 53.55496 ] ], [ [ -113.49371, 53.55496 ], [ -113.49371, 53.55516 ] ], [ [ -113.49371, 53.55405 ], [ -113.49371, 53.55496 ] ], [ [ -113.49371, 53.55385 ], [ -113.49371, 53.55405 ] ], [ [ -113.49371, 53.55405 ], [ -113.49371, 53.55385 ] ], [ [ -113.49371, 53.55265 ], [ -113.49371, 53.55385 ] ], [ [ -113.49371, 53.55265 ], [ -113.49372, 53.55142 ] ], [ [ -113.49372, 53.55142 ], [ -113.49371, 53.55265 ] ], [ [ -113.49372, 53.55089 ], [ -113.49372, 53.55142 ] ], [ [ -113.49372, 53.55142 ], [ -113.49372, 53.55089 ] ], [ [ -113.49372, 53.54939 ], [ -113.49372, 53.55089 ] ], [ [ -113.49376, 53.54473 ], [ -113.4938, 53.54318 ] ], [ [ -113.49372, 53.54216 ], [ -113.4938, 53.54318 ] ], [ [ -113.4938, 53.54318 ], [ -113.49372, 53.54216 ] ], [ [ -113.49371, 53.5487 ], [ -113.49372, 53.54939 ] ], [ [ -113.49372, 53.54939 ], [ -113.49371, 53.5487 ] ], [ [ -113.49369, 53.54541 ], [ -113.49376, 53.54473 ] ], [ [ -113.49376, 53.54473 ], [ -113.49369, 53.54541 ] ], [ [ -113.49368, 53.54771 ], [ -113.49371, 53.5487 ] ], [ [ -113.49368, 53.54615 ], [ -113.49373, 53.54591 ] ], [ [ -113.49373, 53.54591 ], [ -113.49373, 53.5457 ] ], [ [ -113.49373, 53.5457 ], [ -113.49373, 53.54591 ] ], [ [ -113.49373, 53.5457 ], [ -113.49369, 53.54541 ] ], [ [ -113.49368, 53.54771 ], [ -113.49368, 53.54707 ] ], [ [ -113.49368, 53.54707 ], [ -113.49368, 53.54771 ] ], [ [ -113.49368, 53.54615 ], [ -113.49368, 53.54707 ] ], [ [ -113.49372, 53.54216 ], [ -113.49373, 53.54209 ] ], [ [ -113.49371, 53.541 ], [ -113.49373, 53.54209 ] ], [ [ -113.49373, 53.54209 ], [ -113.49371, 53.541 ] ], [ [ -113.49368, 53.54615 ], [ -113.49299, 53.54616 ] ], [ [ -113.49299, 53.54616 ], [ -113.49368, 53.54615 ] ], [ [ -113.49371, 53.54092 ], [ -113.49373, 53.54031 ] ], [ [ -113.49373, 53.54031 ], [ -113.49373, 53.54021 ] ], [ [ -113.49373, 53.54021 ], [ -113.49373, 53.54031 ] ], [ [ -113.49373, 53.54021 ], [ -113.49371, 53.53974 ] ], [ [ -113.49112, 53.5411 ], [ -113.49371, 53.541 ] ], [ [ -113.49371, 53.541 ], [ -113.49371, 53.54092 ] ], [ [ -113.49371, 53.54092 ], [ -113.49112, 53.5411 ] ], [ [ -113.49371, 53.53974 ], [ -113.49371, 53.5396 ] ], [ [ -113.49371, 53.53974 ], [ -113.49371, 53.5396 ] ], [ [ -113.49019, 53.54055 ], [ -113.48996, 53.53975 ], [ -113.49013, 53.53949 ], [ -113.49135, 53.53892 ], [ -113.49312, 53.53882 ], [ -113.49349, 53.53872 ], [ -113.4937, 53.53848 ] ], [ [ -113.4937, 53.53848 ], [ -113.4937, 53.53821 ], [ -113.49312, 53.53772 ], [ -113.49233, 53.53749 ], [ -113.49111, 53.53783 ], [ -113.49005, 53.53844 ], [ -113.48884, 53.53853 ], [ -113.4855, 53.53747 ], [ -113.48466, 53.53703 ], [ -113.48437, 53.53659 ], [ -113.48399, 53.53439 ], [ -113.48431, 53.53393 ], [ -113.48528, 53.53331 ], [ -113.48557, 53.53297 ], [ -113.48565, 53.53111 ] ], [ [ -113.48565, 53.53111 ], [ -113.48524, 53.53225 ], [ -113.48326, 53.53444 ], [ -113.48332, 53.53505 ], [ -113.48403, 53.53642 ], [ -113.48408, 53.53709 ], [ -113.48479, 53.53746 ], [ -113.48504, 53.53741 ], [ -113.48876, 53.53859 ], [ -113.48982, 53.53861 ], [ -113.49281, 53.53804 ], [ -113.49339, 53.53813 ], [ -113.4937, 53.53848 ] ], [ [ -113.49206, 53.57037 ], [ -113.49297, 53.57038 ] ], [ [ -113.49224, 53.57082 ], [ -113.4924, 53.57058 ], [ -113.49297, 53.57038 ] ], [ [ -113.49121, 53.54622 ], [ -113.49299, 53.54616 ] ], [ [ -113.49228, 53.57998 ], [ -113.4922, 53.58106 ] ], [ [ -113.49227, 53.5797 ], [ -113.49228, 53.57998 ] ], [ [ -113.49228, 53.57998 ], [ -113.49227, 53.5797 ] ], [ [ -113.49226, 53.57942 ], [ -113.49227, 53.5797 ] ], [ [ -113.49226, 53.57942 ], [ -113.49226, 53.57894 ] ], [ [ -113.49226, 53.57894 ], [ -113.49226, 53.57942 ] ], [ [ -113.49227, 53.57726 ], [ -113.49226, 53.57894 ] ], [ [ -113.49229, 53.57624 ], [ -113.49228, 53.57673 ] ], [ [ -113.49228, 53.57673 ], [ -113.49229, 53.57624 ] ], [ [ -113.4923, 53.57394 ], [ -113.49229, 53.57624 ] ], [ [ -113.49228, 53.57673 ], [ -113.49227, 53.57726 ] ], [ [ -113.49227, 53.57726 ], [ -113.49228, 53.57673 ] ], [ [ -113.4923, 53.5735 ], [ -113.49232, 53.57288 ] ], [ [ -113.49232, 53.57288 ], [ -113.4923, 53.5735 ] ], [ [ -113.49227, 53.57093 ], [ -113.49232, 53.57288 ] ], [ [ -113.4923, 53.5735 ], [ -113.4923, 53.57394 ] ], [ [ -113.4923, 53.57394 ], [ -113.4923, 53.5735 ] ], [ [ -113.49217, 53.58125 ], [ -113.4922, 53.58106 ] ], [ [ -113.4922, 53.58106 ], [ -113.49217, 53.58125 ] ], [ [ -113.49174, 53.61766 ], [ -113.49174, 53.61822 ], [ -113.49121, 53.61822 ], [ -113.49103, 53.61796 ], [ -113.48908, 53.61794 ], [ -113.48906, 53.61766 ], [ -113.49174, 53.61766 ] ], [ [ -113.49174, 53.61766 ], [ -113.492, 53.61766 ], [ -113.49205, 53.61608 ] ], [ [ -113.49206, 53.61556 ], [ -113.492, 53.61107 ] ], [ [ -113.49199, 53.60863 ], [ -113.49201, 53.60414 ] ], [ [ -113.4921, 53.60184 ], [ -113.49214, 53.60102 ], [ -113.49188, 53.60034 ] ], [ [ -113.49188, 53.60034 ], [ -113.49179, 53.60191 ] ], [ [ -113.49174, 53.60415 ], [ -113.49174, 53.60862 ] ], [ [ -113.4917, 53.61108 ], [ -113.4917, 53.61554 ] ], [ [ -113.49172, 53.61594 ], [ -113.49174, 53.61766 ] ], [ [ -113.49202, 53.59406 ], [ -113.492, 53.5946 ] ], [ [ -113.492, 53.5946 ], [ -113.49202, 53.59406 ] ], [ [ -113.49202, 53.5929 ], [ -113.49202, 53.59406 ] ], [ [ -113.492, 53.59562 ], [ -113.49199, 53.59588 ] ], [ [ -113.49199, 53.59588 ], [ -113.492, 53.59562 ] ], [ [ -113.492, 53.59538 ], [ -113.492, 53.59562 ] ], [ [ -113.492, 53.59538 ], [ -113.492, 53.5949 ] ], [ [ -113.492, 53.5949 ], [ -113.492, 53.59538 ] ], [ [ -113.49217, 53.58125 ], [ -113.49214, 53.58144 ] ], [ [ -113.49199, 53.59598 ], [ -113.49187, 53.59889 ], [ -113.4917, 53.59918 ], [ -113.49092, 53.59943 ], [ -113.48816, 53.59943 ], [ -113.48816, 53.59962 ] ], [ [ -113.48816, 53.59962 ], [ -113.49037, 53.59961 ], [ -113.49217, 53.59943 ], [ -113.49199, 53.59598 ] ], [ [ -113.49199, 53.59588 ], [ -113.49199, 53.59598 ] ], [ [ -113.49208, 53.58846 ], [ -113.49207, 53.58869 ] ], [ [ -113.49207, 53.58869 ], [ -113.49208, 53.58846 ] ], [ [ -113.49207, 53.5856 ], [ -113.49208, 53.58846 ] ], [ [ -113.492, 53.5946 ], [ -113.492, 53.5949 ] ], [ [ -113.49202, 53.5929 ], [ -113.49202, 53.59273 ] ], [ [ -113.49202, 53.59273 ], [ -113.49202, 53.5929 ] ], [ [ -113.49203, 53.59204 ], [ -113.49202, 53.59273 ] ], [ [ -113.49203, 53.59149 ], [ -113.49203, 53.59204 ] ], [ [ -113.49203, 53.59204 ], [ -113.49203, 53.59149 ] ], [ [ -113.49207, 53.58869 ], [ -113.49204, 53.58959 ] ], [ [ -113.49203, 53.59013 ], [ -113.49203, 53.59149 ] ], [ [ -113.49227, 53.57093 ], [ -113.49224, 53.57082 ] ], [ [ -113.49224, 53.57082 ], [ -113.49227, 53.57093 ] ], [ [ -113.49214, 53.58144 ], [ -113.49214, 53.58149 ] ], [ [ -113.49214, 53.58149 ], [ -113.49214, 53.58144 ] ], [ [ -113.49214, 53.58149 ], [ -113.49207, 53.58479 ] ], [ [ -113.49203, 53.59013 ], [ -113.49204, 53.58959 ] ], [ [ -113.49204, 53.58959 ], [ -113.49203, 53.59013 ] ], [ [ -113.49207, 53.5856 ], [ -113.49207, 53.58479 ] ], [ [ -113.49207, 53.58479 ], [ -113.49207, 53.5856 ] ], [ [ -113.49206, 53.57037 ], [ -113.49224, 53.57082 ] ], [ [ -113.49127, 53.60006 ], [ -113.49146, 53.60026 ], [ -113.49188, 53.60034 ] ], [ [ -113.49151, 53.57038 ], [ -113.49206, 53.57037 ] ], [ [ -113.48815, 53.59986 ], [ -113.4887, 53.59976 ], [ -113.49089, 53.59973 ], [ -113.49132, 53.59986 ], [ -113.49127, 53.60006 ] ], [ [ -113.49127, 53.60006 ], [ -113.49061, 53.59994 ], [ -113.48815, 53.59986 ] ], [ [ -113.49151, 53.57038 ], [ -113.4912, 53.57038 ] ], [ [ -113.4912, 53.57038 ], [ -113.49151, 53.57038 ] ], [ [ -113.49137, 53.55908 ], [ -113.49103, 53.5591 ] ], [ [ -113.49103, 53.5591 ], [ -113.49137, 53.55908 ] ], [ [ -113.49099, 53.57038 ], [ -113.4912, 53.57038 ] ], [ [ -113.49099, 53.57038 ], [ -113.49043, 53.57038 ] ], [ [ -113.49043, 53.57038 ], [ -113.49099, 53.57038 ] ], [ [ -113.49121, 53.54622 ], [ -113.48955, 53.54629 ] ], [ [ -113.48955, 53.54629 ], [ -113.49121, 53.54622 ] ], [ [ -113.49121, 53.54622 ], [ -113.48955, 53.54629 ] ], [ [ -113.48955, 53.54629 ], [ -113.48964, 53.54673 ], [ -113.49129, 53.54663 ], [ -113.49121, 53.54622 ] ], [ [ -113.49103, 53.5591 ], [ -113.49055, 53.55913 ] ], [ [ -113.49112, 53.5411 ], [ -113.49032, 53.54114 ] ], [ [ -113.48883, 53.57039 ], [ -113.49043, 53.57038 ] ], [ [ -113.49055, 53.55913 ], [ -113.49005, 53.55916 ] ], [ [ -113.49005, 53.55916 ], [ -113.49055, 53.55913 ] ], [ [ -113.49032, 53.54114 ], [ -113.48857, 53.54124 ], [ -113.4877, 53.54142 ] ], [ [ -113.49032, 53.54114 ], [ -113.49026, 53.54085 ] ], [ [ -113.49005, 53.55916 ], [ -113.48915, 53.55934 ] ], [ [ -113.49026, 53.54085 ], [ -113.49019, 53.54055 ] ], [ [ -113.49019, 53.54055 ], [ -113.49026, 53.54085 ] ], [ [ -113.48829, 53.54642 ], [ -113.48955, 53.54629 ] ], [ [ -113.48915, 53.55934 ], [ -113.48892, 53.55942 ] ], [ [ -113.48892, 53.55942 ], [ -113.48915, 53.55934 ] ], [ [ -113.48727, 53.57039 ], [ -113.48883, 53.57039 ] ], [ [ -113.48883, 53.57039 ], [ -113.48727, 53.57039 ] ], [ [ -113.48892, 53.55942 ], [ -113.488, 53.55973 ] ], [ [ -113.48816, 53.59962 ], [ -113.48815, 53.59986 ] ], [ [ -113.48829, 53.54642 ], [ -113.48795, 53.54649 ] ], [ [ -113.48795, 53.54649 ], [ -113.48829, 53.54642 ] ], [ [ -113.48761, 53.55986 ], [ -113.488, 53.55973 ] ], [ [ -113.488, 53.55973 ], [ -113.48761, 53.55986 ] ], [ [ -113.48728, 53.54667 ], [ -113.48795, 53.54649 ] ], [ [ -113.48761, 53.55986 ], [ -113.48702, 53.56006 ] ], [ [ -113.4877, 53.54142 ], [ -113.48738, 53.54152 ] ], [ [ -113.48738, 53.54152 ], [ -113.4877, 53.54142 ] ], [ [ -113.48727, 53.57039 ], [ -113.48697, 53.57039 ] ], [ [ -113.48721, 53.57026 ], [ -113.48727, 53.57039 ] ], [ [ -113.48721, 53.57026 ], [ -113.48722, 53.56977 ] ], [ [ -113.48722, 53.56977 ], [ -113.48721, 53.57026 ] ], [ [ -113.48722, 53.56977 ], [ -113.48723, 53.56886 ] ], [ [ -113.48723, 53.56886 ], [ -113.48722, 53.56977 ] ], [ [ -113.48719, 53.56733 ], [ -113.48723, 53.56886 ] ], [ [ -113.48723, 53.56886 ], [ -113.48719, 53.56733 ] ], [ [ -113.48719, 53.5672 ], [ -113.48719, 53.56733 ] ], [ [ -113.48719, 53.5672 ], [ -113.48718, 53.56637 ] ], [ [ -113.48718, 53.56637 ], [ -113.48719, 53.5672 ] ], [ [ -113.48718, 53.56579 ], [ -113.48718, 53.56637 ] ], [ [ -113.48718, 53.56637 ], [ -113.48718, 53.56579 ] ], [ [ -113.48718, 53.56579 ], [ -113.48717, 53.56498 ] ], [ [ -113.48717, 53.56498 ], [ -113.48718, 53.56579 ] ], [ [ -113.48716, 53.56425 ], [ -113.48717, 53.56498 ] ], [ [ -113.48717, 53.56498 ], [ -113.48716, 53.56425 ] ], [ [ -113.48716, 53.56425 ], [ -113.48715, 53.56272 ] ], [ [ -113.48715, 53.56272 ], [ -113.48716, 53.56425 ] ], [ [ -113.48715, 53.56272 ], [ -113.48713, 53.56105 ] ], [ [ -113.48713, 53.56105 ], [ -113.48715, 53.56272 ] ], [ [ -113.48697, 53.54166 ], [ -113.48738, 53.54152 ] ], [ [ -113.48738, 53.54152 ], [ -113.48697, 53.54166 ] ], [ [ -113.48713, 53.56033 ], [ -113.48713, 53.56105 ] ], [ [ -113.48713, 53.56105 ], [ -113.48713, 53.56033 ] ], [ [ -113.48702, 53.56006 ], [ -113.48713, 53.56033 ] ], [ [ -113.48728, 53.54667 ], [ -113.48665, 53.54678 ] ], [ [ -113.48665, 53.54678 ], [ -113.48728, 53.54667 ] ], [ [ -113.48697, 53.57039 ], [ -113.48649, 53.57039 ] ], [ [ -113.48649, 53.57039 ], [ -113.48697, 53.57039 ] ], [ [ -113.48702, 53.56006 ], [ -113.48626, 53.56024 ] ], [ [ -113.48676, 53.55962 ], [ -113.48702, 53.56006 ] ], [ [ -113.48645, 53.55904 ], [ -113.48676, 53.55962 ] ], [ [ -113.48676, 53.55962 ], [ -113.48645, 53.55904 ] ], [ [ -113.48697, 53.54166 ], [ -113.48518, 53.54227 ] ], [ [ -113.48649, 53.57039 ], [ -113.48494, 53.57039 ] ], [ [ -113.48593, 53.5469 ], [ -113.48665, 53.54678 ] ], [ [ -113.48665, 53.54678 ], [ -113.48593, 53.5469 ] ], [ [ -113.48597, 53.55818 ], [ -113.48645, 53.55904 ] ], [ [ -113.48626, 53.56024 ], [ -113.48599, 53.56027 ] ], [ [ -113.48599, 53.56027 ], [ -113.48626, 53.56024 ] ], [ [ -113.48599, 53.56027 ], [ -113.48235, 53.56062 ] ], [ [ -113.48597, 53.55818 ], [ -113.48549, 53.55732 ] ], [ [ -113.48549, 53.55732 ], [ -113.48597, 53.55818 ] ], [ [ -113.48311, 53.54738 ], [ -113.48593, 53.5469 ] ], [ [ -113.48611, 53.52679 ], [ -113.48612, 53.52635 ] ], [ [ -113.48612, 53.52635 ], [ -113.48611, 53.52679 ] ], [ [ -113.48612, 53.52635 ], [ -113.48612, 53.52489 ] ], [ [ -113.48561, 53.53081 ], [ -113.48524, 53.52889 ], [ -113.48611, 53.52694 ] ], [ [ -113.48611, 53.52694 ], [ -113.48611, 53.52679 ] ], [ [ -113.48611, 53.52679 ], [ -113.48611, 53.52694 ] ], [ [ -113.48612, 53.52489 ], [ -113.48612, 53.52447 ] ], [ [ -113.48612, 53.52447 ], [ -113.48612, 53.52489 ] ], [ [ -113.48612, 53.52351 ], [ -113.48612, 53.52447 ] ], [ [ -113.48612, 53.52447 ], [ -113.48612, 53.52351 ] ], [ [ -113.48613, 53.52265 ], [ -113.48614, 53.52179 ] ], [ [ -113.48614, 53.52179 ], [ -113.48613, 53.52265 ] ], [ [ -113.48614, 53.52179 ], [ -113.48614, 53.52094 ] ], [ [ -113.48614, 53.52094 ], [ -113.48614, 53.52179 ] ], [ [ -113.48613, 53.52265 ], [ -113.48612, 53.52351 ] ], [ [ -113.48612, 53.52351 ], [ -113.48613, 53.52265 ] ], [ [ -113.48614, 53.52047 ], [ -113.48614, 53.52094 ] ], [ [ -113.48614, 53.52094 ], [ -113.48614, 53.52047 ] ], [ [ -113.4754, 53.51804 ], [ -113.48617, 53.5181 ] ], [ [ -113.48616, 53.51875 ], [ -113.48617, 53.5181 ] ], [ [ -113.48617, 53.51802 ], [ -113.48617, 53.5181 ] ], [ [ -113.48617, 53.51802 ], [ -113.4754, 53.51804 ] ], [ [ -113.48615, 53.51905 ], [ -113.48616, 53.51875 ] ], [ [ -113.48616, 53.51875 ], [ -113.48615, 53.51905 ] ], [ [ -113.48614, 53.52047 ], [ -113.48615, 53.51905 ] ], [ [ -113.48502, 53.55647 ], [ -113.48549, 53.55732 ] ], [ [ -113.48565, 53.53111 ], [ -113.48563, 53.53091 ] ], [ [ -113.48561, 53.53081 ], [ -113.48563, 53.53091 ] ], [ [ -113.48563, 53.53091 ], [ -113.48561, 53.53081 ] ], [ [ -113.48422, 53.57039 ], [ -113.48494, 53.57039 ] ], [ [ -113.48494, 53.57039 ], [ -113.48422, 53.57039 ] ], [ [ -113.48485, 53.55616 ], [ -113.48502, 53.55647 ] ], [ [ -113.48502, 53.55647 ], [ -113.48485, 53.55616 ] ], [ [ -113.48518, 53.54227 ], [ -113.48472, 53.54242 ] ], [ [ -113.48472, 53.54242 ], [ -113.48518, 53.54227 ] ], [ [ -113.48485, 53.55616 ], [ -113.48454, 53.55561 ] ], [ [ -113.48454, 53.55561 ], [ -113.48485, 53.55616 ] ], [ [ -113.48472, 53.54242 ], [ -113.48282, 53.54323 ] ], [ [ -113.48406, 53.55474 ], [ -113.48454, 53.55561 ] ], [ [ -113.48422, 53.57039 ], [ -113.48271, 53.57039 ] ], [ [ -113.48271, 53.57039 ], [ -113.48422, 53.57039 ] ], [ [ -113.48388, 53.55445 ], [ -113.48406, 53.55474 ] ], [ [ -113.48406, 53.55474 ], [ -113.48388, 53.55445 ] ], [ [ -113.48388, 53.55445 ], [ -113.48354, 53.55388 ] ], [ [ -113.48354, 53.55388 ], [ -113.48388, 53.55445 ] ], [ [ -113.48354, 53.55388 ], [ -113.48004, 53.55459 ] ], [ [ -113.48346, 53.55373 ], [ -113.48354, 53.55388 ] ], [ [ -113.48346, 53.55373 ], [ -113.48307, 53.55302 ] ], [ [ -113.48307, 53.55302 ], [ -113.48346, 53.55373 ] ], [ [ -113.48259, 53.55216 ], [ -113.48307, 53.55302 ] ], [ [ -113.48307, 53.55302 ], [ -113.48259, 53.55216 ] ], [ [ -113.4828, 53.54743 ], [ -113.48311, 53.54738 ] ], [ [ -113.48311, 53.54738 ], [ -113.4828, 53.54743 ] ], [ [ -113.48271, 53.57039 ], [ -113.48044, 53.57039 ] ], [ [ -113.48106, 53.54773 ], [ -113.4828, 53.54743 ] ], [ [ -113.48245, 53.54342 ], [ -113.48282, 53.54323 ] ], [ [ -113.48282, 53.54323 ], [ -113.48245, 53.54342 ] ], [ [ -113.48259, 53.55216 ], [ -113.48213, 53.55136 ] ], [ [ -113.48213, 53.55136 ], [ -113.48259, 53.55216 ] ], [ [ -113.48188, 53.5607 ], [ -113.48235, 53.56062 ] ], [ [ -113.48235, 53.56062 ], [ -113.48188, 53.5607 ] ], [ [ -113.48245, 53.54342 ], [ -113.4816, 53.54384 ] ], [ [ -113.4817, 53.55056 ], [ -113.48213, 53.55136 ] ], [ [ -113.48213, 53.55136 ], [ -113.4817, 53.55056 ] ], [ [ -113.48188, 53.5607 ], [ -113.47986, 53.56106 ], [ -113.47906, 53.56109 ] ], [ [ -113.4814, 53.55006 ], [ -113.4817, 53.55056 ] ], [ [ -113.4815, 53.54389 ], [ -113.4816, 53.54384 ] ], [ [ -113.4816, 53.54384 ], [ -113.4815, 53.54389 ] ], [ [ -113.4815, 53.54389 ], [ -113.47965, 53.54483 ] ], [ [ -113.4814, 53.55006 ], [ -113.48115, 53.54963 ] ], [ [ -113.48115, 53.54963 ], [ -113.4814, 53.55006 ] ], [ [ -113.48115, 53.54963 ], [ -113.48072, 53.54873 ] ], [ [ -113.48072, 53.54873 ], [ -113.48115, 53.54963 ] ], [ [ -113.4809, 53.54776 ], [ -113.48106, 53.54773 ] ], [ [ -113.48106, 53.54773 ], [ -113.4809, 53.54776 ] ], [ [ -113.48023, 53.54788 ], [ -113.4809, 53.54776 ] ], [ [ -113.48023, 53.54788 ], [ -113.48072, 53.54873 ] ], [ [ -113.48072, 53.54873 ], [ -113.48023, 53.54788 ] ], [ [ -113.47972, 53.57039 ], [ -113.48044, 53.57039 ] ], [ [ -113.48044, 53.57039 ], [ -113.47972, 53.57039 ] ], [ [ -113.47977, 53.54702 ], [ -113.48023, 53.54788 ] ], [ [ -113.47972, 53.57039 ], [ -113.47889, 53.57039 ] ], [ [ -113.47889, 53.57039 ], [ -113.47972, 53.57039 ] ], [ [ -113.47977, 53.54702 ], [ -113.47937, 53.54628 ] ], [ [ -113.47937, 53.54628 ], [ -113.47977, 53.54702 ] ], [ [ -113.47965, 53.54483 ], [ -113.4795, 53.54491 ] ], [ [ -113.4795, 53.54491 ], [ -113.47965, 53.54483 ] ], [ [ -113.4795, 53.54491 ], [ -113.47926, 53.54504 ] ], [ [ -113.47882, 53.54528 ], [ -113.47937, 53.54628 ] ], [ [ -113.47926, 53.54504 ], [ -113.47865, 53.54497 ] ], [ [ -113.47926, 53.54504 ], [ -113.47882, 53.54528 ] ], [ [ -113.47848, 53.5611 ], [ -113.47906, 53.56109 ] ], [ [ -113.47906, 53.56109 ], [ -113.47848, 53.5611 ] ], [ [ -113.47822, 53.57039 ], [ -113.47889, 53.57039 ] ], [ [ -113.47889, 53.57039 ], [ -113.47822, 53.57039 ] ], [ [ -113.47882, 53.54528 ], [ -113.47863, 53.54541 ] ], [ [ -113.47865, 53.54497 ], [ -113.47882, 53.54528 ] ], [ [ -113.47848, 53.5611 ], [ -113.47762, 53.5611 ] ], [ [ -113.47856, 53.5448 ], [ -113.47865, 53.54497 ] ], [ [ -113.47863, 53.54541 ], [ -113.47843, 53.54557 ] ], [ [ -113.47843, 53.54557 ], [ -113.47863, 53.54541 ] ], [ [ -113.4785, 53.54468 ], [ -113.47856, 53.5448 ] ], [ [ -113.47856, 53.5448 ], [ -113.4785, 53.54468 ] ], [ [ -113.47822, 53.57039 ], [ -113.47796, 53.57039 ] ], [ [ -113.4785, 53.54468 ], [ -113.47841, 53.5445 ] ], [ [ -113.47841, 53.5445 ], [ -113.4785, 53.54468 ] ], [ [ -113.47843, 53.54557 ], [ -113.47561, 53.54823 ] ], [ [ -113.47236, 53.54758 ], [ -113.47316, 53.54731 ], [ -113.47364, 53.54698 ], [ -113.47451, 53.54579 ] ], [ [ -113.47465, 53.54558 ], [ -113.47549, 53.54427 ], [ -113.47584, 53.54404 ], [ -113.47804, 53.5438 ], [ -113.47841, 53.5445 ] ], [ [ -113.47796, 53.57039 ], [ -113.47674, 53.57039 ] ], [ [ -113.47674, 53.57039 ], [ -113.47796, 53.57039 ] ], [ [ -113.47681, 53.5611 ], [ -113.47762, 53.5611 ] ], [ [ -113.47762, 53.5611 ], [ -113.47681, 53.5611 ] ], [ [ -113.47674, 53.57039 ], [ -113.47613, 53.57039 ] ], [ [ -113.47681, 53.5611 ], [ -113.47662, 53.5611 ] ], [ [ -113.47622, 53.5611 ], [ -113.47662, 53.5611 ] ], [ [ -113.47662, 53.5611 ], [ -113.47622, 53.5611 ] ], [ [ -113.47577, 53.57039 ], [ -113.47613, 53.57039 ] ], [ [ -113.47613, 53.57039 ], [ -113.47577, 53.57039 ] ], [ [ -113.47622, 53.5611 ], [ -113.47586, 53.5611 ] ], [ [ -113.47577, 53.57039 ], [ -113.47479, 53.57039 ] ], [ [ -113.47332, 53.56114 ], [ -113.47586, 53.5611 ] ], [ [ -113.47586, 53.5611 ], [ -113.47332, 53.56102 ] ], [ [ -113.47461, 53.55831 ], [ -113.47409, 53.55875 ] ], [ [ -113.47561, 53.54823 ], [ -113.47547, 53.54839 ] ], [ [ -113.47547, 53.54839 ], [ -113.47561, 53.54823 ] ], [ [ -113.47547, 53.54839 ], [ -113.47494, 53.5491 ] ], [ [ -113.47479, 53.57039 ], [ -113.47441, 53.57039 ] ], [ [ -113.47441, 53.57039 ], [ -113.47479, 53.57039 ] ], [ [ -113.4754, 53.51804 ], [ -113.47084, 53.51803 ] ], [ [ -113.47487, 53.54921 ], [ -113.47494, 53.5491 ] ], [ [ -113.47494, 53.5491 ], [ -113.47487, 53.54921 ] ], [ [ -113.47487, 53.54921 ], [ -113.47364, 53.55086 ] ], [ [ -113.47441, 53.57039 ], [ -113.47331, 53.57039 ] ], [ [ -113.47333, 53.5601 ], [ -113.47347, 53.55941 ], [ -113.47409, 53.55875 ] ], [ [ -113.47409, 53.55875 ], [ -113.47314, 53.55839 ], [ -113.47252, 53.55886 ] ], [ [ -113.47364, 53.55086 ], [ -113.47346, 53.55112 ] ], [ [ -113.47346, 53.55112 ], [ -113.47364, 53.55086 ] ], [ [ -113.47264, 53.57039 ], [ -113.47331, 53.57039 ] ], [ [ -113.47331, 53.57039 ], [ -113.47264, 53.57039 ] ], [ [ -113.47346, 53.55112 ], [ -113.47335, 53.55128 ] ], [ [ -113.47332, 53.56102 ], [ -113.46731, 53.56123 ] ], [ [ -113.47332, 53.56114 ], [ -113.47332, 53.56102 ] ], [ [ -113.47332, 53.56102 ], [ -113.47333, 53.5601 ] ], [ [ -113.46731, 53.56123 ], [ -113.47332, 53.56114 ] ], [ [ -113.47138, 53.5599 ], [ -113.47166, 53.5601 ], [ -113.47333, 53.5601 ] ], [ [ -113.47335, 53.55128 ], [ -113.47327, 53.55141 ] ], [ [ -113.47327, 53.55141 ], [ -113.47335, 53.55128 ] ], [ [ -113.47327, 53.55141 ], [ -113.47275, 53.55276 ] ], [ [ -113.47264, 53.57039 ], [ -113.47179, 53.57039 ] ], [ [ -113.47265, 53.55304 ], [ -113.47275, 53.55276 ] ], [ [ -113.47275, 53.55276 ], [ -113.47265, 53.55304 ] ], [ [ -113.47257, 53.55327 ], [ -113.47265, 53.55304 ] ], [ [ -113.47265, 53.55304 ], [ -113.47257, 53.55327 ] ], [ [ -113.47252, 53.55886 ], [ -113.47138, 53.5599 ] ], [ [ -113.47252, 53.55886 ], [ -113.47206, 53.55928 ] ], [ [ -113.47252, 53.55886 ], [ -113.47206, 53.55928 ] ], [ [ -113.47257, 53.55327 ], [ -113.47212, 53.5542 ], [ -113.471, 53.55516 ] ], [ [ -113.47236, 53.54758 ], [ -113.47191, 53.54769 ] ], [ [ -113.47191, 53.54769 ], [ -113.47236, 53.54758 ] ], [ [ -113.47206, 53.55928 ], [ -113.47138, 53.5599 ] ], [ [ -113.47206, 53.55928 ], [ -113.47138, 53.5599 ] ], [ [ -113.47122, 53.57039 ], [ -113.47179, 53.57039 ] ], [ [ -113.47179, 53.57039 ], [ -113.47122, 53.57039 ] ], [ [ -113.47111, 53.54786 ], [ -113.47191, 53.54769 ] ], [ [ -113.47122, 53.57039 ], [ -113.47029, 53.57039 ] ], [ [ -113.47045, 53.548 ], [ -113.47111, 53.54786 ] ], [ [ -113.47111, 53.54786 ], [ -113.47045, 53.548 ] ], [ [ -113.47084, 53.55527 ], [ -113.471, 53.55516 ] ], [ [ -113.471, 53.55516 ], [ -113.47084, 53.55527 ] ], [ [ -113.47086, 53.55808 ], [ -113.47089, 53.55795 ] ], [ [ -113.47089, 53.55768 ], [ -113.47089, 53.55795 ] ], [ [ -113.47089, 53.55795 ], [ -113.47089, 53.55768 ] ], [ [ -113.47089, 53.55768 ], [ -113.4709, 53.55677 ] ], [ [ -113.47089, 53.55594 ], [ -113.4709, 53.55677 ] ], [ [ -113.4709, 53.55677 ], [ -113.47089, 53.55594 ] ], [ [ -113.47044, 53.55964 ], [ -113.47074, 53.5595 ], [ -113.47089, 53.55921 ], [ -113.47087, 53.55849 ] ], [ [ -113.47086, 53.55808 ], [ -113.47087, 53.55849 ] ], [ [ -113.47087, 53.55849 ], [ -113.47086, 53.55808 ] ], [ [ -113.47089, 53.55594 ], [ -113.47055, 53.55544 ] ], [ [ -113.47084, 53.55527 ], [ -113.47055, 53.55544 ] ], [ [ -113.47055, 53.55544 ], [ -113.46738, 53.55686 ], [ -113.4673, 53.55951 ] ], [ [ -113.47017, 53.55964 ], [ -113.47044, 53.55964 ] ], [ [ -113.47044, 53.55964 ], [ -113.47017, 53.55964 ] ], [ [ -113.47029, 53.57039 ], [ -113.46909, 53.57039 ] ], [ [ -113.46909, 53.57039 ], [ -113.47029, 53.57039 ] ], [ [ -113.47015, 53.51803 ], [ -113.47084, 53.51803 ] ], [ [ -113.47084, 53.51803 ], [ -113.47015, 53.51803 ] ], [ [ -113.46497, 53.54924 ], [ -113.47045, 53.548 ] ], [ [ -113.47017, 53.55964 ], [ -113.46996, 53.55964 ] ], [ [ -113.46996, 53.55964 ], [ -113.47017, 53.55964 ] ], [ [ -113.46905, 53.55964 ], [ -113.46996, 53.55964 ] ], [ [ -113.47015, 53.51803 ], [ -113.46994, 53.51803 ] ], [ [ -113.46953, 53.51803 ], [ -113.46994, 53.51803 ] ], [ [ -113.46994, 53.51803 ], [ -113.46953, 53.51803 ] ], [ [ -113.46909, 53.57039 ], [ -113.46811, 53.5704 ] ], [ [ -113.4681, 53.55963 ], [ -113.46905, 53.55964 ] ], [ [ -113.46905, 53.55964 ], [ -113.4681, 53.55963 ] ], [ [ -113.46953, 53.51803 ], [ -113.46828, 53.51804 ] ], [ [ -113.46729, 53.5704 ], [ -113.46811, 53.5704 ] ], [ [ -113.46811, 53.5704 ], [ -113.46729, 53.5704 ] ], [ [ -113.4681, 53.55963 ], [ -113.46754, 53.55954 ] ], [ [ -113.46754, 53.55954 ], [ -113.4681, 53.55963 ] ], [ [ -113.46796, 53.51804 ], [ -113.46828, 53.51804 ] ], [ [ -113.46828, 53.51804 ], [ -113.46796, 53.51804 ] ], [ [ -113.4673, 53.55951 ], [ -113.46754, 53.55954 ] ], [ [ -113.46734, 53.5689 ], [ -113.46732, 53.56937 ] ], [ [ -113.46732, 53.56937 ], [ -113.46734, 53.5689 ] ], [ [ -113.46734, 53.5689 ], [ -113.46734, 53.56813 ] ], [ [ -113.46729, 53.5704 ], [ -113.46732, 53.56937 ] ], [ [ -113.46796, 53.51804 ], [ -113.46693, 53.51804 ] ], [ [ -113.46626, 53.57041 ], [ -113.46729, 53.5704 ] ], [ [ -113.46729, 53.5704 ], [ -113.46626, 53.57041 ] ], [ [ -113.46733, 53.56189 ], [ -113.46732, 53.56166 ] ], [ [ -113.46732, 53.56166 ], [ -113.46731, 53.56123 ] ], [ [ -113.46731, 53.56123 ], [ -113.46732, 53.56166 ] ], [ [ -113.46729, 53.56087 ], [ -113.46731, 53.56123 ] ], [ [ -113.46729, 53.56087 ], [ -113.46729, 53.56074 ] ], [ [ -113.46729, 53.56074 ], [ -113.46729, 53.56087 ] ], [ [ -113.4673, 53.55951 ], [ -113.46729, 53.56074 ] ], [ [ -113.46693, 53.51804 ], [ -113.46649, 53.51804 ] ], [ [ -113.46649, 53.51804 ], [ -113.46693, 53.51804 ] ], [ [ -113.46493, 53.5704 ], [ -113.46626, 53.57041 ] ], [ [ -113.46497, 53.51805 ], [ -113.46649, 53.51804 ] ], [ [ -113.46649, 53.51804 ], [ -113.46497, 53.51805 ] ], [ [ -113.46463, 53.5704 ], [ -113.46493, 53.5704 ] ], [ [ -113.46493, 53.5704 ], [ -113.46463, 53.5704 ] ], [ [ -113.46497, 53.54924 ], [ -113.46246, 53.54957 ] ], [ [ -113.46246, 53.54957 ], [ -113.46497, 53.54924 ] ], [ [ -113.46404, 53.5704 ], [ -113.46463, 53.5704 ] ], [ [ -113.46497, 53.51805 ], [ -113.46438, 53.51805 ] ], [ [ -113.46404, 53.5704 ], [ -113.46315, 53.57039 ] ], [ [ -113.46315, 53.57039 ], [ -113.46404, 53.5704 ] ], [ [ -113.46438, 53.51805 ], [ -113.46308, 53.51805 ] ], [ [ -113.46308, 53.51805 ], [ -113.46438, 53.51805 ] ], [ [ -113.46098, 53.5704 ], [ -113.46315, 53.57039 ] ], [ [ -113.46135, 53.51805 ], [ -113.46308, 53.51805 ] ], [ [ -113.46308, 53.51805 ], [ -113.46135, 53.51805 ] ], [ [ -113.45647, 53.54934 ], [ -113.45717, 53.54935 ], [ -113.4588, 53.54999 ], [ -113.45987, 53.55005 ] ], [ [ -113.46053, 53.54994 ], [ -113.46246, 53.54957 ] ], [ [ -113.45064, 53.57038 ], [ -113.46098, 53.5704 ] ], [ [ -113.46097, 53.57059 ], [ -113.46098, 53.5704 ] ], [ [ -113.46098, 53.5704 ], [ -113.4525, 53.5703 ], [ -113.45064, 53.57038 ] ], [ [ -113.46097, 53.57059 ], [ -113.46081, 53.57069 ], [ -113.45977, 53.57078 ] ], [ [ -113.46055, 53.57089 ], [ -113.46094, 53.57077 ], [ -113.46097, 53.57059 ] ], [ [ -113.46135, 53.51805 ], [ -113.46046, 53.51805 ] ], [ [ -113.46046, 53.51805 ], [ -113.46135, 53.51805 ] ], [ [ -113.45961, 53.57099 ], [ -113.46055, 53.57089 ] ], [ [ -113.45961, 53.57099 ], [ -113.46055, 53.57089 ] ], [ [ -113.46046, 53.51805 ], [ -113.45914, 53.51805 ] ], [ [ -113.45977, 53.57078 ], [ -113.45915, 53.57084 ] ], [ [ -113.45977, 53.57078 ], [ -113.45915, 53.57084 ] ], [ [ -113.45925, 53.57101 ], [ -113.45961, 53.57099 ] ], [ [ -113.45881, 53.57102 ], [ -113.45925, 53.57101 ] ], [ [ -113.45881, 53.57102 ], [ -113.45925, 53.57101 ] ], [ [ -113.45915, 53.57084 ], [ -113.45901, 53.57088 ] ], [ [ -113.45915, 53.57084 ], [ -113.45901, 53.57088 ] ], [ [ -113.45901, 53.57088 ], [ -113.45881, 53.57102 ] ], [ [ -113.45861, 53.57117 ], [ -113.45881, 53.57102 ] ], [ [ -113.45861, 53.57117 ], [ -113.45829, 53.57147 ] ], [ [ -113.45829, 53.57147 ], [ -113.45861, 53.57117 ] ], [ [ -113.45862, 53.51805 ], [ -113.45914, 53.51805 ] ], [ [ -113.45914, 53.51805 ], [ -113.45862, 53.51805 ] ], [ [ -113.45803, 53.57199 ], [ -113.45829, 53.57147 ] ], [ [ -113.45802, 53.57297 ], [ -113.45803, 53.57199 ] ], [ [ -113.45803, 53.57199 ], [ -113.45802, 53.57297 ] ], [ [ -113.45862, 53.51805 ], [ -113.45825, 53.51805 ] ], [ [ -113.45522, 53.51811 ], [ -113.45825, 53.51805 ] ], [ [ -113.45825, 53.51805 ], [ -113.45207, 53.51806 ] ], [ [ -113.45647, 53.54934 ], [ -113.45558, 53.54935 ] ], [ [ -113.45558, 53.54935 ], [ -113.45647, 53.54934 ] ], [ [ -113.45508, 53.54935 ], [ -113.45558, 53.54935 ] ], [ [ -113.45452, 53.54935 ], [ -113.45508, 53.54935 ] ], [ [ -113.45508, 53.54935 ], [ -113.45452, 53.54935 ] ], [ [ -113.45207, 53.51806 ], [ -113.45522, 53.51811 ] ], [ [ -113.44904, 53.51806 ], [ -113.44904, 53.52029 ] ], [ [ -113.45512, 53.5202 ], [ -113.45522, 53.51811 ] ], [ [ -113.45333, 53.54935 ], [ -113.45452, 53.54935 ] ], [ [ -113.45268, 53.4973 ], [ -113.45502, 53.49704 ] ], [ [ -113.45502, 53.49643 ], [ -113.45502, 53.49704 ] ], [ [ -113.45502, 53.49704 ], [ -113.45502, 53.49643 ] ], [ [ -113.45502, 53.49643 ], [ -113.45503, 53.49487 ] ], [ [ -113.45503, 53.49487 ], [ -113.45502, 53.49392 ] ], [ [ -113.45502, 53.49392 ], [ -113.45503, 53.49487 ] ], [ [ -113.45502, 53.49392 ], [ -113.45502, 53.49368 ] ], [ [ -113.45502, 53.49368 ], [ -113.45501, 53.49305 ] ], [ [ -113.45501, 53.49305 ], [ -113.45502, 53.49368 ] ], [ [ -113.45501, 53.49305 ], [ -113.45498, 53.49071 ] ], [ [ -113.45248, 53.54935 ], [ -113.45333, 53.54935 ] ], [ [ -113.45333, 53.54935 ], [ -113.45248, 53.54935 ] ], [ [ -113.45248, 53.54935 ], [ -113.45186, 53.54935 ] ], [ [ -113.45186, 53.54935 ], [ -113.45248, 53.54935 ] ], [ [ -113.45227, 53.49736 ], [ -113.45268, 53.4973 ] ], [ [ -113.45268, 53.4973 ], [ -113.45227, 53.49736 ] ], [ [ -113.45015, 53.54935 ], [ -113.45186, 53.54935 ] ], [ [ -113.45207, 53.51806 ], [ -113.45192, 53.51806 ] ], [ [ -113.44963, 53.49918 ], [ -113.45184, 53.49754 ], [ -113.45227, 53.49736 ] ], [ [ -113.45192, 53.51806 ], [ -113.45164, 53.51806 ] ], [ [ -113.45164, 53.51806 ], [ -113.45192, 53.51806 ] ], [ [ -113.45164, 53.51806 ], [ -113.45031, 53.51806 ] ], [ [ -113.44961, 53.57039 ], [ -113.45064, 53.57038 ] ], [ [ -113.45015, 53.54935 ], [ -113.44927, 53.54935 ] ], [ [ -113.44927, 53.54935 ], [ -113.45015, 53.54935 ] ], [ [ -113.44904, 53.51806 ], [ -113.45031, 53.51806 ] ], [ [ -113.45031, 53.51806 ], [ -113.44904, 53.51806 ] ], [ [ -113.44961, 53.57039 ], [ -113.44914, 53.57039 ] ], [ [ -113.44914, 53.57039 ], [ -113.44961, 53.57039 ] ], [ [ -113.44871, 53.57039 ], [ -113.44914, 53.57039 ] ], [ [ -113.44848, 53.54935 ], [ -113.44927, 53.54935 ] ], [ [ -113.44927, 53.54935 ], [ -113.44848, 53.54935 ] ], [ [ -113.44927, 53.54935 ], [ -113.44928, 53.54855 ] ], [ [ -113.44928, 53.54855 ], [ -113.44927, 53.54935 ] ], [ [ -113.44928, 53.54794 ], [ -113.44928, 53.54855 ] ], [ [ -113.44928, 53.54855 ], [ -113.44928, 53.54794 ] ], [ [ -113.44928, 53.54723 ], [ -113.44928, 53.54794 ] ], [ [ -113.44815, 53.57039 ], [ -113.44871, 53.57039 ] ], [ [ -113.44871, 53.57039 ], [ -113.44815, 53.57039 ] ], [ [ -113.44963, 53.49918 ], [ -113.44944, 53.49932 ] ], [ [ -113.44944, 53.49932 ], [ -113.44963, 53.49918 ] ], [ [ -113.4487, 53.49985 ], [ -113.44944, 53.49932 ] ], [ [ -113.44944, 53.49932 ], [ -113.4487, 53.49985 ] ], [ [ -113.44904, 53.51806 ], [ -113.44814, 53.51806 ] ], [ [ -113.44814, 53.51806 ], [ -113.44904, 53.51806 ] ], [ [ -113.44848, 53.54935 ], [ -113.44771, 53.54935 ] ], [ [ -113.44612, 53.57039 ], [ -113.44815, 53.57039 ] ], [ [ -113.44579, 53.50033 ], [ -113.44585, 53.50139 ], [ -113.44746, 53.50132 ] ], [ [ -113.44765, 53.50129 ], [ -113.44849, 53.50081 ], [ -113.4487, 53.49985 ] ], [ [ -113.44814, 53.51806 ], [ -113.44509, 53.51805 ] ], [ [ -113.44771, 53.54935 ], [ -113.44665, 53.54935 ] ], [ [ -113.44665, 53.54935 ], [ -113.44771, 53.54935 ] ], [ [ -113.44665, 53.54935 ], [ -113.44614, 53.54935 ] ], [ [ -113.44612, 53.57039 ], [ -113.44538, 53.57038 ] ], [ [ -113.44538, 53.57038 ], [ -113.44612, 53.57039 ] ], [ [ -113.44611, 53.54935 ], [ -113.44614, 53.54935 ] ], [ [ -113.44614, 53.54935 ], [ -113.44611, 53.54935 ] ], [ [ -113.44464, 53.57037 ], [ -113.44538, 53.57038 ] ], [ [ -113.44579, 53.50033 ], [ -113.44507, 53.50034 ], [ -113.4444, 53.5006 ], [ -113.44318, 53.49955 ], [ -113.44384, 53.49924 ], [ -113.44459, 53.49991 ] ], [ [ -113.44459, 53.49991 ], [ -113.44496, 53.50024 ], [ -113.44578, 53.50009 ], [ -113.44579, 53.50033 ] ], [ [ -113.44406, 53.57037 ], [ -113.44464, 53.57037 ] ], [ [ -113.44464, 53.57037 ], [ -113.44406, 53.57037 ] ], [ [ -113.4187, 53.53735 ], [ -113.41869, 53.52232 ], [ -113.41885, 53.52205 ], [ -113.41905, 53.522 ], [ -113.41971, 53.52216 ], [ -113.42867, 53.52495 ], [ -113.42993, 53.52523 ], [ -113.44301, 53.52529 ], [ -113.443, 53.51856 ], [ -113.44317, 53.51824 ], [ -113.44351, 53.5181 ], [ -113.44509, 53.51805 ] ], [ [ -113.44509, 53.51805 ], [ -113.44282, 53.518 ], [ -113.44283, 53.52461 ], [ -113.44242, 53.52501 ], [ -113.44182, 53.52518 ], [ -113.42997, 53.52515 ], [ -113.42872, 53.52486 ], [ -113.42121, 53.52253 ], [ -113.41847, 53.52158 ], [ -113.41859, 53.53737 ] ], [ [ -113.44285, 53.57037 ], [ -113.44406, 53.57037 ] ], [ [ -113.44285, 53.57037 ], [ -113.44251, 53.57037 ] ], [ [ -113.44251, 53.57037 ], [ -113.44285, 53.57037 ] ], [ [ -113.43989, 53.57038 ], [ -113.44251, 53.57037 ] ], [ [ -113.43815, 53.57037 ], [ -113.43989, 53.57038 ] ], [ [ -113.43989, 53.57038 ], [ -113.43815, 53.57037 ] ], [ [ -113.4364, 53.57037 ], [ -113.43815, 53.57037 ] ], [ [ -113.4364, 53.57037 ], [ -113.43583, 53.57037 ] ], [ [ -113.43583, 53.57037 ], [ -113.4364, 53.57037 ] ], [ [ -113.4353, 53.57037 ], [ -113.43583, 53.57037 ] ], [ [ -113.43583, 53.57037 ], [ -113.4353, 53.57037 ] ], [ [ -113.43294, 53.57037 ], [ -113.4353, 53.57037 ] ], [ [ -113.43225, 53.57037 ], [ -113.43294, 53.57037 ] ], [ [ -113.43294, 53.57037 ], [ -113.43225, 53.57037 ] ], [ [ -113.43225, 53.57037 ], [ -113.4319, 53.57037 ] ], [ [ -113.4319, 53.57037 ], [ -113.43225, 53.57037 ] ], [ [ -113.43022, 53.57037 ], [ -113.4319, 53.57037 ] ], [ [ -113.42918, 53.57037 ], [ -113.43022, 53.57037 ] ], [ [ -113.43022, 53.57037 ], [ -113.42918, 53.57037 ] ], [ [ -113.42918, 53.57037 ], [ -113.42835, 53.57037 ] ], [ [ -113.42835, 53.57037 ], [ -113.42918, 53.57037 ] ], [ [ -113.42764, 53.57037 ], [ -113.42835, 53.57037 ] ], [ [ -113.42611, 53.57036 ], [ -113.42764, 53.57037 ] ], [ [ -113.42764, 53.57037 ], [ -113.42611, 53.57036 ] ], [ [ -113.42611, 53.57036 ], [ -113.4254, 53.57036 ] ], [ [ -113.4254, 53.57036 ], [ -113.42611, 53.57036 ] ], [ [ -113.42458, 53.57036 ], [ -113.4254, 53.57036 ] ], [ [ -113.42306, 53.57036 ], [ -113.42458, 53.57036 ] ], [ [ -113.42458, 53.57036 ], [ -113.42306, 53.57036 ] ], [ [ -113.42339, 53.53843 ], [ -113.427, 53.53853 ] ], [ [ -113.42662, 53.5397 ], [ -113.42327, 53.5407 ], [ -113.42334, 53.54095 ] ], [ [ -113.42349, 53.54094 ], [ -113.42342, 53.54082 ], [ -113.42639, 53.53994 ] ], [ [ -113.42696, 53.53832 ], [ -113.42339, 53.53831 ] ], [ [ -113.42306, 53.57036 ], [ -113.42153, 53.57036 ] ], [ [ -113.42153, 53.57036 ], [ -113.42306, 53.57036 ] ], [ [ -113.42339, 53.53843 ], [ -113.42339, 53.53831 ] ], [ [ -113.42339, 53.53831 ], [ -113.42225, 53.53828 ] ], [ [ -113.42338, 53.53854 ], [ -113.42339, 53.53843 ] ], [ [ -113.42222, 53.53852 ], [ -113.4225, 53.53864 ], [ -113.42318, 53.53865 ], [ -113.42338, 53.53854 ] ], [ [ -113.42222, 53.53852 ], [ -113.42338, 53.53854 ] ], [ [ -113.42225, 53.53828 ], [ -113.42223, 53.53842 ] ], [ [ -113.42225, 53.53828 ], [ -113.42089, 53.53804 ], [ -113.41945, 53.53748 ], [ -113.4187, 53.53735 ] ], [ [ -113.42223, 53.53842 ], [ -113.42222, 53.53852 ] ], [ [ -113.42072, 53.53813 ], [ -113.42223, 53.53842 ] ], [ [ -113.41965, 53.57036 ], [ -113.42153, 53.57036 ] ], [ [ -113.41993, 53.53786 ], [ -113.42072, 53.53813 ] ], [ [ -113.41993, 53.53786 ], [ -113.42072, 53.53813 ] ], [ [ -113.41923, 53.57036 ], [ -113.41965, 53.57036 ] ], [ [ -113.41965, 53.57036 ], [ -113.41923, 53.57036 ] ], [ [ -113.41859, 53.53737 ], [ -113.41993, 53.53786 ] ], [ [ -113.41868, 53.53992 ], [ -113.41869, 53.53814 ], [ -113.41931, 53.53782 ], [ -113.41993, 53.53786 ] ], [ [ -113.41842, 53.57036 ], [ -113.41923, 53.57036 ] ], [ [ -113.41859, 53.53737 ], [ -113.41845, 53.53741 ], [ -113.41845, 53.53989 ] ], [ [ -113.41842, 53.57036 ], [ -113.41764, 53.57036 ] ], [ [ -113.41764, 53.57036 ], [ -113.41842, 53.57036 ] ], [ [ -113.4187, 53.53735 ], [ -113.41859, 53.53737 ] ], [ [ -113.41513, 53.57036 ], [ -113.41764, 53.57036 ] ], [ [ -113.41436, 53.57036 ], [ -113.41513, 53.57036 ] ], [ [ -113.41513, 53.57036 ], [ -113.41436, 53.57036 ] ], [ [ -113.41223, 53.57037 ], [ -113.41436, 53.57036 ] ], [ [ -113.41223, 53.57037 ], [ -113.41172, 53.57037 ] ], [ [ -113.41172, 53.57037 ], [ -113.41223, 53.57037 ] ], [ [ -113.41167, 53.57037 ], [ -113.41172, 53.57037 ] ], [ [ -113.41071, 53.57037 ], [ -113.41167, 53.57037 ] ], [ [ -113.41167, 53.57037 ], [ -113.41071, 53.57037 ] ], [ [ -113.40917, 53.57037 ], [ -113.41071, 53.57037 ] ], [ [ -113.40917, 53.57037 ], [ -113.40829, 53.57037 ] ], [ [ -113.40829, 53.57037 ], [ -113.40917, 53.57037 ] ], [ [ -113.40803, 53.57037 ], [ -113.40829, 53.57037 ] ], [ [ -113.40829, 53.57037 ], [ -113.40803, 53.57037 ] ], [ [ -113.40609, 53.57037 ], [ -113.40803, 53.57037 ] ], [ [ -113.40535, 53.57037 ], [ -113.40609, 53.57037 ] ], [ [ -113.40609, 53.57037 ], [ -113.40535, 53.57037 ] ], [ [ -113.40303, 53.57037 ], [ -113.40535, 53.57037 ] ], [ [ -113.40303, 53.57037 ], [ -113.40226, 53.57037 ] ], [ [ -113.40226, 53.57037 ], [ -113.40303, 53.57037 ] ], [ [ -113.40061, 53.57038 ], [ -113.40226, 53.57037 ] ], [ [ -113.39994, 53.57038 ], [ -113.40061, 53.57038 ] ], [ [ -113.40061, 53.57038 ], [ -113.39994, 53.57038 ] ], [ [ -113.39994, 53.57038 ], [ -113.39902, 53.57038 ] ], [ [ -113.39902, 53.57038 ], [ -113.39994, 53.57038 ] ], [ [ -113.39797, 53.57038 ], [ -113.39902, 53.57038 ] ], [ [ -113.39686, 53.57038 ], [ -113.39797, 53.57038 ] ], [ [ -113.39797, 53.57038 ], [ -113.39686, 53.57038 ] ], [ [ -113.39634, 53.57038 ], [ -113.39686, 53.57038 ] ], [ [ -113.39634, 53.57038 ], [ -113.39574, 53.57038 ] ], [ [ -113.39574, 53.57038 ], [ -113.39634, 53.57038 ] ], [ [ -113.39513, 53.57038 ], [ -113.39574, 53.57038 ] ], [ [ -113.39513, 53.57038 ], [ -113.38925, 53.57032 ], [ -113.38698, 53.57058 ], [ -113.38778, 53.57186 ], [ -113.38846, 53.57247 ], [ -113.38979, 53.57223 ], [ -113.38995, 53.57198 ], [ -113.39038, 53.57192 ], [ -113.39064, 53.57193 ], [ -113.39076, 53.57207 ], [ -113.39372, 53.57191 ], [ -113.39379, 53.57043 ], [ -113.39513, 53.57038 ] ] ] } }
]
}
