{
"type": "FeatureCollection",
"name": "lrt-buffers",
"features": [
{ "type": "Feature", "properties": { "r": 800 }, "geometry": { "type": "MultiPolygon", "coordinates": [ [ [ [ -113.53424, 53.42332 ], [ -113.53397, 53.42405 ], [ -113.53383, 53.4248 ], [ -113.53382, 53.42555 ], [ -113.53394, 53.4263 ], [ -113.53437, 53.4274 ], [ -113.53482, 53.4281 ], [ -113.53538, 53.42878 ], [ -113.53606, 53.42941 ], [ -113.53685, 53.43 ], [ -113.53773, 53.43053 ], [ -113.53871, 53.43101 ], [ -113.53976, 53.43143 ], [ -113.54088, 53.43177 ], [ -113.54265, 53.43215 ], [ -113.54451, 53.43237 ], [ -113.54577, 53.43241 ], [ -113.54702, 53.43238 ], [ -113.54827, 53.43226 ], [ -113.54949, 53.43207 ], [ -113.55067, 53.43181 ], [ -113.55179, 53.43147 ], [ -113.55336, 53.43084 ], [ -113.5543, 53.43034 ], [ -113.55515, 53.42978 ], [ -113.5559, 53.42918 ], [ -113.55653, 53.42853 ], [ -113.55705, 53.42784 ], [ -113.55745, 53.42713 ], [ -113.55772, 53.42639 ], [ -113.55786, 53.42564 ], [ -113.55786, 53.42489 ], [ -113.55774, 53.42414 ], [ -113.55731, 53.42304 ], [ -113.55687, 53.42234 ], [ -113.5563, 53.42167 ], [ -113.55562, 53.42103 ], [ -113.55484, 53.42045 ], [ -113.55395, 53.41991 ], [ -113.55298, 53.41943 ], [ -113.55193, 53.41902 ], [ -113.55081, 53.41867 ], [ -113.54903, 53.41829 ], [ -113.54718, 53.41808 ], [ -113.54592, 53.41803 ], [ -113.54466, 53.41807 ], [ -113.54342, 53.41818 ], [ -113.5422, 53.41837 ], [ -113.54102, 53.41864 ], [ -113.53989, 53.41897 ], [ -113.53833, 53.41961 ], [ -113.53739, 53.42011 ], [ -113.53654, 53.42066 ], [ -113.53579, 53.42127 ], [ -113.53515, 53.42192 ], [ -113.53463, 53.4226 ], [ -113.53424, 53.42332 ] ] ], [ [ [ -113.51701, 53.50034 ], [ -113.51668, 53.50107 ], [ -113.51642, 53.50219 ], [ -113.51641, 53.50294 ], [ -113.51665, 53.50406 ], [ -113.51696, 53.50479 ], [ -113.51768, 53.50583 ], [ -113.5183, 53.50649 ], [ -113.51915, 53.50718 ], [ -113.51771, 53.50791 ], [ -113.51647, 53.50876 ], [ -113.51547, 53.50972 ], [ -113.51474, 53.51076 ], [ -113.5144, 53.51148 ], [ -113.5142, 53.51222 ], [ -113.51412, 53.51298 ], [ -113.51418, 53.51373 ], [ -113.51437, 53.51447 ], [ -113.51469, 53.5152 ], [ -113.51513, 53.5159 ], [ -113.51556, 53.51643 ], [ -113.51488, 53.51719 ], [ -113.51442, 53.51789 ], [ -113.51409, 53.51862 ], [ -113.51383, 53.5197 ], [ -113.51258, 53.52048 ], [ -113.5115, 53.52141 ], [ -113.51067, 53.52242 ], [ -113.51012, 53.5235 ], [ -113.50992, 53.52424 ], [ -113.50984, 53.52499 ], [ -113.5099, 53.52575 ], [ -113.51009, 53.52649 ], [ -113.51041, 53.52722 ], [ -113.51085, 53.52792 ], [ -113.51142, 53.52859 ], [ -113.51197, 53.52911 ], [ -113.51036, 53.52904 ], [ -113.50847, 53.52912 ], [ -113.50663, 53.52938 ], [ -113.50487, 53.5298 ], [ -113.50325, 53.53038 ], [ -113.50226, 53.53085 ], [ -113.50136, 53.53138 ], [ -113.50056, 53.53196 ], [ -113.49987, 53.53259 ], [ -113.49929, 53.53326 ], [ -113.49896, 53.53374 ], [ -113.49724, 53.53377 ], [ -113.4952, 53.534 ], [ -113.49322, 53.53382 ], [ -113.49195, 53.53382 ], [ -113.49079, 53.53389 ], [ -113.49001, 53.5329 ], [ -113.48933, 53.53227 ], [ -113.48854, 53.53168 ], [ -113.48766, 53.53114 ], [ -113.48668, 53.53066 ], [ -113.48563, 53.53025 ], [ -113.4845, 53.5299 ], [ -113.48333, 53.52963 ], [ -113.48211, 53.52943 ], [ -113.48087, 53.52931 ], [ -113.47897, 53.52927 ], [ -113.47772, 53.52934 ], [ -113.47648, 53.52949 ], [ -113.47467, 53.52987 ], [ -113.47431, 53.52921 ], [ -113.47381, 53.52852 ], [ -113.47319, 53.52786 ], [ -113.47245, 53.52725 ], [ -113.47161, 53.52669 ], [ -113.47068, 53.52618 ], [ -113.46967, 53.52573 ], [ -113.46887, 53.52545 ], [ -113.46824, 53.52454 ], [ -113.46761, 53.52389 ], [ -113.46688, 53.52327 ], [ -113.46608, 53.52274 ], [ -113.46687, 53.52165 ], [ -113.4672, 53.52093 ], [ -113.46741, 53.52018 ], [ -113.46747, 53.51906 ], [ -113.46735, 53.51831 ], [ -113.4671, 53.51757 ], [ -113.46648, 53.5165 ], [ -113.46591, 53.51583 ], [ -113.46485, 53.5149 ], [ -113.46389, 53.51426 ], [ -113.46482, 53.5136 ], [ -113.46582, 53.51264 ], [ -113.46656, 53.51161 ], [ -113.46689, 53.51088 ], [ -113.46716, 53.50976 ], [ -113.46716, 53.50901 ], [ -113.46693, 53.50789 ], [ -113.46661, 53.50716 ], [ -113.4659, 53.50612 ], [ -113.46493, 53.50515 ], [ -113.46371, 53.50429 ], [ -113.46228, 53.50355 ], [ -113.46067, 53.50295 ], [ -113.45893, 53.50251 ], [ -113.45709, 53.50224 ], [ -113.45556, 53.50215 ], [ -113.45601, 53.50107 ], [ -113.45617, 53.49995 ], [ -113.45604, 53.49882 ], [ -113.45578, 53.49808 ], [ -113.45516, 53.49702 ], [ -113.45427, 53.49602 ], [ -113.45313, 53.49512 ], [ -113.45225, 53.49459 ], [ -113.45076, 53.49389 ], [ -113.4491, 53.49335 ], [ -113.44732, 53.49296 ], [ -113.44609, 53.4928 ], [ -113.44484, 53.49272 ], [ -113.44295, 53.49274 ], [ -113.44108, 53.49293 ], [ -113.4393, 53.4933 ], [ -113.43763, 53.49383 ], [ -113.4366, 53.49427 ], [ -113.43522, 53.49504 ], [ -113.43405, 53.49593 ], [ -113.43314, 53.49692 ], [ -113.43268, 53.49762 ], [ -113.43234, 53.49834 ], [ -113.43208, 53.49946 ], [ -113.43207, 53.50021 ], [ -113.43219, 53.50096 ], [ -113.43262, 53.50206 ], [ -113.43306, 53.50276 ], [ -113.43362, 53.50344 ], [ -113.4343, 53.50407 ], [ -113.43509, 53.50466 ], [ -113.43598, 53.5052 ], [ -113.43695, 53.50567 ], [ -113.438, 53.50609 ], [ -113.43912, 53.50644 ], [ -113.4403, 53.50671 ], [ -113.44151, 53.50691 ], [ -113.44276, 53.50703 ], [ -113.44367, 53.50707 ], [ -113.44322, 53.50815 ], [ -113.44306, 53.50928 ], [ -113.44319, 53.5104 ], [ -113.44345, 53.51114 ], [ -113.44406, 53.51221 ], [ -113.44463, 53.51288 ], [ -113.44569, 53.51381 ], [ -113.44665, 53.51445 ], [ -113.44572, 53.51511 ], [ -113.44502, 53.51574 ], [ -113.44444, 53.5164 ], [ -113.44398, 53.5171 ], [ -113.44364, 53.51783 ], [ -113.44344, 53.51857 ], [ -113.44336, 53.51932 ], [ -113.44342, 53.52007 ], [ -113.44375, 53.52118 ], [ -113.44437, 53.52225 ], [ -113.44526, 53.52325 ], [ -113.44599, 53.52386 ], [ -113.44679, 53.52439 ], [ -113.44622, 53.52513 ], [ -113.44582, 53.52584 ], [ -113.44555, 53.52658 ], [ -113.44538, 53.5277 ], [ -113.44552, 53.52883 ], [ -113.44577, 53.52956 ], [ -113.44639, 53.53063 ], [ -113.44695, 53.5313 ], [ -113.44801, 53.53224 ], [ -113.44885, 53.5328 ], [ -113.45028, 53.53354 ], [ -113.4516, 53.53404 ], [ -113.45196, 53.53461 ], [ -113.45252, 53.53528 ], [ -113.4532, 53.53591 ], [ -113.45399, 53.5365 ], [ -113.45535, 53.53728 ], [ -113.45691, 53.53793 ], [ -113.45803, 53.53828 ], [ -113.45981, 53.53866 ], [ -113.46104, 53.53882 ], [ -113.4623, 53.53891 ], [ -113.46419, 53.53889 ], [ -113.46544, 53.53877 ], [ -113.46666, 53.53859 ], [ -113.46787, 53.53831 ], [ -113.46846, 53.53932 ], [ -113.46935, 53.54032 ], [ -113.47049, 53.54122 ], [ -113.47138, 53.54176 ], [ -113.47209, 53.54211 ], [ -113.47169, 53.54294 ], [ -113.47143, 53.54406 ], [ -113.47146, 53.54518 ], [ -113.47179, 53.5463 ], [ -113.47241, 53.54736 ], [ -113.47331, 53.54836 ], [ -113.47445, 53.54926 ], [ -113.47581, 53.55004 ], [ -113.47683, 53.55049 ], [ -113.47849, 53.55103 ], [ -113.48027, 53.55142 ], [ -113.4815, 53.55158 ], [ -113.48276, 53.55166 ], [ -113.48465, 53.55164 ], [ -113.48652, 53.55144 ], [ -113.48806, 53.55113 ], [ -113.48888, 53.55193 ], [ -113.48967, 53.55252 ], [ -113.49056, 53.55305 ], [ -113.49134, 53.55344 ], [ -113.49063, 53.55409 ], [ -113.49004, 53.55475 ], [ -113.48958, 53.55546 ], [ -113.48913, 53.55655 ], [ -113.48899, 53.5573 ], [ -113.48902, 53.55843 ], [ -113.48921, 53.55917 ], [ -113.48974, 53.56025 ], [ -113.49024, 53.56094 ], [ -113.49087, 53.5616 ], [ -113.49201, 53.5625 ], [ -113.4929, 53.56303 ], [ -113.49439, 53.56373 ], [ -113.49548, 53.56411 ], [ -113.49663, 53.56442 ], [ -113.49789, 53.56466 ], [ -113.49749, 53.56548 ], [ -113.49729, 53.56622 ], [ -113.49723, 53.56735 ], [ -113.49735, 53.5681 ], [ -113.49778, 53.5692 ], [ -113.49822, 53.5699 ], [ -113.49879, 53.57057 ], [ -113.49965, 53.57135 ], [ -113.49958, 53.5725 ], [ -113.49981, 53.57362 ], [ -113.50034, 53.5747 ], [ -113.50114, 53.57572 ], [ -113.50182, 53.57636 ], [ -113.50261, 53.57695 ], [ -113.5035, 53.57748 ], [ -113.50448, 53.57796 ], [ -113.50553, 53.57837 ], [ -113.50665, 53.57872 ], [ -113.50844, 53.5791 ], [ -113.5103, 53.57932 ], [ -113.51156, 53.57936 ], [ -113.51282, 53.57933 ], [ -113.51407, 53.57921 ], [ -113.5153, 53.57902 ], [ -113.51648, 53.57876 ], [ -113.51761, 53.57842 ], [ -113.51867, 53.57802 ], [ -113.51966, 53.57755 ], [ -113.52056, 53.57702 ], [ -113.52137, 53.57644 ], [ -113.52206, 53.57581 ], [ -113.52264, 53.57514 ], [ -113.5231, 53.57444 ], [ -113.52344, 53.57371 ], [ -113.5237, 53.5726 ], [ -113.52366, 53.57147 ], [ -113.52333, 53.57036 ], [ -113.52295, 53.56964 ], [ -113.52244, 53.56895 ], [ -113.52182, 53.5683 ], [ -113.52128, 53.56785 ], [ -113.52135, 53.56669 ], [ -113.52112, 53.56558 ], [ -113.52059, 53.56449 ], [ -113.51979, 53.56347 ], [ -113.51911, 53.56284 ], [ -113.51832, 53.56225 ], [ -113.51743, 53.56171 ], [ -113.51645, 53.56124 ], [ -113.5154, 53.56082 ], [ -113.51428, 53.56048 ], [ -113.51244, 53.56008 ], [ -113.51283, 53.55927 ], [ -113.51309, 53.55815 ], [ -113.5131, 53.5574 ], [ -113.51286, 53.55628 ], [ -113.51255, 53.55555 ], [ -113.51183, 53.55451 ], [ -113.51121, 53.55385 ], [ -113.51025, 53.55308 ], [ -113.51193, 53.55333 ], [ -113.51382, 53.55342 ], [ -113.51571, 53.55334 ], [ -113.51728, 53.55313 ], [ -113.51809, 53.55328 ], [ -113.51932, 53.55345 ], [ -113.52121, 53.55354 ], [ -113.5231, 53.55346 ], [ -113.52434, 53.55331 ], [ -113.52517, 53.55316 ], [ -113.52669, 53.55337 ], [ -113.52794, 53.55345 ], [ -113.5292, 53.55346 ], [ -113.53055, 53.55337 ], [ -113.53211, 53.55376 ], [ -113.53333, 53.55396 ], [ -113.53458, 53.55408 ], [ -113.53647, 53.55412 ], [ -113.53835, 53.55398 ], [ -113.53958, 53.55379 ], [ -113.54076, 53.55353 ], [ -113.54243, 53.55299 ], [ -113.54346, 53.55256 ], [ -113.54433, 53.5521 ], [ -113.54518, 53.55242 ], [ -113.5463, 53.55277 ], [ -113.54808, 53.55315 ], [ -113.54994, 53.55337 ], [ -113.5512, 53.55341 ], [ -113.55247, 53.55338 ], [ -113.55372, 53.55326 ], [ -113.55494, 53.55307 ], [ -113.55612, 53.55281 ], [ -113.55779, 53.55227 ], [ -113.55882, 53.55184 ], [ -113.55976, 53.55134 ], [ -113.56061, 53.55078 ], [ -113.56155, 53.54999 ], [ -113.56287, 53.55017 ], [ -113.56476, 53.55026 ], [ -113.56665, 53.55018 ], [ -113.56849, 53.54992 ], [ -113.57025, 53.5495 ], [ -113.57187, 53.54892 ], [ -113.57332, 53.54819 ], [ -113.57438, 53.54747 ], [ -113.57573, 53.5479 ], [ -113.57751, 53.54828 ], [ -113.57937, 53.5485 ], [ -113.58063, 53.54854 ], [ -113.58189, 53.54851 ], [ -113.58376, 53.54831 ], [ -113.58555, 53.54794 ], [ -113.58706, 53.54746 ], [ -113.589, 53.54769 ], [ -113.5909, 53.54772 ], [ -113.59277, 53.54758 ], [ -113.59459, 53.54727 ], [ -113.59575, 53.54697 ], [ -113.59685, 53.54659 ], [ -113.59787, 53.54615 ], [ -113.59926, 53.54538 ], [ -113.60006, 53.5448 ], [ -113.60075, 53.54417 ], [ -113.60133, 53.5435 ], [ -113.60197, 53.54244 ], [ -113.60224, 53.54171 ], [ -113.60238, 53.54096 ], [ -113.60239, 53.54021 ], [ -113.60215, 53.53909 ], [ -113.60183, 53.53836 ], [ -113.60138, 53.53766 ], [ -113.60082, 53.53698 ], [ -113.59981, 53.5361 ], [ -113.60079, 53.53526 ], [ -113.60161, 53.53424 ], [ -113.60216, 53.53316 ], [ -113.60236, 53.53242 ], [ -113.60242, 53.53129 ], [ -113.60219, 53.53017 ], [ -113.60166, 53.52909 ], [ -113.60096, 53.52818 ], [ -113.60217, 53.52773 ], [ -113.60362, 53.527 ], [ -113.60447, 53.52644 ], [ -113.60537, 53.52569 ], [ -113.60634, 53.52603 ], [ -113.60749, 53.52634 ], [ -113.60869, 53.52657 ], [ -113.60992, 53.52673 ], [ -113.61118, 53.52682 ], [ -113.61307, 53.52679 ], [ -113.61493, 53.52659 ], [ -113.6164, 53.5263 ], [ -113.61782, 53.52676 ], [ -113.61899, 53.52703 ], [ -113.62021, 53.52723 ], [ -113.62209, 53.52738 ], [ -113.62398, 53.52736 ], [ -113.62584, 53.52716 ], [ -113.62763, 53.52679 ], [ -113.62943, 53.5262 ], [ -113.63046, 53.52683 ], [ -113.63144, 53.52731 ], [ -113.63249, 53.52772 ], [ -113.6342, 53.52821 ], [ -113.63601, 53.52854 ], [ -113.63726, 53.52866 ], [ -113.63852, 53.5287 ], [ -113.63978, 53.52867 ], [ -113.64164, 53.52847 ], [ -113.64343, 53.5281 ], [ -113.6451, 53.52756 ], [ -113.64612, 53.52712 ], [ -113.6475, 53.52635 ], [ -113.64866, 53.52546 ], [ -113.64958, 53.52447 ], [ -113.65022, 53.52341 ], [ -113.65057, 53.5223 ], [ -113.65063, 53.52117 ], [ -113.65039, 53.52005 ], [ -113.65007, 53.51933 ], [ -113.64962, 53.51862 ], [ -113.64873, 53.51763 ], [ -113.64799, 53.51702 ], [ -113.64715, 53.51646 ], [ -113.64622, 53.51595 ], [ -113.6452, 53.51551 ], [ -113.64354, 53.51496 ], [ -113.64176, 53.51458 ], [ -113.64053, 53.51442 ], [ -113.63927, 53.51434 ], [ -113.63738, 53.51436 ], [ -113.63613, 53.51448 ], [ -113.63431, 53.51479 ], [ -113.63316, 53.51509 ], [ -113.63193, 53.51552 ], [ -113.63136, 53.51515 ], [ -113.63042, 53.51464 ], [ -113.62887, 53.514 ], [ -113.62716, 53.51351 ], [ -113.62535, 53.51318 ], [ -113.62348, 53.51303 ], [ -113.62158, 53.51305 ], [ -113.61972, 53.51325 ], [ -113.61826, 53.51354 ], [ -113.61741, 53.51325 ], [ -113.61626, 53.51294 ], [ -113.61506, 53.51271 ], [ -113.61383, 53.51255 ], [ -113.61194, 53.51245 ], [ -113.61068, 53.51249 ], [ -113.60943, 53.5126 ], [ -113.60821, 53.51279 ], [ -113.60703, 53.51306 ], [ -113.6059, 53.5134 ], [ -113.60484, 53.5138 ], [ -113.60385, 53.51427 ], [ -113.60296, 53.5148 ], [ -113.60216, 53.51538 ], [ -113.60165, 53.51584 ], [ -113.60067, 53.5155 ], [ -113.59952, 53.51519 ], [ -113.59771, 53.51486 ], [ -113.59646, 53.51474 ], [ -113.5952, 53.5147 ], [ -113.59332, 53.51478 ], [ -113.59147, 53.51504 ], [ -113.59029, 53.5153 ], [ -113.58916, 53.51564 ], [ -113.5876, 53.51627 ], [ -113.58622, 53.51705 ], [ -113.58506, 53.51794 ], [ -113.58414, 53.51893 ], [ -113.5835, 53.51999 ], [ -113.58315, 53.52109 ], [ -113.58309, 53.52222 ], [ -113.58332, 53.52334 ], [ -113.58385, 53.52442 ], [ -113.58455, 53.52533 ], [ -113.58334, 53.52579 ], [ -113.58235, 53.52626 ], [ -113.58145, 53.52679 ], [ -113.58065, 53.52737 ], [ -113.57996, 53.528 ], [ -113.57938, 53.52866 ], [ -113.57892, 53.52937 ], [ -113.57858, 53.53009 ], [ -113.57832, 53.53121 ], [ -113.57836, 53.53234 ], [ -113.5787, 53.53345 ], [ -113.57912, 53.53423 ], [ -113.57826, 53.53431 ], [ -113.57704, 53.5345 ], [ -113.57586, 53.53477 ], [ -113.57473, 53.5351 ], [ -113.57367, 53.53551 ], [ -113.57268, 53.53598 ], [ -113.57178, 53.53651 ], [ -113.57116, 53.53695 ], [ -113.57038, 53.53669 ], [ -113.56923, 53.53638 ], [ -113.56803, 53.53614 ], [ -113.56679, 53.53598 ], [ -113.56554, 53.5359 ], [ -113.56428, 53.53589 ], [ -113.56302, 53.53597 ], [ -113.56178, 53.53612 ], [ -113.55999, 53.53649 ], [ -113.55886, 53.53683 ], [ -113.5578, 53.53723 ], [ -113.55681, 53.5377 ], [ -113.55591, 53.53823 ], [ -113.55511, 53.53881 ], [ -113.55456, 53.5393 ], [ -113.55324, 53.53913 ], [ -113.55136, 53.53903 ], [ -113.55009, 53.53907 ], [ -113.54823, 53.53927 ], [ -113.54644, 53.53964 ], [ -113.54531, 53.53997 ], [ -113.54425, 53.54038 ], [ -113.54287, 53.54107 ], [ -113.54202, 53.54074 ], [ -113.5409, 53.54039 ], [ -113.53912, 53.54001 ], [ -113.53788, 53.53985 ], [ -113.53663, 53.53976 ], [ -113.53537, 53.53976 ], [ -113.53402, 53.53984 ], [ -113.53246, 53.53945 ], [ -113.53062, 53.53918 ], [ -113.52936, 53.5391 ], [ -113.52747, 53.53912 ], [ -113.52622, 53.53924 ], [ -113.52477, 53.53947 ], [ -113.52326, 53.53926 ], [ -113.52129, 53.53917 ], [ -113.52191, 53.53814 ], [ -113.52218, 53.5374 ], [ -113.52232, 53.53665 ], [ -113.52228, 53.53553 ], [ -113.5221, 53.53478 ], [ -113.52157, 53.5337 ], [ -113.52106, 53.53301 ], [ -113.52022, 53.53216 ], [ -113.52183, 53.53223 ], [ -113.52309, 53.5322 ], [ -113.52434, 53.53208 ], [ -113.52556, 53.53189 ], [ -113.52674, 53.53163 ], [ -113.52841, 53.5311 ], [ -113.52944, 53.53066 ], [ -113.53038, 53.53016 ], [ -113.53123, 53.5296 ], [ -113.53198, 53.529 ], [ -113.53289, 53.52801 ], [ -113.53354, 53.52695 ], [ -113.53381, 53.52621 ], [ -113.53394, 53.5255 ], [ -113.5352, 53.52472 ], [ -113.53594, 53.52412 ], [ -113.53686, 53.52313 ], [ -113.53732, 53.52243 ], [ -113.53765, 53.5217 ], [ -113.53786, 53.52096 ], [ -113.53793, 53.52021 ], [ -113.53787, 53.51946 ], [ -113.53769, 53.51871 ], [ -113.53737, 53.51799 ], [ -113.53692, 53.51728 ], [ -113.53649, 53.51675 ], [ -113.53741, 53.51564 ], [ -113.53796, 53.51456 ], [ -113.53822, 53.51345 ], [ -113.53818, 53.51232 ], [ -113.53785, 53.51121 ], [ -113.53723, 53.51014 ], [ -113.53634, 53.50915 ], [ -113.53548, 53.50845 ], [ -113.53693, 53.50773 ], [ -113.53778, 53.50717 ], [ -113.53853, 53.50657 ], [ -113.53944, 53.50558 ], [ -113.5399, 53.50488 ], [ -113.54023, 53.50415 ], [ -113.54049, 53.50303 ], [ -113.5405, 53.50228 ], [ -113.54027, 53.50116 ], [ -113.53995, 53.50043 ], [ -113.5395, 53.49973 ], [ -113.53861, 53.49874 ], [ -113.53747, 53.49784 ], [ -113.53658, 53.4973 ], [ -113.53561, 53.49682 ], [ -113.534, 53.49623 ], [ -113.53285, 53.49592 ], [ -113.53165, 53.49568 ], [ -113.5298, 53.49547 ], [ -113.5279, 53.49543 ], [ -113.52603, 53.49557 ], [ -113.52481, 53.49576 ], [ -113.52363, 53.49603 ], [ -113.52196, 53.49656 ], [ -113.52045, 53.49724 ], [ -113.51914, 53.49805 ], [ -113.51805, 53.49898 ], [ -113.51747, 53.49964 ], [ -113.51701, 53.50034 ] ] ], [ [ [ -113.65509, 53.521 ], [ -113.65464, 53.52209 ], [ -113.65451, 53.52284 ], [ -113.6545, 53.52359 ], [ -113.65463, 53.52434 ], [ -113.65488, 53.52508 ], [ -113.65527, 53.52579 ], [ -113.65577, 53.52648 ], [ -113.6564, 53.52714 ], [ -113.65714, 53.52775 ], [ -113.65798, 53.52831 ], [ -113.65891, 53.52882 ], [ -113.66047, 53.52946 ], [ -113.66159, 53.5298 ], [ -113.66277, 53.53008 ], [ -113.66399, 53.53028 ], [ -113.66523, 53.5304 ], [ -113.66649, 53.53044 ], [ -113.66775, 53.5304 ], [ -113.66962, 53.5302 ], [ -113.67082, 53.52997 ], [ -113.67198, 53.52967 ], [ -113.67359, 53.52909 ], [ -113.67458, 53.52862 ], [ -113.67548, 53.52809 ], [ -113.67628, 53.5275 ], [ -113.67697, 53.52687 ], [ -113.67755, 53.5262 ], [ -113.678, 53.5255 ], [ -113.67846, 53.52441 ], [ -113.67859, 53.52366 ], [ -113.6786, 53.52291 ], [ -113.67847, 53.52216 ], [ -113.67822, 53.52142 ], [ -113.67783, 53.52071 ], [ -113.67732, 53.52002 ], [ -113.6767, 53.51936 ], [ -113.67596, 53.51875 ], [ -113.67512, 53.51819 ], [ -113.67418, 53.51768 ], [ -113.67263, 53.51704 ], [ -113.67151, 53.5167 ], [ -113.67033, 53.51642 ], [ -113.66911, 53.51623 ], [ -113.66787, 53.5161 ], [ -113.66661, 53.51606 ], [ -113.66534, 53.5161 ], [ -113.66348, 53.5163 ], [ -113.66228, 53.51653 ], [ -113.66112, 53.51683 ], [ -113.6595, 53.51741 ], [ -113.65852, 53.51789 ], [ -113.65762, 53.51842 ], [ -113.65682, 53.519 ], [ -113.65613, 53.51963 ], [ -113.65555, 53.5203 ], [ -113.65509, 53.521 ] ] ], [ [ [ -113.50687, 53.43716 ], [ -113.50642, 53.43826 ], [ -113.50628, 53.43901 ], [ -113.50627, 53.43976 ], [ -113.50639, 53.44051 ], [ -113.50664, 53.44125 ], [ -113.50703, 53.44196 ], [ -113.50753, 53.44265 ], [ -113.50815, 53.44331 ], [ -113.50889, 53.44392 ], [ -113.50972, 53.44448 ], [ -113.51065, 53.44499 ], [ -113.5122, 53.44563 ], [ -113.51332, 53.44598 ], [ -113.5145, 53.44625 ], [ -113.51571, 53.44645 ], [ -113.51695, 53.44658 ], [ -113.51821, 53.44662 ], [ -113.51947, 53.44659 ], [ -113.52133, 53.44639 ], [ -113.52253, 53.44616 ], [ -113.52369, 53.44586 ], [ -113.52531, 53.44528 ], [ -113.52629, 53.44481 ], [ -113.52719, 53.44428 ], [ -113.52799, 53.4437 ], [ -113.52868, 53.44307 ], [ -113.52926, 53.4424 ], [ -113.52972, 53.4417 ], [ -113.53017, 53.4406 ], [ -113.53031, 53.43986 ], [ -113.53032, 53.4391 ], [ -113.5302, 53.43836 ], [ -113.52994, 53.43762 ], [ -113.52956, 53.4369 ], [ -113.52906, 53.43621 ], [ -113.52843, 53.43556 ], [ -113.5277, 53.43495 ], [ -113.52686, 53.43438 ], [ -113.52593, 53.43388 ], [ -113.52438, 53.43323 ], [ -113.52326, 53.43288 ], [ -113.52209, 53.43261 ], [ -113.52088, 53.43241 ], [ -113.51963, 53.43229 ], [ -113.51838, 53.43224 ], [ -113.51712, 53.43228 ], [ -113.51526, 53.43248 ], [ -113.51406, 53.4327 ], [ -113.5129, 53.43301 ], [ -113.51128, 53.43359 ], [ -113.5103, 53.43406 ], [ -113.5094, 53.43459 ], [ -113.5086, 53.43517 ], [ -113.50791, 53.4358 ], [ -113.50733, 53.43646 ], [ -113.50687, 53.43716 ] ] ], [ [ [ -113.50487, 53.45554 ], [ -113.50442, 53.45663 ], [ -113.50428, 53.45738 ], [ -113.50427, 53.45813 ], [ -113.50439, 53.45888 ], [ -113.50465, 53.45962 ], [ -113.50503, 53.46034 ], [ -113.50553, 53.46102 ], [ -113.50616, 53.46168 ], [ -113.50689, 53.46229 ], [ -113.50773, 53.46285 ], [ -113.50866, 53.46336 ], [ -113.51021, 53.46401 ], [ -113.51133, 53.46435 ], [ -113.5125, 53.46463 ], [ -113.51372, 53.46483 ], [ -113.51496, 53.46495 ], [ -113.51622, 53.46499 ], [ -113.51748, 53.46496 ], [ -113.51934, 53.46476 ], [ -113.52054, 53.46453 ], [ -113.5217, 53.46423 ], [ -113.52332, 53.46365 ], [ -113.5243, 53.46318 ], [ -113.5252, 53.46265 ], [ -113.526, 53.46207 ], [ -113.52669, 53.46144 ], [ -113.52727, 53.46077 ], [ -113.52773, 53.46007 ], [ -113.52819, 53.45898 ], [ -113.52833, 53.45823 ], [ -113.52834, 53.45748 ], [ -113.52821, 53.45673 ], [ -113.52796, 53.45599 ], [ -113.52758, 53.45527 ], [ -113.52707, 53.45458 ], [ -113.52645, 53.45393 ], [ -113.52571, 53.45332 ], [ -113.52488, 53.45276 ], [ -113.52395, 53.45225 ], [ -113.5224, 53.4516 ], [ -113.52128, 53.45126 ], [ -113.5201, 53.45098 ], [ -113.51889, 53.45078 ], [ -113.51764, 53.45066 ], [ -113.51638, 53.45062 ], [ -113.51513, 53.45065 ], [ -113.51327, 53.45085 ], [ -113.51206, 53.45108 ], [ -113.51091, 53.45138 ], [ -113.50929, 53.45196 ], [ -113.50831, 53.45243 ], [ -113.50741, 53.45296 ], [ -113.50661, 53.45354 ], [ -113.50591, 53.45417 ], [ -113.50533, 53.45484 ], [ -113.50487, 53.45554 ] ] ], [ [ [ -113.50519, 53.48379 ], [ -113.50492, 53.48453 ], [ -113.50478, 53.48527 ], [ -113.50477, 53.48603 ], [ -113.5049, 53.48677 ], [ -113.50532, 53.48787 ], [ -113.50577, 53.48858 ], [ -113.50633, 53.48925 ], [ -113.50701, 53.48988 ], [ -113.5078, 53.49047 ], [ -113.50869, 53.49101 ], [ -113.50966, 53.49149 ], [ -113.51072, 53.4919 ], [ -113.51184, 53.49225 ], [ -113.51361, 53.49263 ], [ -113.51547, 53.49284 ], [ -113.51673, 53.49289 ], [ -113.51799, 53.49285 ], [ -113.51924, 53.49274 ], [ -113.52046, 53.49255 ], [ -113.52164, 53.49229 ], [ -113.52277, 53.49195 ], [ -113.52434, 53.49132 ], [ -113.52528, 53.49082 ], [ -113.52613, 53.49026 ], [ -113.52688, 53.48965 ], [ -113.52752, 53.48901 ], [ -113.52804, 53.48832 ], [ -113.52843, 53.48761 ], [ -113.5287, 53.48687 ], [ -113.52884, 53.48612 ], [ -113.52885, 53.48537 ], [ -113.52873, 53.48462 ], [ -113.5283, 53.48352 ], [ -113.52786, 53.48282 ], [ -113.52729, 53.48215 ], [ -113.52661, 53.48151 ], [ -113.52582, 53.48092 ], [ -113.52494, 53.48039 ], [ -113.52396, 53.47991 ], [ -113.52291, 53.4795 ], [ -113.52179, 53.47915 ], [ -113.52001, 53.47877 ], [ -113.51815, 53.47855 ], [ -113.51689, 53.47851 ], [ -113.51563, 53.47854 ], [ -113.51439, 53.47866 ], [ -113.51317, 53.47885 ], [ -113.51199, 53.47911 ], [ -113.51086, 53.47945 ], [ -113.50929, 53.48008 ], [ -113.50835, 53.48058 ], [ -113.5075, 53.48114 ], [ -113.50675, 53.48174 ], [ -113.50611, 53.48239 ], [ -113.50559, 53.48308 ], [ -113.50519, 53.48379 ] ] ], [ [ [ -113.41878, 53.45616 ], [ -113.41845, 53.45689 ], [ -113.41824, 53.45763 ], [ -113.41816, 53.45838 ], [ -113.41822, 53.45913 ], [ -113.4184, 53.45987 ], [ -113.41872, 53.4606 ], [ -113.41916, 53.46131 ], [ -113.41973, 53.46198 ], [ -113.4204, 53.46262 ], [ -113.42119, 53.4632 ], [ -113.42207, 53.46374 ], [ -113.42275, 53.46408 ], [ -113.4231, 53.4649 ], [ -113.42381, 53.46595 ], [ -113.42443, 53.4666 ], [ -113.42557, 53.4675 ], [ -113.42693, 53.46828 ], [ -113.42794, 53.46873 ], [ -113.4296, 53.46928 ], [ -113.43105, 53.4696 ], [ -113.42967, 53.47045 ], [ -113.42858, 53.47138 ], [ -113.428, 53.47204 ], [ -113.42754, 53.47274 ], [ -113.42708, 53.47384 ], [ -113.42694, 53.47459 ], [ -113.42693, 53.47534 ], [ -113.42716, 53.47646 ], [ -113.42748, 53.47719 ], [ -113.42792, 53.47789 ], [ -113.42881, 53.47889 ], [ -113.42954, 53.4795 ], [ -113.43038, 53.48006 ], [ -113.43131, 53.48057 ], [ -113.43233, 53.48102 ], [ -113.43398, 53.48156 ], [ -113.43515, 53.48184 ], [ -113.43637, 53.48204 ], [ -113.43761, 53.48216 ], [ -113.43887, 53.48221 ], [ -113.44013, 53.48217 ], [ -113.44138, 53.48206 ], [ -113.4426, 53.48187 ], [ -113.44378, 53.48161 ], [ -113.44545, 53.48108 ], [ -113.44648, 53.48064 ], [ -113.44786, 53.47987 ], [ -113.44902, 53.47898 ], [ -113.44994, 53.47799 ], [ -113.4504, 53.47729 ], [ -113.45086, 53.4762 ], [ -113.451, 53.47545 ], [ -113.45096, 53.47432 ], [ -113.45063, 53.47321 ], [ -113.45001, 53.47215 ], [ -113.44913, 53.47115 ], [ -113.44839, 53.47054 ], [ -113.4471, 53.46971 ], [ -113.44561, 53.46902 ], [ -113.44396, 53.46848 ], [ -113.4425, 53.46815 ], [ -113.44347, 53.46759 ], [ -113.44427, 53.46701 ], [ -113.44497, 53.46638 ], [ -113.4458, 53.46536 ], [ -113.4462, 53.46465 ], [ -113.44647, 53.46391 ], [ -113.44661, 53.46317 ], [ -113.44657, 53.46204 ], [ -113.44639, 53.46129 ], [ -113.44607, 53.46057 ], [ -113.44536, 53.45952 ], [ -113.44474, 53.45887 ], [ -113.444, 53.45825 ], [ -113.44317, 53.45769 ], [ -113.44203, 53.45709 ], [ -113.44148, 53.45591 ], [ -113.44098, 53.45522 ], [ -113.44036, 53.45457 ], [ -113.43922, 53.45367 ], [ -113.43786, 53.45289 ], [ -113.43685, 53.45244 ], [ -113.43519, 53.45189 ], [ -113.43342, 53.45151 ], [ -113.43219, 53.45135 ], [ -113.43093, 53.45126 ], [ -113.42904, 53.45128 ], [ -113.42718, 53.45148 ], [ -113.4254, 53.45185 ], [ -113.42373, 53.45238 ], [ -113.4227, 53.45281 ], [ -113.42132, 53.45358 ], [ -113.42016, 53.45447 ], [ -113.41924, 53.45546 ], [ -113.41878, 53.45616 ] ] ], [ [ [ -113.45932, 53.55767 ], [ -113.45898, 53.5584 ], [ -113.45878, 53.55914 ], [ -113.4587, 53.55989 ], [ -113.45876, 53.56064 ], [ -113.45895, 53.56139 ], [ -113.45926, 53.56211 ], [ -113.45971, 53.56282 ], [ -113.46044, 53.56366 ], [ -113.45907, 53.56356 ], [ -113.45781, 53.56356 ], [ -113.45655, 53.56363 ], [ -113.45531, 53.56378 ], [ -113.45411, 53.56401 ], [ -113.45295, 53.56431 ], [ -113.45185, 53.56468 ], [ -113.45082, 53.56512 ], [ -113.44988, 53.56562 ], [ -113.44902, 53.56617 ], [ -113.44827, 53.56678 ], [ -113.44763, 53.56743 ], [ -113.44711, 53.56811 ], [ -113.44671, 53.56883 ], [ -113.44644, 53.56956 ], [ -113.4463, 53.57031 ], [ -113.44629, 53.57106 ], [ -113.44641, 53.57181 ], [ -113.44684, 53.57291 ], [ -113.44728, 53.57361 ], [ -113.44785, 53.57429 ], [ -113.44853, 53.57492 ], [ -113.44931, 53.57551 ], [ -113.4502, 53.57605 ], [ -113.45118, 53.57652 ], [ -113.45223, 53.57694 ], [ -113.45335, 53.57728 ], [ -113.45453, 53.57756 ], [ -113.45575, 53.57776 ], [ -113.45763, 53.57792 ], [ -113.45952, 53.57789 ], [ -113.46077, 53.57778 ], [ -113.462, 53.57759 ], [ -113.46318, 53.57733 ], [ -113.46431, 53.57699 ], [ -113.46538, 53.57659 ], [ -113.46683, 53.57586 ], [ -113.46768, 53.57531 ], [ -113.46876, 53.57438 ], [ -113.46959, 53.57337 ], [ -113.47014, 53.57229 ], [ -113.47041, 53.57117 ], [ -113.47037, 53.57004 ], [ -113.47004, 53.56893 ], [ -113.46942, 53.56787 ], [ -113.46868, 53.56702 ], [ -113.47005, 53.56712 ], [ -113.47132, 53.56713 ], [ -113.47257, 53.56705 ], [ -113.47381, 53.5669 ], [ -113.47502, 53.56668 ], [ -113.47618, 53.56637 ], [ -113.47728, 53.566 ], [ -113.4783, 53.56556 ], [ -113.47925, 53.56507 ], [ -113.4801, 53.56451 ], [ -113.48085, 53.5639 ], [ -113.48149, 53.56326 ], [ -113.48201, 53.56257 ], [ -113.48241, 53.56186 ], [ -113.48269, 53.56112 ], [ -113.48283, 53.56037 ], [ -113.48284, 53.55962 ], [ -113.48271, 53.55887 ], [ -113.48228, 53.55777 ], [ -113.48184, 53.55707 ], [ -113.48127, 53.5564 ], [ -113.48021, 53.55546 ], [ -113.47892, 53.55464 ], [ -113.47742, 53.55395 ], [ -113.47577, 53.5534 ], [ -113.47459, 53.55312 ], [ -113.47337, 53.55292 ], [ -113.47213, 53.5528 ], [ -113.47086, 53.55276 ], [ -113.46897, 53.55284 ], [ -113.46713, 53.55309 ], [ -113.46595, 53.55336 ], [ -113.46482, 53.55369 ], [ -113.46325, 53.55432 ], [ -113.4623, 53.55482 ], [ -113.46145, 53.55538 ], [ -113.46036, 53.5563 ], [ -113.45978, 53.55697 ], [ -113.45932, 53.55767 ] ] ], [ [ [ -113.42156, 53.58599 ], [ -113.4211, 53.58709 ], [ -113.42096, 53.58783 ], [ -113.42095, 53.58859 ], [ -113.42107, 53.58934 ], [ -113.42132, 53.59007 ], [ -113.42171, 53.59079 ], [ -113.42221, 53.59148 ], [ -113.42283, 53.59213 ], [ -113.42357, 53.59275 ], [ -113.42441, 53.59331 ], [ -113.42534, 53.59382 ], [ -113.42689, 53.59446 ], [ -113.42802, 53.59481 ], [ -113.42919, 53.59509 ], [ -113.43041, 53.59529 ], [ -113.43166, 53.59541 ], [ -113.43292, 53.59546 ], [ -113.43419, 53.59542 ], [ -113.43605, 53.59523 ], [ -113.43726, 53.595 ], [ -113.43842, 53.5947 ], [ -113.44004, 53.59412 ], [ -113.44103, 53.59365 ], [ -113.44193, 53.59312 ], [ -113.44274, 53.59254 ], [ -113.44344, 53.59191 ], [ -113.44402, 53.59124 ], [ -113.44448, 53.59054 ], [ -113.44494, 53.58945 ], [ -113.44508, 53.5887 ], [ -113.44509, 53.58795 ], [ -113.44497, 53.5872 ], [ -113.44471, 53.58646 ], [ -113.44433, 53.58574 ], [ -113.44383, 53.58506 ], [ -113.4432, 53.5844 ], [ -113.44247, 53.58379 ], [ -113.44163, 53.58323 ], [ -113.4407, 53.58272 ], [ -113.43914, 53.58207 ], [ -113.43802, 53.58172 ], [ -113.43684, 53.58145 ], [ -113.43563, 53.58125 ], [ -113.43438, 53.58113 ], [ -113.43312, 53.58108 ], [ -113.43185, 53.58111 ], [ -113.42999, 53.58131 ], [ -113.42878, 53.58154 ], [ -113.42762, 53.58184 ], [ -113.426, 53.58242 ], [ -113.42501, 53.58289 ], [ -113.42411, 53.58342 ], [ -113.4233, 53.584 ], [ -113.42261, 53.58462 ], [ -113.42202, 53.58529 ], [ -113.42156, 53.58599 ] ] ], [ [ [ -113.40036, 53.59931 ], [ -113.3999, 53.60041 ], [ -113.39976, 53.60116 ], [ -113.39975, 53.60191 ], [ -113.39987, 53.60266 ], [ -113.40012, 53.60339 ], [ -113.4005, 53.60411 ], [ -113.401, 53.6048 ], [ -113.40163, 53.60546 ], [ -113.40236, 53.60607 ], [ -113.4032, 53.60663 ], [ -113.40413, 53.60714 ], [ -113.40569, 53.60779 ], [ -113.40681, 53.60813 ], [ -113.40799, 53.60841 ], [ -113.40921, 53.60861 ], [ -113.41046, 53.60873 ], [ -113.41172, 53.60878 ], [ -113.41298, 53.60875 ], [ -113.41485, 53.60855 ], [ -113.41606, 53.60832 ], [ -113.41722, 53.60802 ], [ -113.41884, 53.60744 ], [ -113.41983, 53.60697 ], [ -113.42073, 53.60645 ], [ -113.42154, 53.60586 ], [ -113.42224, 53.60524 ], [ -113.42282, 53.60457 ], [ -113.42328, 53.60387 ], [ -113.42374, 53.60277 ], [ -113.42388, 53.60203 ], [ -113.42389, 53.60127 ], [ -113.42377, 53.60053 ], [ -113.42352, 53.59979 ], [ -113.42314, 53.59907 ], [ -113.42263, 53.59838 ], [ -113.42201, 53.59773 ], [ -113.42127, 53.59711 ], [ -113.42043, 53.59655 ], [ -113.4195, 53.59604 ], [ -113.41795, 53.5954 ], [ -113.41682, 53.59505 ], [ -113.41565, 53.59477 ], [ -113.41443, 53.59457 ], [ -113.41318, 53.59445 ], [ -113.41192, 53.5944 ], [ -113.41066, 53.59444 ], [ -113.40879, 53.59463 ], [ -113.40758, 53.59486 ], [ -113.40642, 53.59516 ], [ -113.4048, 53.59574 ], [ -113.40381, 53.59621 ], [ -113.40291, 53.59674 ], [ -113.4021, 53.59732 ], [ -113.4014, 53.59795 ], [ -113.40082, 53.59861 ], [ -113.40036, 53.59931 ] ] ] ] } },
{ "type": "Feature", "properties": { "r": 400 }, "geometry": { "type": "MultiPolygon", "coordinates": [ [ [ [ -113.54004, 53.42427 ], [ -113.53983, 53.42501 ], [ -113.53989, 53.42576 ], [ -113.54011, 53.42631 ], [ -113.54061, 53.427 ], [ -113.54134, 53.42761 ], [ -113.54203, 53.428 ], [ -113.54308, 53.42841 ], [ -113.54425, 53.42869 ], [ -113.54549, 53.42881 ], [ -113.54675, 53.42878 ], [ -113.54767, 53.42865 ], [ -113.54882, 53.42835 ], [ -113.54984, 53.42791 ], [ -113.55069, 53.42735 ], [ -113.55132, 53.42671 ], [ -113.55165, 53.42617 ], [ -113.55185, 53.42543 ], [ -113.55179, 53.42468 ], [ -113.55158, 53.42413 ], [ -113.55107, 53.42345 ], [ -113.55034, 53.42283 ], [ -113.54966, 53.42244 ], [ -113.54861, 53.42203 ], [ -113.54744, 53.42176 ], [ -113.5462, 53.42163 ], [ -113.54494, 53.42167 ], [ -113.54402, 53.4218 ], [ -113.54287, 53.4221 ], [ -113.54184, 53.42254 ], [ -113.541, 53.42309 ], [ -113.54036, 53.42374 ], [ -113.54004, 53.42427 ] ] ], [ [ [ -113.52273, 53.50148 ], [ -113.52246, 53.50221 ], [ -113.52246, 53.50296 ], [ -113.52262, 53.50352 ], [ -113.52307, 53.50422 ], [ -113.52375, 53.50485 ], [ -113.52463, 53.50539 ], [ -113.52541, 53.50571 ], [ -113.52655, 53.50602 ], [ -113.52747, 53.50616 ], [ -113.52873, 53.5062 ], [ -113.52998, 53.50609 ], [ -113.53116, 53.50582 ], [ -113.53222, 53.50542 ], [ -113.53291, 53.50503 ], [ -113.53366, 53.50443 ], [ -113.53418, 53.50374 ], [ -113.53445, 53.50301 ], [ -113.53446, 53.50226 ], [ -113.53429, 53.5017 ], [ -113.53385, 53.501 ], [ -113.53317, 53.50037 ], [ -113.53228, 53.49983 ], [ -113.5315, 53.49951 ], [ -113.53036, 53.4992 ], [ -113.52944, 53.49907 ], [ -113.52818, 53.49902 ], [ -113.52693, 53.49913 ], [ -113.52575, 53.4994 ], [ -113.52469, 53.4998 ], [ -113.524, 53.50019 ], [ -113.52326, 53.50079 ], [ -113.52273, 53.50148 ] ] ], [ [ [ -113.52046, 53.51189 ], [ -113.52019, 53.51262 ], [ -113.52015, 53.513 ], [ -113.52022, 53.51356 ], [ -113.52054, 53.51429 ], [ -113.5211, 53.51496 ], [ -113.52189, 53.51555 ], [ -113.52286, 53.51603 ], [ -113.52398, 53.51637 ], [ -113.52534, 53.51658 ], [ -113.52405, 53.51674 ], [ -113.52289, 53.51704 ], [ -113.52211, 53.51735 ], [ -113.52163, 53.5176 ], [ -113.52083, 53.51818 ], [ -113.52052, 53.51851 ], [ -113.52015, 53.51903 ], [ -113.51988, 53.51976 ], [ -113.51984, 53.52014 ], [ -113.51991, 53.5207 ], [ -113.52003, 53.52107 ], [ -113.52033, 53.52157 ], [ -113.5192, 53.52183 ], [ -113.51839, 53.52212 ], [ -113.51767, 53.52248 ], [ -113.51705, 53.52291 ], [ -113.51641, 53.52356 ], [ -113.51609, 53.52409 ], [ -113.51591, 53.52464 ], [ -113.51588, 53.52521 ], [ -113.51607, 53.52595 ], [ -113.51638, 53.52648 ], [ -113.517, 53.52714 ], [ -113.51784, 53.5277 ], [ -113.51886, 53.52814 ], [ -113.52, 53.52845 ], [ -113.52092, 53.52859 ], [ -113.52218, 53.52863 ], [ -113.52281, 53.5286 ], [ -113.52373, 53.52847 ], [ -113.52489, 53.52817 ], [ -113.52591, 53.52773 ], [ -113.52676, 53.52717 ], [ -113.52726, 53.5267 ], [ -113.52752, 53.52635 ], [ -113.52772, 53.526 ], [ -113.5279, 53.52544 ], [ -113.52794, 53.52507 ], [ -113.52787, 53.5245 ], [ -113.52774, 53.52414 ], [ -113.52745, 53.52363 ], [ -113.52829, 53.52345 ], [ -113.52885, 53.52329 ], [ -113.52988, 53.52285 ], [ -113.53073, 53.52229 ], [ -113.53123, 53.52181 ], [ -113.53149, 53.52147 ], [ -113.53182, 53.52075 ], [ -113.5319, 53.52019 ], [ -113.53187, 53.51981 ], [ -113.53162, 53.51907 ], [ -113.53111, 53.51838 ], [ -113.53077, 53.51807 ], [ -113.53016, 53.51764 ], [ -113.52919, 53.51716 ], [ -113.52807, 53.51681 ], [ -113.52671, 53.5166 ], [ -113.5277, 53.5165 ], [ -113.52888, 53.51624 ], [ -113.52994, 53.51583 ], [ -113.53064, 53.51545 ], [ -113.53138, 53.51484 ], [ -113.5319, 53.51416 ], [ -113.53213, 53.51361 ], [ -113.5322, 53.51286 ], [ -113.53202, 53.51212 ], [ -113.53171, 53.51158 ], [ -113.53126, 53.51109 ], [ -113.53069, 53.51064 ], [ -113.53001, 53.51025 ], [ -113.52923, 53.50992 ], [ -113.52808, 53.50961 ], [ -113.52716, 53.50948 ], [ -113.52622, 53.50943 ], [ -113.52528, 53.50947 ], [ -113.52436, 53.5096 ], [ -113.5232, 53.5099 ], [ -113.52242, 53.51022 ], [ -113.52152, 53.51074 ], [ -113.52083, 53.51137 ], [ -113.52046, 53.51189 ] ] ], [ [ [ -113.60606, 53.51869 ], [ -113.60585, 53.51943 ], [ -113.60591, 53.52018 ], [ -113.60623, 53.52091 ], [ -113.6068, 53.52158 ], [ -113.60759, 53.52217 ], [ -113.60856, 53.52264 ], [ -113.60968, 53.52299 ], [ -113.6109, 53.52319 ], [ -113.61184, 53.52323 ], [ -113.61279, 53.52319 ], [ -113.61371, 53.52307 ], [ -113.61458, 53.52285 ], [ -113.61539, 53.52256 ], [ -113.61612, 53.5222 ], [ -113.61674, 53.52177 ], [ -113.61711, 53.52143 ], [ -113.61754, 53.52199 ], [ -113.61807, 53.52245 ], [ -113.61896, 53.52299 ], [ -113.61974, 53.52331 ], [ -113.62089, 53.52362 ], [ -113.62181, 53.52375 ], [ -113.62307, 53.5238 ], [ -113.624, 53.52372 ], [ -113.62491, 53.52357 ], [ -113.62577, 53.52333 ], [ -113.62655, 53.52301 ], [ -113.62702, 53.52276 ], [ -113.62764, 53.52233 ], [ -113.62814, 53.52185 ], [ -113.62851, 53.52133 ], [ -113.62873, 53.52079 ], [ -113.62881, 53.52004 ], [ -113.62862, 53.51929 ], [ -113.6283, 53.51876 ], [ -113.62768, 53.51811 ], [ -113.62684, 53.51755 ], [ -113.62582, 53.5171 ], [ -113.62468, 53.51679 ], [ -113.62376, 53.51666 ], [ -113.62281, 53.51661 ], [ -113.62187, 53.51665 ], [ -113.62095, 53.51678 ], [ -113.62007, 53.51699 ], [ -113.61926, 53.51729 ], [ -113.61854, 53.51765 ], [ -113.61792, 53.51808 ], [ -113.61755, 53.51842 ], [ -113.61712, 53.51786 ], [ -113.61658, 53.51739 ], [ -113.6157, 53.51686 ], [ -113.61492, 53.51654 ], [ -113.61377, 53.51623 ], [ -113.61285, 53.51609 ], [ -113.61159, 53.51605 ], [ -113.61065, 53.51612 ], [ -113.60975, 53.51628 ], [ -113.60889, 53.51652 ], [ -113.60811, 53.51684 ], [ -113.60763, 53.51709 ], [ -113.60702, 53.51751 ], [ -113.60667, 53.51783 ], [ -113.60638, 53.51816 ], [ -113.60606, 53.51869 ] ] ], [ [ [ -113.63276, 53.52057 ], [ -113.63256, 53.52131 ], [ -113.63262, 53.52206 ], [ -113.63283, 53.52261 ], [ -113.63334, 53.5233 ], [ -113.63408, 53.52391 ], [ -113.63476, 53.5243 ], [ -113.63581, 53.52471 ], [ -113.63699, 53.52498 ], [ -113.63823, 53.5251 ], [ -113.63949, 53.52507 ], [ -113.64041, 53.52494 ], [ -113.64157, 53.52464 ], [ -113.64259, 53.5242 ], [ -113.64344, 53.52364 ], [ -113.64408, 53.52299 ], [ -113.6444, 53.52246 ], [ -113.6446, 53.52172 ], [ -113.64454, 53.52097 ], [ -113.64433, 53.52042 ], [ -113.64382, 53.51973 ], [ -113.64308, 53.51912 ], [ -113.6424, 53.51873 ], [ -113.64134, 53.51832 ], [ -113.64017, 53.51805 ], [ -113.63893, 53.51793 ], [ -113.63767, 53.51796 ], [ -113.63675, 53.51809 ], [ -113.63559, 53.51839 ], [ -113.63457, 53.51883 ], [ -113.63372, 53.51939 ], [ -113.63308, 53.52004 ], [ -113.63276, 53.52057 ] ] ], [ [ [ -113.58941, 53.52076 ], [ -113.58914, 53.52149 ], [ -113.58913, 53.52224 ], [ -113.5893, 53.5228 ], [ -113.58975, 53.5235 ], [ -113.59043, 53.52413 ], [ -113.59131, 53.52467 ], [ -113.59209, 53.52499 ], [ -113.59324, 53.5253 ], [ -113.59416, 53.52543 ], [ -113.59542, 53.52548 ], [ -113.59666, 53.52536 ], [ -113.59784, 53.5251 ], [ -113.5989, 53.52469 ], [ -113.59959, 53.52431 ], [ -113.60034, 53.5237 ], [ -113.60086, 53.52302 ], [ -113.60113, 53.52228 ], [ -113.60114, 53.52153 ], [ -113.60097, 53.52098 ], [ -113.60052, 53.52027 ], [ -113.59984, 53.51964 ], [ -113.59896, 53.51911 ], [ -113.59818, 53.51878 ], [ -113.59703, 53.51848 ], [ -113.59611, 53.51834 ], [ -113.59485, 53.5183 ], [ -113.59361, 53.51841 ], [ -113.59243, 53.51868 ], [ -113.59137, 53.51908 ], [ -113.59068, 53.51947 ], [ -113.58993, 53.52007 ], [ -113.58941, 53.52076 ] ] ], [ [ [ -113.66082, 53.52212 ], [ -113.66055, 53.52286 ], [ -113.66055, 53.52361 ], [ -113.66072, 53.52416 ], [ -113.66116, 53.52487 ], [ -113.66184, 53.5255 ], [ -113.66273, 53.52603 ], [ -113.66351, 53.52635 ], [ -113.66466, 53.52666 ], [ -113.66558, 53.5268 ], [ -113.66684, 53.52684 ], [ -113.66808, 53.52673 ], [ -113.66926, 53.52646 ], [ -113.67032, 53.52605 ], [ -113.67101, 53.52567 ], [ -113.67176, 53.52506 ], [ -113.67228, 53.52438 ], [ -113.67254, 53.52364 ], [ -113.67255, 53.52289 ], [ -113.67238, 53.52234 ], [ -113.67194, 53.52163 ], [ -113.67125, 53.521 ], [ -113.67037, 53.52047 ], [ -113.66959, 53.52015 ], [ -113.66844, 53.51984 ], [ -113.66752, 53.5197 ], [ -113.66626, 53.51966 ], [ -113.66502, 53.51977 ], [ -113.66384, 53.52004 ], [ -113.66278, 53.52045 ], [ -113.66209, 53.52083 ], [ -113.66134, 53.52144 ], [ -113.66082, 53.52212 ] ] ], [ [ [ -113.58455, 53.53068 ], [ -113.58435, 53.53142 ], [ -113.58441, 53.53217 ], [ -113.58462, 53.53272 ], [ -113.58513, 53.53341 ], [ -113.58586, 53.53402 ], [ -113.58655, 53.53441 ], [ -113.5876, 53.53482 ], [ -113.58877, 53.53509 ], [ -113.59002, 53.53521 ], [ -113.59128, 53.53518 ], [ -113.5922, 53.53505 ], [ -113.59336, 53.53475 ], [ -113.59438, 53.53431 ], [ -113.59523, 53.53376 ], [ -113.59587, 53.53311 ], [ -113.59619, 53.53258 ], [ -113.59639, 53.53184 ], [ -113.59633, 53.53108 ], [ -113.59612, 53.53054 ], [ -113.59561, 53.52985 ], [ -113.59488, 53.52924 ], [ -113.59419, 53.52885 ], [ -113.59314, 53.52843 ], [ -113.59196, 53.52816 ], [ -113.59072, 53.52804 ], [ -113.58946, 53.52807 ], [ -113.58854, 53.5282 ], [ -113.58738, 53.5285 ], [ -113.58636, 53.52894 ], [ -113.58551, 53.5295 ], [ -113.58487, 53.53015 ], [ -113.58455, 53.53068 ] ] ], [ [ [ -113.58609, 53.53799 ], [ -113.58547, 53.53841 ], [ -113.58502, 53.53884 ], [ -113.58402, 53.53835 ], [ -113.58347, 53.53816 ], [ -113.5826, 53.53794 ], [ -113.58168, 53.5378 ], [ -113.58105, 53.53776 ], [ -113.57979, 53.5378 ], [ -113.57887, 53.53793 ], [ -113.57771, 53.53823 ], [ -113.57693, 53.53854 ], [ -113.57624, 53.53893 ], [ -113.57549, 53.53954 ], [ -113.57497, 53.54022 ], [ -113.57475, 53.54077 ], [ -113.57467, 53.54152 ], [ -113.57486, 53.54226 ], [ -113.57517, 53.54279 ], [ -113.5758, 53.54345 ], [ -113.57664, 53.54401 ], [ -113.57765, 53.54445 ], [ -113.5788, 53.54476 ], [ -113.58003, 53.54492 ], [ -113.5813, 53.54493 ], [ -113.58253, 53.54478 ], [ -113.58341, 53.54456 ], [ -113.58396, 53.54438 ], [ -113.58447, 53.54416 ], [ -113.58516, 53.54377 ], [ -113.58556, 53.54348 ], [ -113.58601, 53.54305 ], [ -113.58676, 53.54344 ], [ -113.58785, 53.54382 ], [ -113.58904, 53.54405 ], [ -113.5903, 53.54414 ], [ -113.59155, 53.54406 ], [ -113.59276, 53.54383 ], [ -113.59385, 53.54346 ], [ -113.59479, 53.54296 ], [ -113.59554, 53.54236 ], [ -113.59606, 53.54167 ], [ -113.59629, 53.54112 ], [ -113.59636, 53.54037 ], [ -113.59617, 53.53963 ], [ -113.59586, 53.5391 ], [ -113.59523, 53.53845 ], [ -113.59462, 53.53802 ], [ -113.59365, 53.53754 ], [ -113.59253, 53.53719 ], [ -113.59131, 53.537 ], [ -113.59037, 53.53695 ], [ -113.58942, 53.53699 ], [ -113.5882, 53.53718 ], [ -113.58708, 53.53752 ], [ -113.58609, 53.53799 ] ] ], [ [ [ -113.55901, 53.54212 ], [ -113.55881, 53.54286 ], [ -113.55887, 53.54361 ], [ -113.55908, 53.54416 ], [ -113.55959, 53.54485 ], [ -113.56032, 53.54546 ], [ -113.56101, 53.54585 ], [ -113.56206, 53.54627 ], [ -113.56324, 53.54654 ], [ -113.56448, 53.54666 ], [ -113.56574, 53.54663 ], [ -113.56666, 53.5465 ], [ -113.56782, 53.5462 ], [ -113.56884, 53.54576 ], [ -113.56969, 53.5452 ], [ -113.57033, 53.54456 ], [ -113.57065, 53.54403 ], [ -113.57086, 53.54328 ], [ -113.5708, 53.54253 ], [ -113.57058, 53.54198 ], [ -113.57008, 53.5413 ], [ -113.56934, 53.54069 ], [ -113.56866, 53.54029 ], [ -113.56761, 53.53988 ], [ -113.56643, 53.53961 ], [ -113.56519, 53.53949 ], [ -113.56393, 53.53952 ], [ -113.563, 53.53965 ], [ -113.56185, 53.53995 ], [ -113.56082, 53.54039 ], [ -113.55997, 53.54094 ], [ -113.55934, 53.54159 ], [ -113.55901, 53.54212 ] ] ], [ [ [ -113.54555, 53.54509 ], [ -113.54528, 53.54582 ], [ -113.54527, 53.54657 ], [ -113.54544, 53.54713 ], [ -113.54589, 53.54783 ], [ -113.54657, 53.54847 ], [ -113.54745, 53.549 ], [ -113.54823, 53.54932 ], [ -113.54938, 53.54963 ], [ -113.5503, 53.54977 ], [ -113.55156, 53.54981 ], [ -113.55281, 53.5497 ], [ -113.55399, 53.54943 ], [ -113.55505, 53.54903 ], [ -113.55574, 53.54864 ], [ -113.55649, 53.54804 ], [ -113.55701, 53.54735 ], [ -113.55728, 53.54662 ], [ -113.55729, 53.54587 ], [ -113.55712, 53.54531 ], [ -113.55667, 53.54461 ], [ -113.55599, 53.54398 ], [ -113.55511, 53.54344 ], [ -113.55433, 53.54312 ], [ -113.55318, 53.54281 ], [ -113.55226, 53.54268 ], [ -113.551, 53.54263 ], [ -113.54976, 53.54274 ], [ -113.54858, 53.54301 ], [ -113.54751, 53.54341 ], [ -113.54682, 53.5438 ], [ -113.54607, 53.5444 ], [ -113.54555, 53.54509 ] ] ], [ [ [ -113.52595, 53.54306 ], [ -113.52489, 53.54347 ], [ -113.52407, 53.54316 ], [ -113.52319, 53.54294 ], [ -113.52228, 53.54281 ], [ -113.52102, 53.54276 ], [ -113.52008, 53.54283 ], [ -113.51917, 53.54299 ], [ -113.51831, 53.54323 ], [ -113.51773, 53.54345 ], [ -113.51668, 53.54304 ], [ -113.5158, 53.54282 ], [ -113.51488, 53.54269 ], [ -113.51363, 53.54264 ], [ -113.51269, 53.54271 ], [ -113.51148, 53.54294 ], [ -113.51065, 53.54321 ], [ -113.50987, 53.54356 ], [ -113.50956, 53.54329 ], [ -113.51002, 53.54293 ], [ -113.51048, 53.54243 ], [ -113.5108, 53.5419 ], [ -113.51098, 53.54135 ], [ -113.51099, 53.5406 ], [ -113.51071, 53.53981 ], [ -113.5118, 53.53971 ], [ -113.51298, 53.53944 ], [ -113.51404, 53.53904 ], [ -113.51473, 53.53865 ], [ -113.51548, 53.53805 ], [ -113.51589, 53.53754 ], [ -113.51623, 53.53682 ], [ -113.51631, 53.53625 ], [ -113.51619, 53.53551 ], [ -113.5158, 53.53479 ], [ -113.51518, 53.53414 ], [ -113.51457, 53.5337 ], [ -113.5136, 53.53323 ], [ -113.51248, 53.53288 ], [ -113.51126, 53.53268 ], [ -113.51, 53.53264 ], [ -113.50937, 53.53268 ], [ -113.50845, 53.5328 ], [ -113.50729, 53.5331 ], [ -113.50651, 53.53342 ], [ -113.50604, 53.53367 ], [ -113.50524, 53.53425 ], [ -113.50492, 53.53458 ], [ -113.50455, 53.53509 ], [ -113.50428, 53.53583 ], [ -113.50427, 53.53658 ], [ -113.50455, 53.53737 ], [ -113.50316, 53.53752 ], [ -113.50228, 53.53774 ], [ -113.50173, 53.53792 ], [ -113.50091, 53.53765 ], [ -113.50002, 53.53746 ], [ -113.4994, 53.53738 ], [ -113.49846, 53.53733 ], [ -113.49751, 53.53737 ], [ -113.49689, 53.53744 ], [ -113.496, 53.53763 ], [ -113.49534, 53.53783 ], [ -113.4941, 53.53753 ], [ -113.49286, 53.53741 ], [ -113.4916, 53.53745 ], [ -113.49068, 53.53757 ], [ -113.49009, 53.53771 ], [ -113.48952, 53.53787 ], [ -113.48874, 53.53819 ], [ -113.48784, 53.53872 ], [ -113.4873, 53.53918 ], [ -113.48688, 53.53969 ], [ -113.48661, 53.54023 ], [ -113.4865, 53.54061 ], [ -113.48539, 53.54108 ], [ -113.48477, 53.54098 ], [ -113.48383, 53.5409 ], [ -113.4832, 53.5409 ], [ -113.48226, 53.54096 ], [ -113.48165, 53.54106 ], [ -113.48078, 53.54127 ], [ -113.47996, 53.54156 ], [ -113.47947, 53.5418 ], [ -113.47862, 53.54235 ], [ -113.47798, 53.543 ], [ -113.47766, 53.54353 ], [ -113.47752, 53.5439 ], [ -113.47745, 53.54465 ], [ -113.47764, 53.54539 ], [ -113.47794, 53.54592 ], [ -113.47839, 53.54642 ], [ -113.47896, 53.54687 ], [ -113.47964, 53.54726 ], [ -113.48042, 53.54759 ], [ -113.48127, 53.54783 ], [ -113.48218, 53.548 ], [ -113.48343, 53.54808 ], [ -113.48438, 53.54804 ], [ -113.485, 53.54796 ], [ -113.48618, 53.5477 ], [ -113.48673, 53.54751 ], [ -113.48747, 53.54718 ], [ -113.48808, 53.54728 ], [ -113.48902, 53.54736 ], [ -113.48965, 53.54736 ], [ -113.49059, 53.54729 ], [ -113.4918, 53.54706 ], [ -113.49294, 53.54667 ], [ -113.49268, 53.54753 ], [ -113.49273, 53.54828 ], [ -113.49305, 53.54901 ], [ -113.49361, 53.54968 ], [ -113.4944, 53.55027 ], [ -113.49487, 53.55052 ], [ -113.49565, 53.55085 ], [ -113.49679, 53.55116 ], [ -113.49803, 53.55132 ], [ -113.49866, 53.55134 ], [ -113.4996, 53.5513 ], [ -113.50052, 53.55117 ], [ -113.5014, 53.55096 ], [ -113.50246, 53.55055 ], [ -113.50316, 53.55017 ], [ -113.5039, 53.54956 ], [ -113.50434, 53.54903 ], [ -113.50563, 53.549 ], [ -113.50685, 53.54881 ], [ -113.50798, 53.54847 ], [ -113.50876, 53.54811 ], [ -113.5096, 53.54876 ], [ -113.51058, 53.54923 ], [ -113.5117, 53.54958 ], [ -113.51292, 53.54978 ], [ -113.51417, 53.54982 ], [ -113.51542, 53.54971 ], [ -113.5166, 53.54945 ], [ -113.51747, 53.54913 ], [ -113.51852, 53.54954 ], [ -113.51969, 53.54982 ], [ -113.52094, 53.54994 ], [ -113.52188, 53.54993 ], [ -113.52251, 53.54987 ], [ -113.52342, 53.54972 ], [ -113.52427, 53.54948 ], [ -113.52506, 53.54916 ], [ -113.5256, 53.54938 ], [ -113.52645, 53.54962 ], [ -113.52736, 53.54979 ], [ -113.5283, 53.54986 ], [ -113.52893, 53.54987 ], [ -113.52987, 53.5498 ], [ -113.53078, 53.54964 ], [ -113.53156, 53.54942 ], [ -113.53234, 53.54983 ], [ -113.53343, 53.55021 ], [ -113.53463, 53.55045 ], [ -113.53556, 53.55053 ], [ -113.5362, 53.55053 ], [ -113.53714, 53.55046 ], [ -113.53805, 53.5503 ], [ -113.5389, 53.55006 ], [ -113.53969, 53.54975 ], [ -113.54016, 53.5495 ], [ -113.54078, 53.54907 ], [ -113.54113, 53.54876 ], [ -113.54165, 53.54807 ], [ -113.54187, 53.54752 ], [ -113.54195, 53.54677 ], [ -113.54176, 53.54603 ], [ -113.54145, 53.5455 ], [ -113.54082, 53.54485 ], [ -113.53999, 53.54428 ], [ -113.53897, 53.54384 ], [ -113.53812, 53.54359 ], [ -113.53752, 53.54347 ], [ -113.5369, 53.54339 ], [ -113.53596, 53.54335 ], [ -113.53501, 53.54339 ], [ -113.5344, 53.54346 ], [ -113.53379, 53.54358 ], [ -113.53301, 53.54379 ], [ -113.53223, 53.54338 ], [ -113.53114, 53.543 ], [ -113.52995, 53.54277 ], [ -113.52901, 53.54269 ], [ -113.52775, 53.54272 ], [ -113.52683, 53.54285 ], [ -113.52595, 53.54306 ] ] ], [ [ [ -113.51258, 53.4383 ], [ -113.51231, 53.43903 ], [ -113.5123, 53.43978 ], [ -113.51247, 53.44034 ], [ -113.51291, 53.44104 ], [ -113.51359, 53.44168 ], [ -113.51447, 53.44221 ], [ -113.51525, 53.44253 ], [ -113.5164, 53.44284 ], [ -113.51731, 53.44298 ], [ -113.51857, 53.44302 ], [ -113.51981, 53.44291 ], [ -113.52099, 53.44265 ], [ -113.52205, 53.44224 ], [ -113.52274, 53.44186 ], [ -113.52349, 53.44125 ], [ -113.52401, 53.44057 ], [ -113.52428, 53.43983 ], [ -113.52429, 53.43908 ], [ -113.52412, 53.43853 ], [ -113.52368, 53.43782 ], [ -113.523, 53.43719 ], [ -113.52211, 53.43665 ], [ -113.52134, 53.43633 ], [ -113.52019, 53.43602 ], [ -113.51928, 53.43589 ], [ -113.51802, 53.43584 ], [ -113.51678, 53.43595 ], [ -113.5156, 53.43622 ], [ -113.51454, 53.43662 ], [ -113.51385, 53.43701 ], [ -113.5131, 53.43761 ], [ -113.51258, 53.4383 ] ] ], [ [ [ -113.51059, 53.45667 ], [ -113.51032, 53.4574 ], [ -113.51031, 53.45816 ], [ -113.51048, 53.45871 ], [ -113.51092, 53.45941 ], [ -113.5116, 53.46005 ], [ -113.51248, 53.46058 ], [ -113.51326, 53.46091 ], [ -113.5144, 53.46122 ], [ -113.51532, 53.46135 ], [ -113.51658, 53.4614 ], [ -113.51782, 53.46128 ], [ -113.519, 53.46102 ], [ -113.52006, 53.46061 ], [ -113.52075, 53.46023 ], [ -113.5215, 53.45962 ], [ -113.52202, 53.45894 ], [ -113.52229, 53.4582 ], [ -113.5223, 53.45745 ], [ -113.52213, 53.4569 ], [ -113.52169, 53.45619 ], [ -113.52101, 53.45556 ], [ -113.52012, 53.45503 ], [ -113.51935, 53.4547 ], [ -113.5182, 53.45439 ], [ -113.51729, 53.45426 ], [ -113.51603, 53.45421 ], [ -113.51478, 53.45433 ], [ -113.51361, 53.45459 ], [ -113.51255, 53.455 ], [ -113.51186, 53.45538 ], [ -113.51111, 53.45599 ], [ -113.51059, 53.45667 ] ] ], [ [ [ -113.511, 53.48475 ], [ -113.5108, 53.48549 ], [ -113.51085, 53.48624 ], [ -113.51107, 53.48679 ], [ -113.51157, 53.48747 ], [ -113.51231, 53.48809 ], [ -113.51299, 53.48848 ], [ -113.51404, 53.48889 ], [ -113.51521, 53.48916 ], [ -113.51646, 53.48929 ], [ -113.51772, 53.48925 ], [ -113.51864, 53.48912 ], [ -113.51979, 53.48882 ], [ -113.52082, 53.48839 ], [ -113.52166, 53.48783 ], [ -113.5223, 53.48718 ], [ -113.52262, 53.48665 ], [ -113.52283, 53.48591 ], [ -113.52277, 53.48516 ], [ -113.52256, 53.48461 ], [ -113.52205, 53.48392 ], [ -113.52132, 53.48331 ], [ -113.52064, 53.48292 ], [ -113.51959, 53.48251 ], [ -113.51841, 53.48223 ], [ -113.51717, 53.48211 ], [ -113.51591, 53.48215 ], [ -113.51499, 53.48227 ], [ -113.51384, 53.48257 ], [ -113.51281, 53.48301 ], [ -113.51196, 53.48357 ], [ -113.51132, 53.48421 ], [ -113.511, 53.48475 ] ] ], [ [ [ -113.49531, 53.55659 ], [ -113.49504, 53.55732 ], [ -113.49503, 53.55808 ], [ -113.4952, 53.55863 ], [ -113.49564, 53.55933 ], [ -113.49632, 53.55997 ], [ -113.49721, 53.5605 ], [ -113.49798, 53.56083 ], [ -113.49913, 53.56114 ], [ -113.50005, 53.56127 ], [ -113.50131, 53.56132 ], [ -113.50256, 53.5612 ], [ -113.50374, 53.56094 ], [ -113.5048, 53.56053 ], [ -113.5055, 53.56015 ], [ -113.50624, 53.55954 ], [ -113.50677, 53.55886 ], [ -113.50704, 53.55813 ], [ -113.50705, 53.55737 ], [ -113.50688, 53.55682 ], [ -113.50644, 53.55612 ], [ -113.50576, 53.55548 ], [ -113.50487, 53.55495 ], [ -113.50409, 53.55462 ], [ -113.50294, 53.55431 ], [ -113.50202, 53.55418 ], [ -113.50076, 53.55413 ], [ -113.49952, 53.55425 ], [ -113.49834, 53.55451 ], [ -113.49727, 53.55492 ], [ -113.49658, 53.5553 ], [ -113.49583, 53.55591 ], [ -113.49531, 53.55659 ] ] ], [ [ [ -113.50347, 53.56607 ], [ -113.50329, 53.56662 ], [ -113.50328, 53.56737 ], [ -113.50345, 53.56793 ], [ -113.50376, 53.56846 ], [ -113.50438, 53.56911 ], [ -113.50499, 53.56955 ], [ -113.50571, 53.56992 ], [ -113.50656, 53.57023 ], [ -113.50614, 53.57069 ], [ -113.50582, 53.57122 ], [ -113.50564, 53.57177 ], [ -113.50561, 53.57234 ], [ -113.50573, 53.5729 ], [ -113.50599, 53.57344 ], [ -113.50639, 53.57395 ], [ -113.50692, 53.57441 ], [ -113.50781, 53.57495 ], [ -113.50859, 53.57527 ], [ -113.50974, 53.57558 ], [ -113.51097, 53.57574 ], [ -113.51223, 53.57575 ], [ -113.51347, 53.5756 ], [ -113.51463, 53.5753 ], [ -113.51541, 53.57498 ], [ -113.51588, 53.57473 ], [ -113.5165, 53.5743 ], [ -113.51714, 53.57366 ], [ -113.51746, 53.57313 ], [ -113.5176, 53.57276 ], [ -113.51768, 53.5722 ], [ -113.51765, 53.57182 ], [ -113.51749, 53.57127 ], [ -113.51729, 53.57091 ], [ -113.51704, 53.57056 ], [ -113.51655, 53.57008 ], [ -113.51594, 53.56965 ], [ -113.51547, 53.56939 ], [ -113.51437, 53.56897 ], [ -113.51479, 53.56851 ], [ -113.51511, 53.56798 ], [ -113.51529, 53.56742 ], [ -113.51532, 53.56686 ], [ -113.5152, 53.5663 ], [ -113.51494, 53.56576 ], [ -113.51454, 53.56525 ], [ -113.51401, 53.56478 ], [ -113.51359, 53.5645 ], [ -113.51287, 53.56413 ], [ -113.51207, 53.56383 ], [ -113.51119, 53.56361 ], [ -113.51027, 53.56348 ], [ -113.50965, 53.56343 ], [ -113.50901, 53.56343 ], [ -113.50807, 53.5635 ], [ -113.50716, 53.56366 ], [ -113.50631, 53.5639 ], [ -113.50552, 53.56421 ], [ -113.50505, 53.56446 ], [ -113.50443, 53.56489 ], [ -113.50408, 53.5652 ], [ -113.50379, 53.56554 ], [ -113.50347, 53.56607 ] ] ], [ [ [ -113.42449, 53.4573 ], [ -113.42427, 53.45785 ], [ -113.42419, 53.4586 ], [ -113.42438, 53.45934 ], [ -113.42469, 53.45987 ], [ -113.42531, 53.46053 ], [ -113.42591, 53.46096 ], [ -113.42638, 53.46121 ], [ -113.42743, 53.46163 ], [ -113.42872, 53.46192 ], [ -113.4286, 53.46233 ], [ -113.42857, 53.46289 ], [ -113.42863, 53.46327 ], [ -113.42884, 53.46382 ], [ -113.4292, 53.46434 ], [ -113.42951, 53.46467 ], [ -113.42987, 53.46497 ], [ -113.43052, 53.46539 ], [ -113.43153, 53.46583 ], [ -113.43268, 53.46614 ], [ -113.43359, 53.46628 ], [ -113.43485, 53.46632 ], [ -113.4361, 53.46621 ], [ -113.43728, 53.46595 ], [ -113.43834, 53.46555 ], [ -113.43903, 53.46516 ], [ -113.43943, 53.46487 ], [ -113.43993, 53.46439 ], [ -113.4403, 53.46387 ], [ -113.44047, 53.46351 ], [ -113.44057, 53.46314 ], [ -113.4406, 53.46257 ], [ -113.44054, 53.4622 ], [ -113.44033, 53.46165 ], [ -113.43997, 53.46113 ], [ -113.43966, 53.4608 ], [ -113.43929, 53.46049 ], [ -113.43865, 53.46008 ], [ -113.43816, 53.45984 ], [ -113.43736, 53.45954 ], [ -113.43607, 53.45925 ], [ -113.43619, 53.45884 ], [ -113.43622, 53.45828 ], [ -113.43616, 53.4579 ], [ -113.43595, 53.45735 ], [ -113.43559, 53.45683 ], [ -113.43528, 53.4565 ], [ -113.43492, 53.4562 ], [ -113.43427, 53.45579 ], [ -113.43378, 53.45555 ], [ -113.43298, 53.45525 ], [ -113.43211, 53.45503 ], [ -113.43151, 53.45493 ], [ -113.43025, 53.45484 ], [ -113.42931, 53.45488 ], [ -113.42869, 53.45496 ], [ -113.42809, 53.45507 ], [ -113.42724, 53.45531 ], [ -113.42645, 53.45563 ], [ -113.42598, 53.45588 ], [ -113.42536, 53.4563 ], [ -113.42502, 53.45661 ], [ -113.42449, 53.4573 ] ] ], [ [ [ -113.43325, 53.47388 ], [ -113.43298, 53.47462 ], [ -113.43297, 53.47537 ], [ -113.43314, 53.47592 ], [ -113.43358, 53.47663 ], [ -113.43426, 53.47726 ], [ -113.43514, 53.47779 ], [ -113.43592, 53.47812 ], [ -113.43706, 53.47843 ], [ -113.43798, 53.47857 ], [ -113.43924, 53.47861 ], [ -113.44048, 53.4785 ], [ -113.44166, 53.47823 ], [ -113.44272, 53.47783 ], [ -113.44341, 53.47745 ], [ -113.44416, 53.47684 ], [ -113.44468, 53.47616 ], [ -113.44496, 53.47542 ], [ -113.44497, 53.47467 ], [ -113.4448, 53.47412 ], [ -113.44436, 53.47341 ], [ -113.44368, 53.47278 ], [ -113.4428, 53.47224 ], [ -113.44202, 53.47192 ], [ -113.44088, 53.47161 ], [ -113.43996, 53.47147 ], [ -113.4387, 53.47143 ], [ -113.43746, 53.47154 ], [ -113.43628, 53.4718 ], [ -113.43521, 53.47221 ], [ -113.43452, 53.47259 ], [ -113.43378, 53.4732 ], [ -113.43325, 53.47388 ] ] ], [ [ [ -113.4384, 53.49875 ], [ -113.43812, 53.49949 ], [ -113.43811, 53.50024 ], [ -113.43828, 53.50079 ], [ -113.43872, 53.5015 ], [ -113.4394, 53.50213 ], [ -113.44028, 53.50267 ], [ -113.44106, 53.50299 ], [ -113.44221, 53.5033 ], [ -113.44312, 53.50344 ], [ -113.44438, 53.50348 ], [ -113.44563, 53.50337 ], [ -113.44681, 53.50311 ], [ -113.44787, 53.5027 ], [ -113.44856, 53.50232 ], [ -113.44931, 53.50171 ], [ -113.44983, 53.50103 ], [ -113.4501, 53.50029 ], [ -113.45011, 53.49954 ], [ -113.44995, 53.49899 ], [ -113.44951, 53.49828 ], [ -113.44883, 53.49765 ], [ -113.44794, 53.49712 ], [ -113.44717, 53.49679 ], [ -113.44602, 53.49648 ], [ -113.4451, 53.49635 ], [ -113.44384, 53.4963 ], [ -113.4426, 53.49641 ], [ -113.44142, 53.49668 ], [ -113.44036, 53.49708 ], [ -113.43967, 53.49747 ], [ -113.43892, 53.49807 ], [ -113.4384, 53.49875 ] ] ], [ [ [ -113.44931, 53.50838 ], [ -113.4491, 53.50912 ], [ -113.44915, 53.50987 ], [ -113.44937, 53.51042 ], [ -113.44987, 53.51111 ], [ -113.45061, 53.51172 ], [ -113.45129, 53.51211 ], [ -113.45234, 53.51252 ], [ -113.45351, 53.5128 ], [ -113.45476, 53.51292 ], [ -113.45602, 53.51289 ], [ -113.45694, 53.51276 ], [ -113.45809, 53.51246 ], [ -113.45912, 53.51202 ], [ -113.45997, 53.51147 ], [ -113.46061, 53.51082 ], [ -113.46093, 53.51029 ], [ -113.46114, 53.50955 ], [ -113.46108, 53.5088 ], [ -113.46087, 53.50825 ], [ -113.46036, 53.50756 ], [ -113.45963, 53.50695 ], [ -113.45895, 53.50656 ], [ -113.4579, 53.50614 ], [ -113.45672, 53.50587 ], [ -113.45548, 53.50574 ], [ -113.45422, 53.50578 ], [ -113.4533, 53.50591 ], [ -113.45214, 53.50621 ], [ -113.45112, 53.50664 ], [ -113.45027, 53.5072 ], [ -113.44963, 53.50784 ], [ -113.44931, 53.50838 ] ] ], [ [ [ -113.4497, 53.51824 ], [ -113.44943, 53.51897 ], [ -113.44942, 53.51973 ], [ -113.44959, 53.52028 ], [ -113.45003, 53.52098 ], [ -113.45071, 53.52162 ], [ -113.45159, 53.52215 ], [ -113.45237, 53.52248 ], [ -113.45352, 53.52279 ], [ -113.45443, 53.52292 ], [ -113.45569, 53.52297 ], [ -113.45694, 53.52286 ], [ -113.45812, 53.52259 ], [ -113.45918, 53.52219 ], [ -113.45987, 53.5218 ], [ -113.46062, 53.5212 ], [ -113.46115, 53.52051 ], [ -113.46142, 53.51978 ], [ -113.46143, 53.51903 ], [ -113.46126, 53.51847 ], [ -113.46082, 53.51777 ], [ -113.46014, 53.51714 ], [ -113.45925, 53.5166 ], [ -113.45848, 53.51628 ], [ -113.45733, 53.51597 ], [ -113.45641, 53.51583 ], [ -113.45515, 53.51579 ], [ -113.45391, 53.5159 ], [ -113.45273, 53.51616 ], [ -113.45166, 53.51657 ], [ -113.45097, 53.51695 ], [ -113.45022, 53.51756 ], [ -113.4497, 53.51824 ] ] ], [ [ [ -113.45172, 53.52662 ], [ -113.45145, 53.52735 ], [ -113.45144, 53.5281 ], [ -113.4517, 53.52884 ], [ -113.4522, 53.52953 ], [ -113.45254, 53.52985 ], [ -113.45315, 53.53028 ], [ -113.45412, 53.53075 ], [ -113.45467, 53.53095 ], [ -113.45554, 53.53117 ], [ -113.45615, 53.53127 ], [ -113.45702, 53.53134 ], [ -113.45699, 53.53189 ], [ -113.45705, 53.53227 ], [ -113.45718, 53.53264 ], [ -113.45749, 53.53317 ], [ -113.45777, 53.53351 ], [ -113.4583, 53.53397 ], [ -113.45872, 53.53425 ], [ -113.45944, 53.53462 ], [ -113.46052, 53.535 ], [ -113.46172, 53.53524 ], [ -113.46266, 53.53532 ], [ -113.46392, 53.53529 ], [ -113.46484, 53.53516 ], [ -113.466, 53.53486 ], [ -113.46702, 53.53442 ], [ -113.46787, 53.53387 ], [ -113.46837, 53.53339 ], [ -113.46863, 53.53305 ], [ -113.46883, 53.53269 ], [ -113.46901, 53.53213 ], [ -113.46905, 53.53157 ], [ -113.46898, 53.5312 ], [ -113.46886, 53.53083 ], [ -113.46855, 53.53029 ], [ -113.46827, 53.52996 ], [ -113.46774, 53.52949 ], [ -113.46732, 53.52921 ], [ -113.4666, 53.52884 ], [ -113.46607, 53.52863 ], [ -113.46522, 53.52839 ], [ -113.46432, 53.52822 ], [ -113.46344, 53.52815 ], [ -113.46347, 53.52759 ], [ -113.46341, 53.52722 ], [ -113.46328, 53.52685 ], [ -113.46298, 53.52632 ], [ -113.46269, 53.52598 ], [ -113.46216, 53.52551 ], [ -113.46174, 53.52523 ], [ -113.46103, 53.52486 ], [ -113.4605, 53.52466 ], [ -113.45965, 53.52441 ], [ -113.45844, 53.52421 ], [ -113.45718, 53.52416 ], [ -113.45655, 53.5242 ], [ -113.45563, 53.52433 ], [ -113.45447, 53.52463 ], [ -113.45369, 53.52494 ], [ -113.45321, 53.52519 ], [ -113.45259, 53.52562 ], [ -113.45225, 53.52593 ], [ -113.45172, 53.52662 ] ] ], [ [ [ -113.47379, 53.53531 ], [ -113.47352, 53.53605 ], [ -113.47351, 53.5368 ], [ -113.47368, 53.53735 ], [ -113.47412, 53.53806 ], [ -113.4748, 53.53869 ], [ -113.47569, 53.53923 ], [ -113.47646, 53.53955 ], [ -113.47761, 53.53986 ], [ -113.47853, 53.54 ], [ -113.47979, 53.54004 ], [ -113.48104, 53.53993 ], [ -113.48222, 53.53966 ], [ -113.48328, 53.53926 ], [ -113.48397, 53.53887 ], [ -113.48472, 53.53827 ], [ -113.48524, 53.53759 ], [ -113.48551, 53.53685 ], [ -113.48552, 53.5361 ], [ -113.48536, 53.53554 ], [ -113.48491, 53.53484 ], [ -113.48423, 53.53421 ], [ -113.48335, 53.53367 ], [ -113.48257, 53.53335 ], [ -113.48142, 53.53304 ], [ -113.4805, 53.5329 ], [ -113.47925, 53.53286 ], [ -113.478, 53.53297 ], [ -113.47682, 53.53324 ], [ -113.47575, 53.53364 ], [ -113.47506, 53.53402 ], [ -113.47431, 53.53463 ], [ -113.47379, 53.53531 ] ] ], [ [ [ -113.46505, 53.55881 ], [ -113.46478, 53.55954 ], [ -113.46477, 53.56029 ], [ -113.46493, 53.56085 ], [ -113.46538, 53.56155 ], [ -113.46605, 53.56219 ], [ -113.46694, 53.56272 ], [ -113.46772, 53.56304 ], [ -113.46887, 53.56336 ], [ -113.46979, 53.56349 ], [ -113.47105, 53.56354 ], [ -113.47229, 53.56342 ], [ -113.47348, 53.56316 ], [ -113.47454, 53.56275 ], [ -113.47523, 53.56237 ], [ -113.47598, 53.56177 ], [ -113.4765, 53.56108 ], [ -113.47677, 53.56035 ], [ -113.47678, 53.5596 ], [ -113.47662, 53.55904 ], [ -113.47617, 53.55834 ], [ -113.47549, 53.5577 ], [ -113.47461, 53.55717 ], [ -113.47383, 53.55685 ], [ -113.47268, 53.55653 ], [ -113.47176, 53.5564 ], [ -113.4705, 53.55635 ], [ -113.46926, 53.55647 ], [ -113.46807, 53.55673 ], [ -113.46701, 53.55713 ], [ -113.46632, 53.55752 ], [ -113.46557, 53.55812 ], [ -113.46505, 53.55881 ] ] ], [ [ [ -113.45253, 53.56978 ], [ -113.45232, 53.57052 ], [ -113.45238, 53.57128 ], [ -113.45259, 53.57182 ], [ -113.4531, 53.57251 ], [ -113.45383, 53.57312 ], [ -113.45451, 53.57352 ], [ -113.45557, 53.57393 ], [ -113.45674, 53.5742 ], [ -113.45799, 53.57433 ], [ -113.45925, 53.57429 ], [ -113.46017, 53.57417 ], [ -113.46133, 53.57387 ], [ -113.46236, 53.57343 ], [ -113.46321, 53.57287 ], [ -113.46385, 53.57223 ], [ -113.46417, 53.5717 ], [ -113.46438, 53.57096 ], [ -113.46432, 53.5702 ], [ -113.46411, 53.56966 ], [ -113.4636, 53.56897 ], [ -113.46287, 53.56836 ], [ -113.46219, 53.56796 ], [ -113.46113, 53.56755 ], [ -113.45996, 53.56728 ], [ -113.45871, 53.56715 ], [ -113.45745, 53.56719 ], [ -113.45653, 53.56731 ], [ -113.45537, 53.56761 ], [ -113.45434, 53.56805 ], [ -113.45349, 53.56861 ], [ -113.45285, 53.56925 ], [ -113.45253, 53.56978 ] ] ], [ [ [ -113.42729, 53.58713 ], [ -113.42702, 53.58786 ], [ -113.42701, 53.58862 ], [ -113.42717, 53.58917 ], [ -113.42762, 53.58987 ], [ -113.42829, 53.59051 ], [ -113.42918, 53.59104 ], [ -113.42996, 53.59137 ], [ -113.43111, 53.59168 ], [ -113.43203, 53.59181 ], [ -113.43329, 53.59186 ], [ -113.43454, 53.59175 ], [ -113.43572, 53.59148 ], [ -113.43678, 53.59108 ], [ -113.43748, 53.59069 ], [ -113.43823, 53.59009 ], [ -113.43875, 53.58941 ], [ -113.43902, 53.58867 ], [ -113.43903, 53.58792 ], [ -113.43887, 53.58737 ], [ -113.43842, 53.58666 ], [ -113.43774, 53.58603 ], [ -113.43686, 53.58549 ], [ -113.43608, 53.58517 ], [ -113.43493, 53.58486 ], [ -113.43401, 53.58472 ], [ -113.43275, 53.58468 ], [ -113.4315, 53.58479 ], [ -113.43032, 53.58505 ], [ -113.42926, 53.58546 ], [ -113.42856, 53.58584 ], [ -113.42781, 53.58645 ], [ -113.42729, 53.58713 ] ] ], [ [ [ -113.40609, 53.60045 ], [ -113.40581, 53.60119 ], [ -113.4058, 53.60194 ], [ -113.40597, 53.60249 ], [ -113.40641, 53.6032 ], [ -113.40709, 53.60383 ], [ -113.40798, 53.60437 ], [ -113.40875, 53.60469 ], [ -113.4099, 53.605 ], [ -113.41082, 53.60514 ], [ -113.41209, 53.60518 ], [ -113.41333, 53.60507 ], [ -113.41452, 53.60481 ], [ -113.41558, 53.6044 ], [ -113.41628, 53.60402 ], [ -113.41703, 53.60341 ], [ -113.41755, 53.60273 ], [ -113.41782, 53.602 ], [ -113.41783, 53.60125 ], [ -113.41767, 53.60069 ], [ -113.41723, 53.59999 ], [ -113.41655, 53.59935 ], [ -113.41566, 53.59882 ], [ -113.41488, 53.59849 ], [ -113.41373, 53.59818 ], [ -113.41281, 53.59805 ], [ -113.41155, 53.598 ], [ -113.4103, 53.59811 ], [ -113.40912, 53.59838 ], [ -113.40806, 53.59878 ], [ -113.40736, 53.59916 ], [ -113.40661, 53.59977 ], [ -113.40609, 53.60045 ] ] ] ] } }
]
}
