{
"type": "FeatureCollection",
"name": "lrt",
"features": [
{ "type": "Feature", "properties": { "name": "102 Street", "status": "existing" }, "geometry": { "type": "Point", "coordinates": [ -113.49467, 53.54318 ] } },
{ "type": "Feature", "properties": { "name": "124 Street", "status": "future" }, "geometry": { "type": "Point", "coordinates": [ -113.53592, 53.54694 ] } },
{ "type": "Feature", "properties": { "name": "Aldergrove/Belmead", "status": "future" }, "geometry": { "type": "Point", "coordinates": [ -113.63858, 53.52151 ] } },
{ "type": "Feature", "properties": { "name": "Alex Decoteau", "status": "future" }, "geometry": { "type": "Point", "coordinates": [ -113.50123, 53.54304 ] } },
{ "type": "Feature", "properties": { "name": "Avonmore", "status": "existing" }, "geometry": { "type": "Point", "coordinates": [ -113.45512, 53.50933 ] } },
{ "type": "Feature", "properties": { "name": "Bay Enterprise Square", "status": "existing" }, "geometry": { "type": "Point", "coordinates": [ -113.49841, 53.54092 ] } },
{ "type": "Feature", "properties": { "name": "Belvedere", "status": "existing" }, "geometry": { "type": "Point", "coordinates": [ -113.43302, 53.58827 ] } },
{ "type": "Feature", "properties": { "name": "Blatchford Gate", "status": "future" }, "geometry": { "type": "Point", "coordinates": [ -113.51164, 53.57217 ] } },
{ "type": "Feature", "properties": { "name": "Bonnie Doon", "status": "existing" }, "geometry": { "type": "Point", "coordinates": [ -113.45542, 53.51938 ] } },
{ "type": "Feature", "properties": { "name": "Brewery/120 Street", "status": "future" }, "geometry": { "type": "Point", "coordinates": [ -113.52865, 53.54628 ] } },
{ "type": "Feature", "properties": { "name": "Central", "status": "existing" }, "geometry": { "type": "Point", "coordinates": [ -113.4925, 53.541 ] } },
{ "type": "Feature", "properties": { "name": "Century Park", "status": "existing" }, "geometry": { "type": "Point", "coordinates": [ -113.5163, 53.45781 ] } },
{ "type": "Feature", "properties": { "name": "Churchill", "status": "existing" }, "geometry": { "type": "Point", "coordinates": [ -113.48938, 53.54377 ] } },
{ "type": "Feature", "properties": { "name": "Clareview", "status": "existing" }, "geometry": { "type": "Point", "coordinates": [ -113.41182, 53.60159 ] } },
{ "type": "Feature", "properties": { "name": "Coliseum", "status": "existing" }, "geometry": { "type": "Point", "coordinates": [ -113.45835, 53.57074 ] } },
{ "type": "Feature", "properties": { "name": "Corona", "status": "existing" }, "geometry": { "type": "Point", "coordinates": [ -113.50498, 53.54095 ] } },
{ "type": "Feature", "properties": { "name": "Davies", "status": "existing" }, "geometry": { "type": "Point", "coordinates": [ -113.44411, 53.49989 ] } },
{ "type": "Feature", "properties": { "name": "Glenora", "status": "future" }, "geometry": { "type": "Point", "coordinates": [ -113.55128, 53.54622 ] } },
{ "type": "Feature", "properties": { "name": "Glenwood/Sherwood", "status": "future" }, "geometry": { "type": "Point", "coordinates": [ -113.59037, 53.53163 ] } },
{ "type": "Feature", "properties": { "name": "Government", "status": "existing" }, "geometry": { "type": "Point", "coordinates": [ -113.51028, 53.53623 ] } },
{ "type": "Feature", "properties": { "name": "Grey Nuns", "status": "existing" }, "geometry": { "type": "Point", "coordinates": [ -113.43458, 53.46273 ] } },
{ "type": "Feature", "properties": { "name": "Grovenor/142 Street", "status": "future" }, "geometry": { "type": "Point", "coordinates": [ -113.56483, 53.54307 ] } },
{ "type": "Feature", "properties": { "name": "Health Sciences Jubilee", "status": "existing" }, "geometry": { "type": "Point", "coordinates": [ -113.52587, 53.52016 ] } },
{ "type": "Feature", "properties": { "name": "Heritage Valley North", "status": "future" }, "geometry": { "type": "Point", "coordinates": [ -113.54584, 53.42522 ] } },
{ "type": "Feature", "properties": { "name": "Holyrood", "status": "existing" }, "geometry": { "type": "Point", "coordinates": [ -113.45745, 53.52776 ] } },
{ "type": "Feature", "properties": { "name": "Jasper Place", "status": "future" }, "geometry": { "type": "Point", "coordinates": [ -113.59033, 53.54054 ] } },
{ "type": "Feature", "properties": { "name": "Kingsway RAH", "status": "existing" }, "geometry": { "type": "Point", "coordinates": [ -113.50104, 53.55773 ] } },
{ "type": "Feature", "properties": { "name": "Lewis Farms", "status": "future" }, "geometry": { "type": "Point", "coordinates": [ -113.66655, 53.52325 ] } },
{ "type": "Feature", "properties": { "name": "MacEwan Arts/112 Street", "status": "future" }, "geometry": { "type": "Point", "coordinates": [ -113.5139, 53.54623 ] } },
{ "type": "Feature", "properties": { "name": "MacEwan", "status": "existing" }, "geometry": { "type": "Point", "coordinates": [ -113.4987, 53.54775 ] } },
{ "type": "Feature", "properties": { "name": "McKernan Belgravia", "status": "existing" }, "geometry": { "type": "Point", "coordinates": [ -113.52618, 53.51302 ] } },
{ "type": "Feature", "properties": { "name": "Meadowlark", "status": "future" }, "geometry": { "type": "Point", "coordinates": [ -113.59514, 53.52189 ] } },
{ "type": "Feature", "properties": { "name": "Mill Woods", "status": "existing" }, "geometry": { "type": "Point", "coordinates": [ -113.43021, 53.45844 ] } },
{ "type": "Feature", "properties": { "name": "Millbourne/Woodvale", "status": "existing" }, "geometry": { "type": "Point", "coordinates": [ -113.43897, 53.47502 ] } },
{ "type": "Feature", "properties": { "name": "Misericordia", "status": "future" }, "geometry": { "type": "Point", "coordinates": [ -113.61188, 53.51964 ] } },
{ "type": "Feature", "properties": { "name": "Muttart", "status": "existing" }, "geometry": { "type": "Point", "coordinates": [ -113.47952, 53.53645 ] } },
{ "type": "Feature", "properties": { "name": "NAIT/Bltachford Market", "status": "future" }, "geometry": { "type": "Point", "coordinates": [ -113.50929, 53.56702 ] } },
{ "type": "Feature", "properties": { "name": "NorQuest", "status": "future" }, "geometry": { "type": "Point", "coordinates": [ -113.50473, 53.54544 ] } },
{ "type": "Feature", "properties": { "name": "Quarters", "status": "existing" }, "geometry": { "type": "Point", "coordinates": [ -113.48348, 53.54449 ] } },
{ "type": "Feature", "properties": { "name": "South Campus Ft Edmonton", "status": "existing" }, "geometry": { "type": "Point", "coordinates": [ -113.52846, 53.50261 ] } },
{ "type": "Feature", "properties": { "name": "Southgate", "status": "existing" }, "geometry": { "type": "Point", "coordinates": [ -113.51681, 53.4857 ] } },
{ "type": "Feature", "properties": { "name": "Stadium", "status": "existing" }, "geometry": { "type": "Point", "coordinates": [ -113.47077, 53.55995 ] } },
{ "type": "Feature", "properties": { "name": "Stony Plain Road/149 St", "status": "future" }, "geometry": { "type": "Point", "coordinates": [ -113.5807, 53.54135 ] } },
{ "type": "Feature", "properties": { "name": "Strathearn", "status": "existing" }, "geometry": { "type": "Point", "coordinates": [ -113.46302, 53.53173 ] } },
{ "type": "Feature", "properties": { "name": "The Yards/116 Street", "status": "future" }, "geometry": { "type": "Point", "coordinates": [ -113.52129, 53.54635 ] } },
{ "type": "Feature", "properties": { "name": "Twin Brooks", "status": "future" }, "geometry": { "type": "Point", "coordinates": [ -113.51829, 53.43943 ] } },
{ "type": "Feature", "properties": { "name": "University", "status": "existing" }, "geometry": { "type": "Point", "coordinates": [ -113.52191, 53.52504 ] } },
{ "type": "Feature", "properties": { "name": "West Edmonton Mall", "status": "future" }, "geometry": { "type": "Point", "coordinates": [ -113.62278, 53.52021 ] } }
]
}
